{
"type": "FeatureCollection",
"name": "infraestructura_parvulos",
"crs": { "type": "name", "properties": { "name": "urn:ogc:def:crs:OGC:1.3:CRS84" } },
"features": [
{ "type": "Feature", "properties": { "fid": 236, "AGNO": 2021.0, "ID_ESTAB": 597.0, "ORIGEN": 1.0, "NOM_ESTAB": "COLEGIO PEDRO PABLO MUÑOZ", "COD_REG_ES": 4.0, "COD_PRO_ES": 41.0, "COD_COM_ES": 4104.0, "NOM_COM_ES": "LA HIGUERA", "COD_DEPROV": 41.0, "NOM_DEPROV": "ELQUI", "DEPENDENCI": 1.0, "RURAL_ESTA": 0.0, "ESTADO_EST": 1.0, "SC_MEN_SI": 0.0, "SC_MEN_H": 0.0, "SC_MEN_M": 0.0, "SC_MAY_H": 0.0, "SC_MAY_M": 0.0, "MED_MEN_SI": 0.0, "MED_MEN_H": 0.0, "MED_MEN_M": 0.0, "MED_MAY_SI": 0.0, "MED_MAY_H": 0.0, "MED_MAY_M": 0.0, "NT1_SI": 0.0, "NT1_H": 10.0, "NT1_M": 11.0, "NT2_SI": 0.0, "NT2_H": 13.0, "NT2_M": 18.0, "N_TOTAL": 52.0, "DIRECCION": "GABRIELA MISTRAL", "NUMERO": 84.0, "REFERENCIA": "SE  ENCUENTRA UBICADA A 3 KMS DE LA RUTA 5 NORTE, LOCALIDAD LA HIGUERA, COMUNA DE LA HIGUERA, DISTANTE A 60 KM., AL NORTE DE LA SERENA", "LATITUD": -29.511, "LONGITUD": -71.20237, "Descripcion": "La capa contiene la ubicación de todos los establecimientos de educación parvularia que al año 2021 se encontraban funcionando a nivel nacional. Lo anterior incluye aquellos establecimientos educacionales con reconocimiento oficial Mineduc, Junji y Fundación Integra. Estos datos han sido generados por la Unidad de Estadísticas del Centro de Estudios, perteneciente a la División de Planificación y Presupuesto del Ministerio de Educación. Para su confección se utilizaron las direcciones reportadas por los establecimientos a través del Sistema de Información General de Estudiantes (SIGE). La información contenida en esta capa cuenta con actualización cuatrimestral, por lo cual la próxima actualización se realizará en marzo de 2022. En caso de contar observaciones sobre la información presentada, se solicita escribir a estadisticas@mineduc.cl.", "Origen Dato": "Portal de Datos Geoespaciales IDE Bienes Nacionales, disponible en: https://www.geoportal.cl/geoportal/catalog/35553/Establecimientos%20Educaci%C3%B3n%20Parvularia", "Dependencia": "Municipal", "Ruralidad": "Urbano" }, "geometry": { "type": "Point", "coordinates": [ -71.20237, -29.511 ] } },
{ "type": "Feature", "properties": { "fid": 237, "AGNO": 2021.0, "ID_ESTAB": 602.0, "ORIGEN": 1.0, "NOM_ESTAB": "ESCUELA BASICA CARLOS CONDELL", "COD_REG_ES": 4.0, "COD_PRO_ES": 41.0, "COD_COM_ES": 4104.0, "NOM_COM_ES": "LA HIGUERA", "COD_DEPROV": 41.0, "NOM_DEPROV": "ELQUI", "DEPENDENCI": 1.0, "RURAL_ESTA": 1.0, "ESTADO_EST": 1.0, "SC_MEN_SI": 0.0, "SC_MEN_H": 0.0, "SC_MEN_M": 0.0, "SC_MAY_H": 0.0, "SC_MAY_M": 0.0, "MED_MEN_SI": 0.0, "MED_MEN_H": 0.0, "MED_MEN_M": 0.0, "MED_MAY_SI": 0.0, "MED_MAY_H": 0.0, "MED_MAY_M": 0.0, "NT1_SI": 0.0, "NT1_H": 2.0, "NT1_M": 11.0, "NT2_SI": 0.0, "NT2_H": 8.0, "NT2_M": 7.0, "N_TOTAL": 28.0, "DIRECCION": "RUTA 5 NORTE", "NUMERO": 509.0, "REFERENCIA": "CALETA LOS HORNOS (RUTA 5 NORTE KM 509)", "LATITUD": -29.6222, "LONGITUD": -71.28537, "Descripcion": "La capa contiene la ubicación de todos los establecimientos de educación parvularia que al año 2021 se encontraban funcionando a nivel nacional. Lo anterior incluye aquellos establecimientos educacionales con reconocimiento oficial Mineduc, Junji y Fundación Integra. Estos datos han sido generados por la Unidad de Estadísticas del Centro de Estudios, perteneciente a la División de Planificación y Presupuesto del Ministerio de Educación. Para su confección se utilizaron las direcciones reportadas por los establecimientos a través del Sistema de Información General de Estudiantes (SIGE). La información contenida en esta capa cuenta con actualización cuatrimestral, por lo cual la próxima actualización se realizará en marzo de 2022. En caso de contar observaciones sobre la información presentada, se solicita escribir a estadisticas@mineduc.cl.", "Origen Dato": "Portal de Datos Geoespaciales IDE Bienes Nacionales, disponible en: https://www.geoportal.cl/geoportal/catalog/35553/Establecimientos%20Educaci%C3%B3n%20Parvularia", "Dependencia": "Municipal", "Ruralidad": "Rural" }, "geometry": { "type": "Point", "coordinates": [ -71.285383319510501, -29.622076306138034 ] } },
{ "type": "Feature", "properties": { "fid": 7793, "AGNO": 2021.0, "ID_ESTAB": 4104001.0, "ORIGEN": 2.0, "NOM_ESTAB": "CAPULLITO", "COD_REG_ES": 4.0, "COD_PRO_ES": 41.0, "COD_COM_ES": 4104.0, "NOM_COM_ES": "LA HIGUERA", "COD_DEPROV": 0.0, "NOM_DEPROV": null, "DEPENDENCI": 4.0, "RURAL_ESTA": 1.0, "ESTADO_EST": 0.0, "SC_MEN_SI": 0.0, "SC_MEN_H": 0.0, "SC_MEN_M": 0.0, "SC_MAY_H": 3.0, "SC_MAY_M": 7.0, "MED_MEN_SI": 0.0, "MED_MEN_H": 3.0, "MED_MEN_M": 4.0, "MED_MAY_SI": 0.0, "MED_MAY_H": 13.0, "MED_MAY_M": 6.0, "NT1_SI": 0.0, "NT1_H": 1.0, "NT1_M": 0.0, "NT2_SI": 0.0, "NT2_H": 0.0, "NT2_M": 0.0, "N_TOTAL": 37.0, "DIRECCION": "CALLE PEDRO PABLO MUÑOZ", "NUMERO": 15.0, "REFERENCIA": "LA HIGUERA", "LATITUD": -29.511142, "LONGITUD": -71.201981, "Descripcion": "La capa contiene la ubicación de todos los establecimientos de educación parvularia que al año 2021 se encontraban funcionando a nivel nacional. Lo anterior incluye aquellos establecimientos educacionales con reconocimiento oficial Mineduc, Junji y Fundación Integra. Estos datos han sido generados por la Unidad de Estadísticas del Centro de Estudios, perteneciente a la División de Planificación y Presupuesto del Ministerio de Educación. Para su confección se utilizaron las direcciones reportadas por los establecimientos a través del Sistema de Información General de Estudiantes (SIGE). La información contenida en esta capa cuenta con actualización cuatrimestral, por lo cual la próxima actualización se realizará en marzo de 2022. En caso de contar observaciones sobre la información presentada, se solicita escribir a estadisticas@mineduc.cl.", "Origen Dato": "Portal de Datos Geoespaciales IDE Bienes Nacionales, disponible en: https://www.geoportal.cl/geoportal/catalog/35553/Establecimientos%20Educaci%C3%B3n%20Parvularia", "Dependencia": "JUNJI", "Ruralidad": "Rural" }, "geometry": { "type": "Point", "coordinates": [ -71.201981, -29.511142 ] } },
{ "type": "Feature", "properties": { "fid": 7794, "AGNO": 2021.0, "ID_ESTAB": 4104003.0, "ORIGEN": 2.0, "NOM_ESTAB": "SIRENITA", "COD_REG_ES": 4.0, "COD_PRO_ES": 41.0, "COD_COM_ES": 4104.0, "NOM_COM_ES": "LA HIGUERA", "COD_DEPROV": 0.0, "NOM_DEPROV": null, "DEPENDENCI": 4.0, "RURAL_ESTA": 1.0, "ESTADO_EST": 0.0, "SC_MEN_SI": 0.0, "SC_MEN_H": 0.0, "SC_MEN_M": 0.0, "SC_MAY_H": 2.0, "SC_MAY_M": 0.0, "MED_MEN_SI": 0.0, "MED_MEN_H": 3.0, "MED_MEN_M": 3.0, "MED_MAY_SI": 0.0, "MED_MAY_H": 5.0, "MED_MAY_M": 1.0, "NT1_SI": 0.0, "NT1_H": 0.0, "NT1_M": 2.0, "NT2_SI": 0.0, "NT2_H": 0.0, "NT2_M": 0.0, "N_TOTAL": 16.0, "DIRECCION": "CALETA DE HORNOS", "NUMERO": 0.0, "REFERENCIA": "S/N LA HIGUERA", "LATITUD": -29.624097, "LONGITUD": -71.282536, "Descripcion": "La capa contiene la ubicación de todos los establecimientos de educación parvularia que al año 2021 se encontraban funcionando a nivel nacional. Lo anterior incluye aquellos establecimientos educacionales con reconocimiento oficial Mineduc, Junji y Fundación Integra. Estos datos han sido generados por la Unidad de Estadísticas del Centro de Estudios, perteneciente a la División de Planificación y Presupuesto del Ministerio de Educación. Para su confección se utilizaron las direcciones reportadas por los establecimientos a través del Sistema de Información General de Estudiantes (SIGE). La información contenida en esta capa cuenta con actualización cuatrimestral, por lo cual la próxima actualización se realizará en marzo de 2022. En caso de contar observaciones sobre la información presentada, se solicita escribir a estadisticas@mineduc.cl.", "Origen Dato": "Portal de Datos Geoespaciales IDE Bienes Nacionales, disponible en: https://www.geoportal.cl/geoportal/catalog/35553/Establecimientos%20Educaci%C3%B3n%20Parvularia", "Dependencia": "JUNJI", "Ruralidad": "Rural" }, "geometry": { "type": "Point", "coordinates": [ -71.282517963941757, -29.624114215898466 ] } },
{ "type": "Feature", "properties": { "fid": 7795, "AGNO": 2021.0, "ID_ESTAB": 4104009.0, "ORIGEN": 2.0, "NOM_ESTAB": "FRUTILANDIA", "COD_REG_ES": 4.0, "COD_PRO_ES": 41.0, "COD_COM_ES": 4104.0, "NOM_COM_ES": "LA HIGUERA", "COD_DEPROV": 0.0, "NOM_DEPROV": null, "DEPENDENCI": 4.0, "RURAL_ESTA": 1.0, "ESTADO_EST": 0.0, "SC_MEN_SI": 0.0, "SC_MEN_H": 0.0, "SC_MEN_M": 0.0, "SC_MAY_H": 0.0, "SC_MAY_M": 0.0, "MED_MEN_SI": 0.0, "MED_MEN_H": 0.0, "MED_MEN_M": 0.0, "MED_MAY_SI": 0.0, "MED_MAY_H": 4.0, "MED_MAY_M": 2.0, "NT1_SI": 0.0, "NT1_H": 2.0, "NT1_M": 1.0, "NT2_SI": 0.0, "NT2_H": 3.0, "NT2_M": 2.0, "N_TOTAL": 14.0, "DIRECCION": "CAMINO PUBLICO", "NUMERO": 0.0, "REFERENCIA": "S/N LOS CHOROS", "LATITUD": -29.290931, "LONGITUD": -71.307972, "Descripcion": "La capa contiene la ubicación de todos los establecimientos de educación parvularia que al año 2021 se encontraban funcionando a nivel nacional. Lo anterior incluye aquellos establecimientos educacionales con reconocimiento oficial Mineduc, Junji y Fundación Integra. Estos datos han sido generados por la Unidad de Estadísticas del Centro de Estudios, perteneciente a la División de Planificación y Presupuesto del Ministerio de Educación. Para su confección se utilizaron las direcciones reportadas por los establecimientos a través del Sistema de Información General de Estudiantes (SIGE). La información contenida en esta capa cuenta con actualización cuatrimestral, por lo cual la próxima actualización se realizará en marzo de 2022. En caso de contar observaciones sobre la información presentada, se solicita escribir a estadisticas@mineduc.cl.", "Origen Dato": "Portal de Datos Geoespaciales IDE Bienes Nacionales, disponible en: https://www.geoportal.cl/geoportal/catalog/35553/Establecimientos%20Educaci%C3%B3n%20Parvularia", "Dependencia": "JUNJI", "Ruralidad": "Rural" }, "geometry": { "type": "Point", "coordinates": [ -71.307964296626267, -29.290964401284956 ] } },
{ "type": "Feature", "properties": { "fid": 7796, "AGNO": 2021.0, "ID_ESTAB": 4104011.0, "ORIGEN": 2.0, "NOM_ESTAB": "LOS PECECITOS", "COD_REG_ES": 4.0, "COD_PRO_ES": 41.0, "COD_COM_ES": 4104.0, "NOM_COM_ES": "LA HIGUERA", "COD_DEPROV": 0.0, "NOM_DEPROV": null, "DEPENDENCI": 4.0, "RURAL_ESTA": 1.0, "ESTADO_EST": 0.0, "SC_MEN_SI": 0.0, "SC_MEN_H": 0.0, "SC_MEN_M": 0.0, "SC_MAY_H": 0.0, "SC_MAY_M": 0.0, "MED_MEN_SI": 0.0, "MED_MEN_H": 0.0, "MED_MEN_M": 0.0, "MED_MAY_SI": 0.0, "MED_MAY_H": 2.0, "MED_MAY_M": 1.0, "NT1_SI": 0.0, "NT1_H": 2.0, "NT1_M": 5.0, "NT2_SI": 0.0, "NT2_H": 4.0, "NT2_M": 3.0, "N_TOTAL": 17.0, "DIRECCION": "LOCALIDAD DE CHUNGUNGO", "NUMERO": 0.0, "REFERENCIA": "CALLE S/N,", "LATITUD": -29.446592, "LONGITUD": -71.298494, "Descripcion": "La capa contiene la ubicación de todos los establecimientos de educación parvularia que al año 2021 se encontraban funcionando a nivel nacional. Lo anterior incluye aquellos establecimientos educacionales con reconocimiento oficial Mineduc, Junji y Fundación Integra. Estos datos han sido generados por la Unidad de Estadísticas del Centro de Estudios, perteneciente a la División de Planificación y Presupuesto del Ministerio de Educación. Para su confección se utilizaron las direcciones reportadas por los establecimientos a través del Sistema de Información General de Estudiantes (SIGE). La información contenida en esta capa cuenta con actualización cuatrimestral, por lo cual la próxima actualización se realizará en marzo de 2022. En caso de contar observaciones sobre la información presentada, se solicita escribir a estadisticas@mineduc.cl.", "Origen Dato": "Portal de Datos Geoespaciales IDE Bienes Nacionales, disponible en: https://www.geoportal.cl/geoportal/catalog/35553/Establecimientos%20Educaci%C3%B3n%20Parvularia", "Dependencia": "JUNJI", "Ruralidad": "Rural" }, "geometry": { "type": "Point", "coordinates": [ -71.29846671283434, -29.446602716136994 ] } },
{ "type": "Feature", "properties": { "fid": 7797, "AGNO": 2021.0, "ID_ESTAB": 4104012.0, "ORIGEN": 2.0, "NOM_ESTAB": "LAS GAVIOTAS", "COD_REG_ES": 4.0, "COD_PRO_ES": 41.0, "COD_COM_ES": 4104.0, "NOM_COM_ES": "LA HIGUERA", "COD_DEPROV": 0.0, "NOM_DEPROV": null, "DEPENDENCI": 4.0, "RURAL_ESTA": 1.0, "ESTADO_EST": 0.0, "SC_MEN_SI": 0.0, "SC_MEN_H": 0.0, "SC_MEN_M": 0.0, "SC_MAY_H": 0.0, "SC_MAY_M": 0.0, "MED_MEN_SI": 0.0, "MED_MEN_H": 2.0, "MED_MEN_M": 2.0, "MED_MAY_SI": 0.0, "MED_MAY_H": 5.0, "MED_MAY_M": 1.0, "NT1_SI": 0.0, "NT1_H": 2.0, "NT1_M": 1.0, "NT2_SI": 0.0, "NT2_H": 3.0, "NT2_M": 2.0, "N_TOTAL": 18.0, "DIRECCION": "LOCALIDAD DE PUNTA DE CHORO", "NUMERO": 0.0, "REFERENCIA": null, "LATITUD": -29.245836, "LONGITUD": -71.461111, "Descripcion": "La capa contiene la ubicación de todos los establecimientos de educación parvularia que al año 2021 se encontraban funcionando a nivel nacional. Lo anterior incluye aquellos establecimientos educacionales con reconocimiento oficial Mineduc, Junji y Fundación Integra. Estos datos han sido generados por la Unidad de Estadísticas del Centro de Estudios, perteneciente a la División de Planificación y Presupuesto del Ministerio de Educación. Para su confección se utilizaron las direcciones reportadas por los establecimientos a través del Sistema de Información General de Estudiantes (SIGE). La información contenida en esta capa cuenta con actualización cuatrimestral, por lo cual la próxima actualización se realizará en marzo de 2022. En caso de contar observaciones sobre la información presentada, se solicita escribir a estadisticas@mineduc.cl.", "Origen Dato": "Portal de Datos Geoespaciales IDE Bienes Nacionales, disponible en: https://www.geoportal.cl/geoportal/catalog/35553/Establecimientos%20Educaci%C3%B3n%20Parvularia", "Dependencia": "JUNJI", "Ruralidad": "Rural" }, "geometry": { "type": "Point", "coordinates": [ -71.460989224870275, -29.245879683770006 ] } },
{ "type": "Feature", "properties": { "fid": 7798, "AGNO": 2021.0, "ID_ESTAB": 4104013.0, "ORIGEN": 2.0, "NOM_ESTAB": "LOS CARIÑOSITOS", "COD_REG_ES": 4.0, "COD_PRO_ES": 41.0, "COD_COM_ES": 4104.0, "NOM_COM_ES": "LA HIGUERA", "COD_DEPROV": 0.0, "NOM_DEPROV": null, "DEPENDENCI": 4.0, "RURAL_ESTA": 1.0, "ESTADO_EST": 0.0, "SC_MEN_SI": 0.0, "SC_MEN_H": 0.0, "SC_MEN_M": 0.0, "SC_MAY_H": 0.0, "SC_MAY_M": 0.0, "MED_MEN_SI": 0.0, "MED_MEN_H": 3.0, "MED_MEN_M": 1.0, "MED_MAY_SI": 0.0, "MED_MAY_H": 2.0, "MED_MAY_M": 1.0, "NT1_SI": 0.0, "NT1_H": 0.0, "NT1_M": 1.0, "NT2_SI": 0.0, "NT2_H": 1.0, "NT2_M": 0.0, "N_TOTAL": 9.0, "DIRECCION": "PASAJEUMERO", "NUMERO": 7.0, "REFERENCIA": "S/N EL TRAPICHE", "LATITUD": -29.375734, "LONGITUD": -71.114272, "Descripcion": "La capa contiene la ubicación de todos los establecimientos de educación parvularia que al año 2021 se encontraban funcionando a nivel nacional. Lo anterior incluye aquellos establecimientos educacionales con reconocimiento oficial Mineduc, Junji y Fundación Integra. Estos datos han sido generados por la Unidad de Estadísticas del Centro de Estudios, perteneciente a la División de Planificación y Presupuesto del Ministerio de Educación. Para su confección se utilizaron las direcciones reportadas por los establecimientos a través del Sistema de Información General de Estudiantes (SIGE). La información contenida en esta capa cuenta con actualización cuatrimestral, por lo cual la próxima actualización se realizará en marzo de 2022. En caso de contar observaciones sobre la información presentada, se solicita escribir a estadisticas@mineduc.cl.", "Origen Dato": "Portal de Datos Geoespaciales IDE Bienes Nacionales, disponible en: https://www.geoportal.cl/geoportal/catalog/35553/Establecimientos%20Educaci%C3%B3n%20Parvularia", "Dependencia": "JUNJI", "Ruralidad": "Rural" }, "geometry": { "type": "Point", "coordinates": [ -71.114272, -29.375734 ] } },
{ "type": "Feature", "properties": { "fid": 10829, "AGNO": 2021.0, "ID_ESTAB": 40202.0, "ORIGEN": 3.0, "NOM_ESTAB": "CAMPANITAS AL VIENTO", "COD_REG_ES": 4.0, "COD_PRO_ES": 41.0, "COD_COM_ES": 4104.0, "NOM_COM_ES": "LA HIGUERA", "COD_DEPROV": 0.0, "NOM_DEPROV": null, "DEPENDENCI": 5.0, "RURAL_ESTA": 1.0, "ESTADO_EST": 0.0, "SC_MEN_SI": 0.0, "SC_MEN_H": 0.0, "SC_MEN_M": 0.0, "SC_MAY_H": 0.0, "SC_MAY_M": 0.0, "MED_MEN_SI": 0.0, "MED_MEN_H": 0.0, "MED_MEN_M": 0.0, "MED_MAY_SI": 0.0, "MED_MAY_H": 5.0, "MED_MAY_M": 3.0, "NT1_SI": 0.0, "NT1_H": 3.0, "NT1_M": 2.0, "NT2_SI": 0.0, "NT2_H": 1.0, "NT2_M": 3.0, "N_TOTAL": 17.0, "DIRECCION": "SEDE SOCIAL,CALLE DE LA ESCUELA", "NUMERO": 0.0, "REFERENCIA": "S/N", "LATITUD": -29.352869, "LONGITUD": -71.01723, "Descripcion": "La capa contiene la ubicación de todos los establecimientos de educación parvularia que al año 2021 se encontraban funcionando a nivel nacional. Lo anterior incluye aquellos establecimientos educacionales con reconocimiento oficial Mineduc, Junji y Fundación Integra. Estos datos han sido generados por la Unidad de Estadísticas del Centro de Estudios, perteneciente a la División de Planificación y Presupuesto del Ministerio de Educación. Para su confección se utilizaron las direcciones reportadas por los establecimientos a través del Sistema de Información General de Estudiantes (SIGE). La información contenida en esta capa cuenta con actualización cuatrimestral, por lo cual la próxima actualización se realizará en marzo de 2022. En caso de contar observaciones sobre la información presentada, se solicita escribir a estadisticas@mineduc.cl.", "Origen Dato": "Portal de Datos Geoespaciales IDE Bienes Nacionales, disponible en: https://www.geoportal.cl/geoportal/catalog/35553/Establecimientos%20Educaci%C3%B3n%20Parvularia", "Dependencia": "Integra", "Ruralidad": "Rural" }, "geometry": { "type": "Point", "coordinates": [ -71.01723, -29.352869 ] } }
]
}
