{
"type": "FeatureCollection",
"name": "infraestructura_colegios",
"crs": { "type": "name", "properties": { "name": "urn:ogc:def:crs:OGC:1.3:CRS84" } },
"features": [
{ "type": "Feature", "properties": { "fid": 10513, "AGNO": 2021.0, "RBD": 602.0, "DGV_RBD": 5.0, "NOM_RBD": "ESCUELA BASICA CARLOS CONDELL", "TIPO_SOST": 1.0, "COD_REG_RB": 4.0, "NOM_REG_RB": "COQ", "COD_PRO_RB": 41.0, "COD_COM_RB": 4104.0, "NOM_COM_RB": "LA HIGUERA", "COD_DEPROV": 41.0, "NOM_DEPROV": "ELQUI", "TIPO_DEPEN": 1.0, "DIRECCION": "RUTA 5 NORTE", "NUMERO": 509.0, "REFERENCIA": "CALETA LOS HORNOS (RUTA 5 NORTE KM 509)", "LATITUD": -29.6222, "LONGITUD": -71.28537, "MAT_PARV": 28.0, "MAT_BAS_RE": 127.0, "MAT_BAS_AD": 0.0, "MAT_ESP": 0.0, "MAT_MHC_RE": 0.0, "MAT_MHC_AD": 0.0, "MAT_MTP_RE": 0.0, "MAT_MTP_AD": 0.0, "MAT_TOTAL": 155.0, "MAT_HOM_TO": 76.0, "MAT_MUJ_TO": 79.0, "MAT_SI_TOT": 0.0, "CUR_SIM_TO": 10.0, "CUR_COMB_T": 0.0, "Descripcion": "La capa contiene la ubicación de todos los establecimientos de educación escolar al año 2021 que se encontraban funcionando a nivel nacional. Lo anterior excluye aquellos establecimientos educacionales que se encuentran cerrados, en receso o que dependen de la Junta Nacional de Jardines Infantiles, Fundación Integra o instituciones de educación superior. Estos datos han sido generados por la Unidad de Estadísticas del Centro de Estudios, perteneciente a la División de Planificación y Presupuesto del Ministerio de Educación. Para su confección se utilizaron las direcciones reportadas por los establecimientos a través del Sistema de Información General de Estudiantes (SIGE), se realizaron correcciones en base a datos del Censo 2017 realizado por el Departamento de Geografía del Instituto Nacional de Estadísticas y se consultaron fuentes de información adicionales en casos puntuales. En caso de contar observaciones sobre la información presentada, se solicita escribir a estadisticas@mined", "Origen Data": "Portal de Datos Geoespaciales IDE Bienes Nacionales, disponible en: https://www.geoportal.cl/geoportal/catalog/35408/Establecimientos%20Educaci%C3%B3n%20Escolar" }, "geometry": { "type": "Point", "coordinates": [ -71.28537, -29.6222 ] } },
{ "type": "Feature", "properties": { "fid": 10514, "AGNO": 2021.0, "RBD": 597.0, "DGV_RBD": 5.0, "NOM_RBD": "COLEGIO PEDRO PABLO MUÑOZ", "TIPO_SOST": 1.0, "COD_REG_RB": 4.0, "NOM_REG_RB": "COQ", "COD_PRO_RB": 41.0, "COD_COM_RB": 4104.0, "NOM_COM_RB": "LA HIGUERA", "COD_DEPROV": 41.0, "NOM_DEPROV": "ELQUI", "TIPO_DEPEN": 1.0, "DIRECCION": "GABRIELA MISTRAL", "NUMERO": 84.0, "REFERENCIA": "SE  ENCUENTRA UBICADA A 3 KMS DE LA RUTA 5 NORTE, LOCALIDAD LA HIGUERA, COMUNA DE LA HIGUERA, DISTANTE A 60 KM., AL NORTE DE LA SERENA", "LATITUD": -29.511, "LONGITUD": -71.20237, "MAT_PARV": 52.0, "MAT_BAS_RE": 225.0, "MAT_BAS_AD": 0.0, "MAT_ESP": 0.0, "MAT_MHC_RE": 90.0, "MAT_MHC_AD": 0.0, "MAT_MTP_RE": 0.0, "MAT_MTP_AD": 0.0, "MAT_TOTAL": 367.0, "MAT_HOM_TO": 193.0, "MAT_MUJ_TO": 174.0, "MAT_SI_TOT": 0.0, "CUR_SIM_TO": 14.0, "CUR_COMB_T": 0.0, "Descripcion": "La capa contiene la ubicación de todos los establecimientos de educación escolar al año 2021 que se encontraban funcionando a nivel nacional. Lo anterior excluye aquellos establecimientos educacionales que se encuentran cerrados, en receso o que dependen de la Junta Nacional de Jardines Infantiles, Fundación Integra o instituciones de educación superior. Estos datos han sido generados por la Unidad de Estadísticas del Centro de Estudios, perteneciente a la División de Planificación y Presupuesto del Ministerio de Educación. Para su confección se utilizaron las direcciones reportadas por los establecimientos a través del Sistema de Información General de Estudiantes (SIGE), se realizaron correcciones en base a datos del Censo 2017 realizado por el Departamento de Geografía del Instituto Nacional de Estadísticas y se consultaron fuentes de información adicionales en casos puntuales. En caso de contar observaciones sobre la información presentada, se solicita escribir a estadisticas@mined", "Origen Data": "Portal de Datos Geoespaciales IDE Bienes Nacionales, disponible en: https://www.geoportal.cl/geoportal/catalog/35408/Establecimientos%20Educaci%C3%B3n%20Escolar" }, "geometry": { "type": "Point", "coordinates": [ -71.20237, -29.511 ] } },
{ "type": "Feature", "properties": { "fid": 10515, "AGNO": 2021.0, "RBD": 606.0, "DGV_RBD": 8.0, "NOM_RBD": "ESCUELA BASICA SAN ANDRES", "TIPO_SOST": 1.0, "COD_REG_RB": 4.0, "NOM_REG_RB": "COQ", "COD_PRO_RB": 41.0, "COD_COM_RB": 4104.0, "NOM_COM_RB": "LA HIGUERA", "COD_DEPROV": 41.0, "NOM_DEPROV": "ELQUI", "TIPO_DEPEN": 1.0, "DIRECCION": "CRUZ GRANDE", "NUMERO": 0.0, "REFERENCIA": "KILOMETRO 24 COMUNA DE LA HIGUERA", "LATITUD": -29.44643, "LONGITUD": -71.298767, "MAT_PARV": 0.0, "MAT_BAS_RE": 19.0, "MAT_BAS_AD": 0.0, "MAT_ESP": 0.0, "MAT_MHC_RE": 0.0, "MAT_MHC_AD": 0.0, "MAT_MTP_RE": 0.0, "MAT_MTP_AD": 0.0, "MAT_TOTAL": 19.0, "MAT_HOM_TO": 11.0, "MAT_MUJ_TO": 8.0, "MAT_SI_TOT": 0.0, "CUR_SIM_TO": 0.0, "CUR_COMB_T": 2.0, "Descripcion": "La capa contiene la ubicación de todos los establecimientos de educación escolar al año 2021 que se encontraban funcionando a nivel nacional. Lo anterior excluye aquellos establecimientos educacionales que se encuentran cerrados, en receso o que dependen de la Junta Nacional de Jardines Infantiles, Fundación Integra o instituciones de educación superior. Estos datos han sido generados por la Unidad de Estadísticas del Centro de Estudios, perteneciente a la División de Planificación y Presupuesto del Ministerio de Educación. Para su confección se utilizaron las direcciones reportadas por los establecimientos a través del Sistema de Información General de Estudiantes (SIGE), se realizaron correcciones en base a datos del Censo 2017 realizado por el Departamento de Geografía del Instituto Nacional de Estadísticas y se consultaron fuentes de información adicionales en casos puntuales. En caso de contar observaciones sobre la información presentada, se solicita escribir a estadisticas@mined", "Origen Data": "Portal de Datos Geoespaciales IDE Bienes Nacionales, disponible en: https://www.geoportal.cl/geoportal/catalog/35408/Establecimientos%20Educaci%C3%B3n%20Escolar" }, "geometry": { "type": "Point", "coordinates": [ -71.298767, -29.44643 ] } },
{ "type": "Feature", "properties": { "fid": 10516, "AGNO": 2021.0, "RBD": 599.0, "DGV_RBD": 1.0, "NOM_RBD": "ESCUELA JOSE SANTOS OSSA", "TIPO_SOST": 1.0, "COD_REG_RB": 4.0, "NOM_REG_RB": "COQ", "COD_PRO_RB": 41.0, "COD_COM_RB": 4104.0, "NOM_COM_RB": "LA HIGUERA", "COD_DEPROV": 41.0, "NOM_DEPROV": "ELQUI", "TIPO_DEPEN": 1.0, "DIRECCION": "RUTA 5 NORTE", "NUMERO": 551.0, "REFERENCIA": "RUTA 5 NORTE   KM. 551 EL TRAPICHE", "LATITUD": -29.3731, "LONGITUD": -71.116203, "MAT_PARV": 0.0, "MAT_BAS_RE": 107.0, "MAT_BAS_AD": 0.0, "MAT_ESP": 0.0, "MAT_MHC_RE": 0.0, "MAT_MHC_AD": 0.0, "MAT_MTP_RE": 0.0, "MAT_MTP_AD": 0.0, "MAT_TOTAL": 107.0, "MAT_HOM_TO": 63.0, "MAT_MUJ_TO": 44.0, "MAT_SI_TOT": 0.0, "CUR_SIM_TO": 8.0, "CUR_COMB_T": 0.0, "Descripcion": "La capa contiene la ubicación de todos los establecimientos de educación escolar al año 2021 que se encontraban funcionando a nivel nacional. Lo anterior excluye aquellos establecimientos educacionales que se encuentran cerrados, en receso o que dependen de la Junta Nacional de Jardines Infantiles, Fundación Integra o instituciones de educación superior. Estos datos han sido generados por la Unidad de Estadísticas del Centro de Estudios, perteneciente a la División de Planificación y Presupuesto del Ministerio de Educación. Para su confección se utilizaron las direcciones reportadas por los establecimientos a través del Sistema de Información General de Estudiantes (SIGE), se realizaron correcciones en base a datos del Censo 2017 realizado por el Departamento de Geografía del Instituto Nacional de Estadísticas y se consultaron fuentes de información adicionales en casos puntuales. En caso de contar observaciones sobre la información presentada, se solicita escribir a estadisticas@mined", "Origen Data": "Portal de Datos Geoespaciales IDE Bienes Nacionales, disponible en: https://www.geoportal.cl/geoportal/catalog/35408/Establecimientos%20Educaci%C3%B3n%20Escolar" }, "geometry": { "type": "Point", "coordinates": [ -71.116203, -29.3731 ] } },
{ "type": "Feature", "properties": { "fid": 10517, "AGNO": 2021.0, "RBD": 604.0, "DGV_RBD": 1.0, "NOM_RBD": "ESCUELA DE PUNTA COLORADA", "TIPO_SOST": 1.0, "COD_REG_RB": 4.0, "NOM_REG_RB": "COQ", "COD_PRO_RB": 41.0, "COD_COM_RB": 4104.0, "NOM_COM_RB": "LA HIGUERA", "COD_DEPROV": 41.0, "NOM_DEPROV": "ELQUI", "TIPO_DEPEN": 1.0, "DIRECCION": "CAMINO PUBLICO", "NUMERO": 35.0, "REFERENCIA": "CAMINO PUBL.KM.35-ALEJANDRO  FLORES  N°1819  CÌA. ALTA LA SERENA.", "LATITUD": -29.35384, "LONGITUD": -71.015518, "MAT_PARV": 0.0, "MAT_BAS_RE": 32.0, "MAT_BAS_AD": 0.0, "MAT_ESP": 0.0, "MAT_MHC_RE": 0.0, "MAT_MHC_AD": 0.0, "MAT_MTP_RE": 0.0, "MAT_MTP_AD": 0.0, "MAT_TOTAL": 32.0, "MAT_HOM_TO": 15.0, "MAT_MUJ_TO": 17.0, "MAT_SI_TOT": 0.0, "CUR_SIM_TO": 0.0, "CUR_COMB_T": 2.0, "Descripcion": "La capa contiene la ubicación de todos los establecimientos de educación escolar al año 2021 que se encontraban funcionando a nivel nacional. Lo anterior excluye aquellos establecimientos educacionales que se encuentran cerrados, en receso o que dependen de la Junta Nacional de Jardines Infantiles, Fundación Integra o instituciones de educación superior. Estos datos han sido generados por la Unidad de Estadísticas del Centro de Estudios, perteneciente a la División de Planificación y Presupuesto del Ministerio de Educación. Para su confección se utilizaron las direcciones reportadas por los establecimientos a través del Sistema de Información General de Estudiantes (SIGE), se realizaron correcciones en base a datos del Censo 2017 realizado por el Departamento de Geografía del Instituto Nacional de Estadísticas y se consultaron fuentes de información adicionales en casos puntuales. En caso de contar observaciones sobre la información presentada, se solicita escribir a estadisticas@mined", "Origen Data": "Portal de Datos Geoespaciales IDE Bienes Nacionales, disponible en: https://www.geoportal.cl/geoportal/catalog/35408/Establecimientos%20Educaci%C3%B3n%20Escolar" }, "geometry": { "type": "Point", "coordinates": [ -71.015518, -29.35384 ] } },
{ "type": "Feature", "properties": { "fid": 10518, "AGNO": 2021.0, "RBD": 608.0, "DGV_RBD": 4.0, "NOM_RBD": "ESCUELA DE LOS CHOROS", "TIPO_SOST": 1.0, "COD_REG_RB": 4.0, "NOM_REG_RB": "COQ", "COD_PRO_RB": 41.0, "COD_COM_RB": 4104.0, "NOM_COM_RB": "LA HIGUERA", "COD_DEPROV": 41.0, "NOM_DEPROV": "ELQUI", "TIPO_DEPEN": 1.0, "DIRECCION": "AVENIDA SAN JOSE", "NUMERO": 0.0, "REFERENCIA": "LOS CHOROS, AL NORTE DE LA SERENA.80 KMS RUTA 5 Y 22 KMS.CAMINO TIERRA AL OESTE,ENTRANDO POR CALLE PRINCIPAL DESDE EL ESTE.", "LATITUD": -29.290911, "LONGITUD": -71.307426, "MAT_PARV": 0.0, "MAT_BAS_RE": 29.0, "MAT_BAS_AD": 0.0, "MAT_ESP": 0.0, "MAT_MHC_RE": 0.0, "MAT_MHC_AD": 0.0, "MAT_MTP_RE": 0.0, "MAT_MTP_AD": 0.0, "MAT_TOTAL": 29.0, "MAT_HOM_TO": 15.0, "MAT_MUJ_TO": 14.0, "MAT_SI_TOT": 0.0, "CUR_SIM_TO": 6.0, "CUR_COMB_T": 0.0, "Descripcion": "La capa contiene la ubicación de todos los establecimientos de educación escolar al año 2021 que se encontraban funcionando a nivel nacional. Lo anterior excluye aquellos establecimientos educacionales que se encuentran cerrados, en receso o que dependen de la Junta Nacional de Jardines Infantiles, Fundación Integra o instituciones de educación superior. Estos datos han sido generados por la Unidad de Estadísticas del Centro de Estudios, perteneciente a la División de Planificación y Presupuesto del Ministerio de Educación. Para su confección se utilizaron las direcciones reportadas por los establecimientos a través del Sistema de Información General de Estudiantes (SIGE), se realizaron correcciones en base a datos del Censo 2017 realizado por el Departamento de Geografía del Instituto Nacional de Estadísticas y se consultaron fuentes de información adicionales en casos puntuales. En caso de contar observaciones sobre la información presentada, se solicita escribir a estadisticas@mined", "Origen Data": "Portal de Datos Geoespaciales IDE Bienes Nacionales, disponible en: https://www.geoportal.cl/geoportal/catalog/35408/Establecimientos%20Educaci%C3%B3n%20Escolar" }, "geometry": { "type": "Point", "coordinates": [ -71.307426, -29.290911 ] } },
{ "type": "Feature", "properties": { "fid": 10519, "AGNO": 2021.0, "RBD": 598.0, "DGV_RBD": 3.0, "NOM_RBD": "ESCUELA DE PUNTA DE CHOROS", "TIPO_SOST": 1.0, "COD_REG_RB": 4.0, "NOM_REG_RB": "COQ", "COD_PRO_RB": 41.0, "COD_COM_RB": 4104.0, "NOM_COM_RB": "LA HIGUERA", "COD_DEPROV": 41.0, "NOM_DEPROV": "ELQUI", "TIPO_DEPEN": 1.0, "DIRECCION": "PUNTA DE CHOROS", "NUMERO": 0.0, "REFERENCIA": "PUNTA DE CHOROS S/N", "LATITUD": -29.24604, "LONGITUD": -71.460983, "MAT_PARV": 0.0, "MAT_BAS_RE": 33.0, "MAT_BAS_AD": 0.0, "MAT_ESP": 0.0, "MAT_MHC_RE": 0.0, "MAT_MHC_AD": 0.0, "MAT_MTP_RE": 0.0, "MAT_MTP_AD": 0.0, "MAT_TOTAL": 33.0, "MAT_HOM_TO": 17.0, "MAT_MUJ_TO": 16.0, "MAT_SI_TOT": 0.0, "CUR_SIM_TO": 5.0, "CUR_COMB_T": 0.0, "Descripcion": "La capa contiene la ubicación de todos los establecimientos de educación escolar al año 2021 que se encontraban funcionando a nivel nacional. Lo anterior excluye aquellos establecimientos educacionales que se encuentran cerrados, en receso o que dependen de la Junta Nacional de Jardines Infantiles, Fundación Integra o instituciones de educación superior. Estos datos han sido generados por la Unidad de Estadísticas del Centro de Estudios, perteneciente a la División de Planificación y Presupuesto del Ministerio de Educación. Para su confección se utilizaron las direcciones reportadas por los establecimientos a través del Sistema de Información General de Estudiantes (SIGE), se realizaron correcciones en base a datos del Censo 2017 realizado por el Departamento de Geografía del Instituto Nacional de Estadísticas y se consultaron fuentes de información adicionales en casos puntuales. En caso de contar observaciones sobre la información presentada, se solicita escribir a estadisticas@mined", "Origen Data": "Portal de Datos Geoespaciales IDE Bienes Nacionales, disponible en: https://www.geoportal.cl/geoportal/catalog/35408/Establecimientos%20Educaci%C3%B3n%20Escolar" }, "geometry": { "type": "Point", "coordinates": [ -71.460983, -29.24604 ] } }
]
}
