{
"type": "FeatureCollection",
"name": "infraestructura_cuerpos_bomberos",
"crs": { "type": "name", "properties": { "name": "urn:ogc:def:crs:OGC:1.3:CRS84" } },
"features": [
{ "type": "Feature", "properties": { "fid": 284, "OBJECTID": 93.0, "NOMBRE_DEL": "La Higuera", "TIPO_DE_VL": "Avenida", "NUMERACIó": "S/n", "NOMBRE_DE": "Violeta Seura", "COMUNA": "La Higuera", "PROVINCIA": "Elqui", "REGIóN": "Región de Coquimbo", "FID_CL_COM": 30.0, "ID_2002": "04104", "NOMBRE": "La Higuera", "FID_CL_REG": 4.0, "ID_2002_20": "04", "NOMBRE_1": "Coquimbo", "Descripcion": "EL archivo incluye información sobre la geolocalización de cuerpos de bomberos de Chile a Noviembre del 2017. Posee escala a nivel regional y comunal a través de código único territorial (CUT). Informacion proporcionada por la Junta Nacional de Cuerpos de Bomberos de Chile", "Origen Data": "Portal de Datos Espaciale IDE Chile, disponible en https://www.geoportal.cl/geoportal/catalog/36393/Cuerpos%20de%20Bomberos" }, "geometry": { "type": "Point", "coordinates": [ -71.199209794244837, -29.513067654164782 ] } }
]
}
