{
"type": "FeatureCollection",
"name": "infraestructura_salud",
"crs": { "type": "name", "properties": { "name": "urn:ogc:def:crs:OGC:1.3:CRS84" } },
"features": [
{ "type": "Feature", "properties": { "fid": 531, "COD_ANT": "05-314", "COD_VIG": 105314.0, "COD_M_ANT": null, "COD_M_NUEV": null, "COD_REG": 4.0, "NOM_REG": "REGION DE COQUIMBO", "COD_DEP": 5.0, "DEPENDENC": "SERVICIO DE SALUD COQUIMBO", "PERTENENCI": "PERTENECIENTE AL SISTEMA NACIONAL DE SERVICIOS DE SALUD", "TIPO": "CENTRO DE SALUD FAMILIAR (CESFAM)", "AMBITO": "ESTABLECIMIENTO DE SALUD", "NOMBRE": "CENTRO DE SALUD FAMILIAR LA HIGUERA", "CERTIFI": "CENTRO DE SALUD FAMILIAR", "DEP_ADM": "MUNICIPAL", "NIVEL": "PRIMARIO", "COD_COM": "04104", "NOM_COM": "LA HIGUERA", "VIA": "AVENIDA", "NUMERO": 0.0, "DIRECCION": "LA PAZ", "FONO": "512331331", "F_INICIO": "2005-12-30", "URGENCIA": "NO", "TIPO_URGE": "NO APLICA", "CLAS_SAPU": "NO APLICA", "LATITUD": -29.508284, "LONGITUD": -71.199675, "PRESTADOR": "PUBLICO", "ESTADO": "VIGENTE EN OPERACION HABITUAL", "COMPLEJIDA": "BAJA COMPLEJIDAD", "TIPO_ATEN": "ATENCION ABIERTA-AMBULATORIA", "F_INCR": null, "CUT_REG": "04", "CUT_PROV": "041", "CUT_COM": "04104", "REGION": "COQUIMBO", "PROVINCIA": "ELQUI", "COMUNA": "LA HIGUERA", "Descripcion": "La capa contiene la ubicación de todos los establecimientos de salud del país que al 02 de julio de 2024 se encontraban registrados oficialmente por el Ministerio de Salud como vigentes y abiertos. Lo anterior excluye aquellos establecimientos de salud que se encuentran cerrados. Estos datos han sido generados por Departamento de Estadísticas e Información de Salud, perteneciente a la División de Planificación Sanitaria de la Subsecretaria de Salud Pública. Para su confección se utilizaron las direcciones oficiales de los establecimientos realizado por la Unidad de Gestión de Información Territorial del Departamento Gestión del Riesgo en Emergencia y Desastres perteneciente al Gabinete de ministro de Salud. En caso de contar observaciones sobre la información presentada, se solicita escribir a deyd@minsal.cl. Escala 1:20.000.000 y SRC: SIRGAS 2000 - Coordenadas Geográficas. Informacion actualizada al 2024", "Origen Data": "Portal de Datos Geoespaciales IDE Chile, disponible en: https://www.geoportal.cl/geoportal/catalog/35499/Establecimientos%20de%20salud%20de%20Chile" }, "geometry": { "type": "Point", "coordinates": [ -71.199541250903664, -29.508222421885314 ] } },
{ "type": "Feature", "properties": { "fid": 532, "COD_ANT": "05-500", "COD_VIG": 105500.0, "COD_M_ANT": null, "COD_M_NUEV": null, "COD_REG": 4.0, "NOM_REG": "REGION DE COQUIMBO", "COD_DEP": 5.0, "DEPENDENC": "SERVICIO DE SALUD COQUIMBO", "PERTENENCI": "PERTENECIENTE AL SISTEMA NACIONAL DE SERVICIOS DE SALUD", "TIPO": "POSTA DE SALUD RURAL (PSR)", "AMBITO": "ESTABLECIMIENTO DE SALUD", "NOMBRE": "POSTA DE SALUD RURAL CALETA HORNOS", "CERTIFI": "NO APLICA", "DEP_ADM": "MUNICIPAL", "NIVEL": "PRIMARIO", "COD_COM": "04104", "NOM_COM": "LA HIGUERA", "VIA": "CALLE", "NUMERO": 0.0, "DIRECCION": "LAS PALMERAS", "FONO": null, "F_INICIO": "2005-12-30", "URGENCIA": "NO", "TIPO_URGE": "NO APLICA", "CLAS_SAPU": "NO APLICA", "LATITUD": -29.624027, "LONGITUD": -71.28221, "PRESTADOR": "PUBLICO", "ESTADO": "VIGENTE EN OPERACION HABITUAL", "COMPLEJIDA": "BAJA COMPLEJIDAD", "TIPO_ATEN": "ATENCION ABIERTA-AMBULATORIA", "F_INCR": null, "CUT_REG": "04", "CUT_PROV": "041", "CUT_COM": "04104", "REGION": "COQUIMBO", "PROVINCIA": "ELQUI", "COMUNA": "LA HIGUERA", "Descripcion": "La capa contiene la ubicación de todos los establecimientos de salud del país que al 02 de julio de 2024 se encontraban registrados oficialmente por el Ministerio de Salud como vigentes y abiertos. Lo anterior excluye aquellos establecimientos de salud que se encuentran cerrados. Estos datos han sido generados por Departamento de Estadísticas e Información de Salud, perteneciente a la División de Planificación Sanitaria de la Subsecretaria de Salud Pública. Para su confección se utilizaron las direcciones oficiales de los establecimientos realizado por la Unidad de Gestión de Información Territorial del Departamento Gestión del Riesgo en Emergencia y Desastres perteneciente al Gabinete de ministro de Salud. En caso de contar observaciones sobre la información presentada, se solicita escribir a deyd@minsal.cl. Escala 1:20.000.000 y SRC: SIRGAS 2000 - Coordenadas Geográficas. Informacion actualizada al 2024", "Origen Data": "Portal de Datos Geoespaciales IDE Chile, disponible en: https://www.geoportal.cl/geoportal/catalog/35499/Establecimientos%20de%20salud%20de%20Chile" }, "geometry": { "type": "Point", "coordinates": [ -71.28221, -29.624027 ] } },
{ "type": "Feature", "properties": { "fid": 533, "COD_ANT": "05-505", "COD_VIG": 105505.0, "COD_M_ANT": null, "COD_M_NUEV": null, "COD_REG": 4.0, "NOM_REG": "REGION DE COQUIMBO", "COD_DEP": 5.0, "DEPENDENC": "SERVICIO DE SALUD COQUIMBO", "PERTENENCI": "PERTENECIENTE AL SISTEMA NACIONAL DE SERVICIOS DE SALUD", "TIPO": "POSTA DE SALUD RURAL (PSR)", "AMBITO": "ESTABLECIMIENTO DE SALUD", "NOMBRE": "POSTA DE SALUD RURAL LOS CHOROS", "CERTIFI": "NO APLICA", "DEP_ADM": "MUNICIPAL", "NIVEL": "PRIMARIO", "COD_COM": "04104", "NOM_COM": "LA HIGUERA", "VIA": "CALLE", "NUMERO": 0.0, "DIRECCION": "SAN JOSE", "FONO": null, "F_INICIO": "2005-12-30", "URGENCIA": "NO", "TIPO_URGE": "NO APLICA", "CLAS_SAPU": "NO APLICA", "LATITUD": -29.243003, "LONGITUD": -71.46005, "PRESTADOR": "PUBLICO", "ESTADO": "VIGENTE EN OPERACION HABITUAL", "COMPLEJIDA": "BAJA COMPLEJIDAD", "TIPO_ATEN": "ATENCION ABIERTA-AMBULATORIA", "F_INCR": null, "CUT_REG": "04", "CUT_PROV": "041", "CUT_COM": "04104", "REGION": "COQUIMBO", "PROVINCIA": "ELQUI", "COMUNA": "LA HIGUERA", "Descripcion": "La capa contiene la ubicación de todos los establecimientos de salud del país que al 02 de julio de 2024 se encontraban registrados oficialmente por el Ministerio de Salud como vigentes y abiertos. Lo anterior excluye aquellos establecimientos de salud que se encuentran cerrados. Estos datos han sido generados por Departamento de Estadísticas e Información de Salud, perteneciente a la División de Planificación Sanitaria de la Subsecretaria de Salud Pública. Para su confección se utilizaron las direcciones oficiales de los establecimientos realizado por la Unidad de Gestión de Información Territorial del Departamento Gestión del Riesgo en Emergencia y Desastres perteneciente al Gabinete de ministro de Salud. En caso de contar observaciones sobre la información presentada, se solicita escribir a deyd@minsal.cl. Escala 1:20.000.000 y SRC: SIRGAS 2000 - Coordenadas Geográficas. Informacion actualizada al 2024", "Origen Data": "Portal de Datos Geoespaciales IDE Chile, disponible en: https://www.geoportal.cl/geoportal/catalog/35499/Establecimientos%20de%20salud%20de%20Chile" }, "geometry": { "type": "Point", "coordinates": [ -71.46005, -29.243003 ] } },
{ "type": "Feature", "properties": { "fid": 534, "COD_ANT": "05-506", "COD_VIG": 105506.0, "COD_M_ANT": null, "COD_M_NUEV": null, "COD_REG": 4.0, "NOM_REG": "REGION DE COQUIMBO", "COD_DEP": 5.0, "DEPENDENC": "SERVICIO DE SALUD COQUIMBO", "PERTENENCI": "PERTENECIENTE AL SISTEMA NACIONAL DE SERVICIOS DE SALUD", "TIPO": "POSTA DE SALUD RURAL (PSR)", "AMBITO": "ESTABLECIMIENTO DE SALUD", "NOMBRE": "POSTA DE SALUD RURAL EL TRAPICHE", "CERTIFI": "NO APLICA", "DEP_ADM": "MUNICIPAL", "NIVEL": "PRIMARIO", "COD_COM": "04104", "NOM_COM": "LA HIGUERA", "VIA": "CALLE", "NUMERO": 0.0, "DIRECCION": "RUTA 5 EL TRAPICHE", "FONO": null, "F_INICIO": "2005-12-30", "URGENCIA": "NO", "TIPO_URGE": "NO APLICA", "CLAS_SAPU": "NO APLICA", "LATITUD": -29.372946, "LONGITUD": -71.114931, "PRESTADOR": "PUBLICO", "ESTADO": "VIGENTE EN OPERACION HABITUAL", "COMPLEJIDA": "BAJA COMPLEJIDAD", "TIPO_ATEN": "ATENCION ABIERTA-AMBULATORIA", "F_INCR": null, "CUT_REG": "04", "CUT_PROV": "041", "CUT_COM": "04104", "REGION": "COQUIMBO", "PROVINCIA": "ELQUI", "COMUNA": "LA HIGUERA", "Descripcion": "La capa contiene la ubicación de todos los establecimientos de salud del país que al 02 de julio de 2024 se encontraban registrados oficialmente por el Ministerio de Salud como vigentes y abiertos. Lo anterior excluye aquellos establecimientos de salud que se encuentran cerrados. Estos datos han sido generados por Departamento de Estadísticas e Información de Salud, perteneciente a la División de Planificación Sanitaria de la Subsecretaria de Salud Pública. Para su confección se utilizaron las direcciones oficiales de los establecimientos realizado por la Unidad de Gestión de Información Territorial del Departamento Gestión del Riesgo en Emergencia y Desastres perteneciente al Gabinete de ministro de Salud. En caso de contar observaciones sobre la información presentada, se solicita escribir a deyd@minsal.cl. Escala 1:20.000.000 y SRC: SIRGAS 2000 - Coordenadas Geográficas. Informacion actualizada al 2024", "Origen Data": "Portal de Datos Geoespaciales IDE Chile, disponible en: https://www.geoportal.cl/geoportal/catalog/35499/Establecimientos%20de%20salud%20de%20Chile" }, "geometry": { "type": "Point", "coordinates": [ -71.114931, -29.372946 ] } },
{ "type": "Feature", "properties": { "fid": 535, "COD_ANT": "05-936", "COD_VIG": 200740.0, "COD_M_ANT": "05-314", "COD_M_NUEV": "105314", "COD_REG": 4.0, "NOM_REG": "REGION DE COQUIMBO", "COD_DEP": 5.0, "DEPENDENC": "SERVICIO DE SALUD COQUIMBO", "PERTENENCI": "PERTENECIENTE AL SISTEMA NACIONAL DE SERVICIOS DE SALUD", "TIPO": "SERVICIO DE URGENCIA RURAL (SUR)", "AMBITO": "ESTABLECIMIENTO DE SALUD", "NOMBRE": "SUR LA HIGUERA", "CERTIFI": "NO APLICA", "DEP_ADM": "MUNICIPAL", "NIVEL": "PRIMARIO", "COD_COM": "04104", "NOM_COM": "LA HIGUERA", "VIA": "AVENIDA", "NUMERO": 0.0, "DIRECCION": "LA PAZ", "FONO": "512331331", "F_INICIO": "2005-12-30", "URGENCIA": "SI", "TIPO_URGE": "URGENCIA AMBULATORIA (SUR)", "CLAS_SAPU": "NO APLICA", "LATITUD": -29.507022, "LONGITUD": -71.249606, "PRESTADOR": "PUBLICO", "ESTADO": "VIGENTE EN OPERACION HABITUAL", "COMPLEJIDA": "BAJA COMPLEJIDAD", "TIPO_ATEN": "ATENCION ABIERTA-AMBULATORIA", "F_INCR": null, "CUT_REG": "04", "CUT_PROV": "041", "CUT_COM": "04104", "REGION": "COQUIMBO", "PROVINCIA": "ELQUI", "COMUNA": "LA HIGUERA", "Descripcion": "La capa contiene la ubicación de todos los establecimientos de salud del país que al 02 de julio de 2024 se encontraban registrados oficialmente por el Ministerio de Salud como vigentes y abiertos. Lo anterior excluye aquellos establecimientos de salud que se encuentran cerrados. Estos datos han sido generados por Departamento de Estadísticas e Información de Salud, perteneciente a la División de Planificación Sanitaria de la Subsecretaria de Salud Pública. Para su confección se utilizaron las direcciones oficiales de los establecimientos realizado por la Unidad de Gestión de Información Territorial del Departamento Gestión del Riesgo en Emergencia y Desastres perteneciente al Gabinete de ministro de Salud. En caso de contar observaciones sobre la información presentada, se solicita escribir a deyd@minsal.cl. Escala 1:20.000.000 y SRC: SIRGAS 2000 - Coordenadas Geográficas. Informacion actualizada al 2024", "Origen Data": "Portal de Datos Geoespaciales IDE Chile, disponible en: https://www.geoportal.cl/geoportal/catalog/35499/Establecimientos%20de%20salud%20de%20Chile" }, "geometry": { "type": "Point", "coordinates": [ -71.200761844261194, -29.511666419740802 ] } }
]
}
