{
"type": "FeatureCollection",
"name": "infraestructura_deportes",
"crs": { "type": "name", "properties": { "name": "urn:ogc:def:crs:OGC:1.3:CRS84" } },
"features": [
{ "type": "Feature", "properties": { "fid": 1554, "REGION": "Coquimbo", "INFO": "Equipamiento Deportivo", "CATEGORIA": "Base", "NOMBRE": "Cancha De Futbol Municipalidad De La Higuera", "INSTRUMENT": "Sin Instrumento", "CONDICIO": "Recintos para aprendizaje, práctica y competición de deportes. Con instalaciones del tipo: Cancha de Fútbol.", "EMISOR": "Ministerio del Deporte", "ADMIN": "Ministerio del Deporte", "AMBITO": "Sociedad y cultura", "TEMATICA": "Infraestructura", "FECHA": null, "SECTOR": "Público", "ACCESO_DIS": "No posee", "TIPO_ENTRA": "Libre", "Descripcion": "Localización de la infraestructura deportiva pública y privada, en donde se identifican instalaciones en donde se practican deportes como fútbol, futbolito, rugby, tenis, baloncesto, hockey, atletismo, voleibol, natación, remo, canotaje, entre otros, Además se identifica los tipos de recintos, tales como: estadios, medialunas, multicancha, salas especializadas, piscinas, skatepark, gimnasios, salas de uso múltiple, etc. Disponible a Abril del 2014", "Origen Data": "Portal de Datos Geoespaciales IDE Chile, disponible en https://www.geoportal.cl/geoportal/catalog/35034/Infraestructura%20Deportiva" }, "geometry": { "type": "Point", "coordinates": [ -71.115130804934978, -29.372281369033001 ] } },
{ "type": "Feature", "properties": { "fid": 1555, "REGION": "Coquimbo", "INFO": "Equipamiento Deportivo", "CATEGORIA": "Base", "NOMBRE": "Multicancha De La Asociacion Gremial De Trabajadores Del Mar Indep Pta Choros", "INSTRUMENT": "Sin Instrumento", "CONDICIO": "Recintos para aprendizaje, práctica y competición de deportes. Con instalaciones del tipo: Multicancha.", "EMISOR": "Ministerio del Deporte", "ADMIN": "Ministerio del Deporte", "AMBITO": "Sociedad y cultura", "TEMATICA": "Infraestructura", "FECHA": null, "SECTOR": "Privado", "ACCESO_DIS": "No posee", "TIPO_ENTRA": "Libre", "Descripcion": "Localización de la infraestructura deportiva pública y privada, en donde se identifican instalaciones en donde se practican deportes como fútbol, futbolito, rugby, tenis, baloncesto, hockey, atletismo, voleibol, natación, remo, canotaje, entre otros, Además se identifica los tipos de recintos, tales como: estadios, medialunas, multicancha, salas especializadas, piscinas, skatepark, gimnasios, salas de uso múltiple, etc. Disponible a Abril del 2014", "Origen Data": "Portal de Datos Geoespaciales IDE Chile, disponible en https://www.geoportal.cl/geoportal/catalog/35034/Infraestructura%20Deportiva" }, "geometry": { "type": "Point", "coordinates": [ -71.461850224334142, -29.245045907083373 ] } },
{ "type": "Feature", "properties": { "fid": 1556, "REGION": "Coquimbo", "INFO": "Equipamiento Deportivo", "CATEGORIA": "Base", "NOMBRE": "Escuela Punta De Choros G- 42 Municipalidad De La Higuera", "INSTRUMENT": "Sin Instrumento", "CONDICIO": "Recintos para aprendizaje, práctica y competición de deportes. Con instalaciones del tipo: Multicancha.", "EMISOR": "Ministerio del Deporte", "ADMIN": "Ministerio del Deporte", "AMBITO": "Sociedad y cultura", "TEMATICA": "Infraestructura", "FECHA": null, "SECTOR": "Público", "ACCESO_DIS": "No posee", "TIPO_ENTRA": "Restringido", "Descripcion": "Localización de la infraestructura deportiva pública y privada, en donde se identifican instalaciones en donde se practican deportes como fútbol, futbolito, rugby, tenis, baloncesto, hockey, atletismo, voleibol, natación, remo, canotaje, entre otros, Además se identifica los tipos de recintos, tales como: estadios, medialunas, multicancha, salas especializadas, piscinas, skatepark, gimnasios, salas de uso múltiple, etc. Disponible a Abril del 2014", "Origen Data": "Portal de Datos Geoespaciales IDE Chile, disponible en https://www.geoportal.cl/geoportal/catalog/35034/Infraestructura%20Deportiva" }, "geometry": { "type": "Point", "coordinates": [ -71.461255121763543, -29.245900575668824 ] } },
{ "type": "Feature", "properties": { "fid": 1557, "REGION": "Coquimbo", "INFO": "Equipamiento Deportivo", "CATEGORIA": "Base", "NOMBRE": "Escuela Basica San Andres G-N° 49 Chungungo", "INSTRUMENT": "Sin Instrumento", "CONDICIO": "Recintos para aprendizaje, práctica y competición de deportes. Con instalaciones del tipo: Multicancha.", "EMISOR": "Ministerio del Deporte", "ADMIN": "Ministerio del Deporte", "AMBITO": "Sociedad y cultura", "TEMATICA": "Infraestructura", "FECHA": null, "SECTOR": "Público", "ACCESO_DIS": "No posee", "TIPO_ENTRA": "Restringido", "Descripcion": "Localización de la infraestructura deportiva pública y privada, en donde se identifican instalaciones en donde se practican deportes como fútbol, futbolito, rugby, tenis, baloncesto, hockey, atletismo, voleibol, natación, remo, canotaje, entre otros, Además se identifica los tipos de recintos, tales como: estadios, medialunas, multicancha, salas especializadas, piscinas, skatepark, gimnasios, salas de uso múltiple, etc. Disponible a Abril del 2014", "Origen Data": "Portal de Datos Geoespaciales IDE Chile, disponible en https://www.geoportal.cl/geoportal/catalog/35034/Infraestructura%20Deportiva" }, "geometry": { "type": "Point", "coordinates": [ -71.298860047890017, -29.446278750817598 ] } },
{ "type": "Feature", "properties": { "fid": 1591, "REGION": "Coquimbo", "INFO": "Equipamiento Deportivo", "CATEGORIA": "Base", "NOMBRE": "Junta De Vecinos De Caleta Los Hornos N° 1", "INSTRUMENT": "Sin Instrumento", "CONDICIO": "Recintos para aprendizaje, práctica y competición de deportes. Con instalaciones del tipo: Cancha de Fútbol.", "EMISOR": "Ministerio del Deporte", "ADMIN": "Ministerio del Deporte", "AMBITO": "Sociedad y cultura", "TEMATICA": "Infraestructura", "FECHA": null, "SECTOR": "Privado", "ACCESO_DIS": "No posee", "TIPO_ENTRA": "Libre", "Descripcion": "Localización de la infraestructura deportiva pública y privada, en donde se identifican instalaciones en donde se practican deportes como fútbol, futbolito, rugby, tenis, baloncesto, hockey, atletismo, voleibol, natación, remo, canotaje, entre otros, Además se identifica los tipos de recintos, tales como: estadios, medialunas, multicancha, salas especializadas, piscinas, skatepark, gimnasios, salas de uso múltiple, etc. Disponible a Abril del 2014", "Origen Data": "Portal de Datos Geoespaciales IDE Chile, disponible en https://www.geoportal.cl/geoportal/catalog/35034/Infraestructura%20Deportiva" }, "geometry": { "type": "Point", "coordinates": [ -71.283481523636027, -29.623399459725931 ] } },
{ "type": "Feature", "properties": { "fid": 1592, "REGION": "Coquimbo", "INFO": "Equipamiento Deportivo", "CATEGORIA": "Base", "NOMBRE": "Gimnasio Techado", "INSTRUMENT": "Sin Instrumento", "CONDICIO": "Recintos para aprendizaje, práctica y competición de deportes. Con instalaciones del tipo: Pabellón o Gimnasio.", "EMISOR": "Ministerio del Deporte", "ADMIN": "Ministerio del Deporte", "AMBITO": "Sociedad y cultura", "TEMATICA": "Infraestructura", "FECHA": null, "SECTOR": "Público", "ACCESO_DIS": "No posee", "TIPO_ENTRA": "Restringido", "Descripcion": "Localización de la infraestructura deportiva pública y privada, en donde se identifican instalaciones en donde se practican deportes como fútbol, futbolito, rugby, tenis, baloncesto, hockey, atletismo, voleibol, natación, remo, canotaje, entre otros, Además se identifica los tipos de recintos, tales como: estadios, medialunas, multicancha, salas especializadas, piscinas, skatepark, gimnasios, salas de uso múltiple, etc. Disponible a Abril del 2014", "Origen Data": "Portal de Datos Geoespaciales IDE Chile, disponible en https://www.geoportal.cl/geoportal/catalog/35034/Infraestructura%20Deportiva" }, "geometry": { "type": "Point", "coordinates": [ -71.202328525638848, -29.51087062832466 ] } },
{ "type": "Feature", "properties": { "fid": 1593, "REGION": "Coquimbo", "INFO": "Equipamiento Deportivo", "CATEGORIA": "Base", "NOMBRE": "Escuela Punta Colorada", "INSTRUMENT": "Sin Instrumento", "CONDICIO": "Recintos para aprendizaje, práctica y competición de deportes. Con instalaciones del tipo: Multicancha.", "EMISOR": "Ministerio del Deporte", "ADMIN": "Ministerio del Deporte", "AMBITO": "Sociedad y cultura", "TEMATICA": "Infraestructura", "FECHA": null, "SECTOR": "Público", "ACCESO_DIS": "Posee", "TIPO_ENTRA": "Restringido", "Descripcion": "Localización de la infraestructura deportiva pública y privada, en donde se identifican instalaciones en donde se practican deportes como fútbol, futbolito, rugby, tenis, baloncesto, hockey, atletismo, voleibol, natación, remo, canotaje, entre otros, Además se identifica los tipos de recintos, tales como: estadios, medialunas, multicancha, salas especializadas, piscinas, skatepark, gimnasios, salas de uso múltiple, etc. Disponible a Abril del 2014", "Origen Data": "Portal de Datos Geoespaciales IDE Chile, disponible en https://www.geoportal.cl/geoportal/catalog/35034/Infraestructura%20Deportiva" }, "geometry": { "type": "Point", "coordinates": [ -71.015306667006001, -29.353672000059969 ] } },
{ "type": "Feature", "properties": { "fid": 1594, "REGION": "Coquimbo", "INFO": "Equipamiento Deportivo", "CATEGORIA": "Base", "NOMBRE": "Cancha De Futbol", "INSTRUMENT": "Sin Instrumento", "CONDICIO": "Recintos para aprendizaje, práctica y competición de deportes. Con instalaciones del tipo: Cancha de Fútbol.", "EMISOR": "Ministerio del Deporte", "ADMIN": "Ministerio del Deporte", "AMBITO": "Sociedad y cultura", "TEMATICA": "Infraestructura", "FECHA": null, "SECTOR": "Público", "ACCESO_DIS": "No posee", "TIPO_ENTRA": "Libre", "Descripcion": "Localización de la infraestructura deportiva pública y privada, en donde se identifican instalaciones en donde se practican deportes como fútbol, futbolito, rugby, tenis, baloncesto, hockey, atletismo, voleibol, natación, remo, canotaje, entre otros, Además se identifica los tipos de recintos, tales como: estadios, medialunas, multicancha, salas especializadas, piscinas, skatepark, gimnasios, salas de uso múltiple, etc. Disponible a Abril del 2014", "Origen Data": "Portal de Datos Geoespaciales IDE Chile, disponible en https://www.geoportal.cl/geoportal/catalog/35034/Infraestructura%20Deportiva" }, "geometry": { "type": "Point", "coordinates": [ -71.202141131637887, -29.510257799294493 ] } },
{ "type": "Feature", "properties": { "fid": 1595, "REGION": "Coquimbo", "INFO": "Equipamiento Deportivo", "CATEGORIA": "Base", "NOMBRE": "Cancha De Futbol Municipalidad De La Higuera", "INSTRUMENT": "Sin Instrumento", "CONDICIO": "Recintos para aprendizaje, práctica y competición de deportes. Con instalaciones del tipo: Cancha de Fútbol.", "EMISOR": "Ministerio del Deporte", "ADMIN": "Ministerio del Deporte", "AMBITO": "Sociedad y cultura", "TEMATICA": "Infraestructura", "FECHA": null, "SECTOR": "Público", "ACCESO_DIS": "No posee", "TIPO_ENTRA": "Libre", "Descripcion": "Localización de la infraestructura deportiva pública y privada, en donde se identifican instalaciones en donde se practican deportes como fútbol, futbolito, rugby, tenis, baloncesto, hockey, atletismo, voleibol, natación, remo, canotaje, entre otros, Además se identifica los tipos de recintos, tales como: estadios, medialunas, multicancha, salas especializadas, piscinas, skatepark, gimnasios, salas de uso múltiple, etc. Disponible a Abril del 2014", "Origen Data": "Portal de Datos Geoespaciales IDE Chile, disponible en https://www.geoportal.cl/geoportal/catalog/35034/Infraestructura%20Deportiva" }, "geometry": { "type": "Point", "coordinates": [ -71.014867417366816, -29.354514391860839 ] } },
{ "type": "Feature", "properties": { "fid": 1596, "REGION": "Coquimbo", "INFO": "Equipamiento Deportivo", "CATEGORIA": "Base", "NOMBRE": "Escuela Basica Pedro Pablo Muñoz", "INSTRUMENT": "Sin Instrumento", "CONDICIO": "Recintos para aprendizaje, práctica y competición de deportes. Con instalaciones del tipo: Multicancha.", "EMISOR": "Ministerio del Deporte", "ADMIN": "Ministerio del Deporte", "AMBITO": "Sociedad y cultura", "TEMATICA": "Infraestructura", "FECHA": null, "SECTOR": "Público", "ACCESO_DIS": "Posee", "TIPO_ENTRA": "Restringido", "Descripcion": "Localización de la infraestructura deportiva pública y privada, en donde se identifican instalaciones en donde se practican deportes como fútbol, futbolito, rugby, tenis, baloncesto, hockey, atletismo, voleibol, natación, remo, canotaje, entre otros, Además se identifica los tipos de recintos, tales como: estadios, medialunas, multicancha, salas especializadas, piscinas, skatepark, gimnasios, salas de uso múltiple, etc. Disponible a Abril del 2014", "Origen Data": "Portal de Datos Geoespaciales IDE Chile, disponible en https://www.geoportal.cl/geoportal/catalog/35034/Infraestructura%20Deportiva" }, "geometry": { "type": "Point", "coordinates": [ -71.203137611899749, -29.51057054468799 ] } },
{ "type": "Feature", "properties": { "fid": 1597, "REGION": "Coquimbo", "INFO": "Equipamiento Deportivo", "CATEGORIA": "Base", "NOMBRE": "Multicancha Municipalidad De La Higuera", "INSTRUMENT": "Sin Instrumento", "CONDICIO": "Recintos para aprendizaje, práctica y competición de deportes. Con instalaciones del tipo: Multicancha.", "EMISOR": "Ministerio del Deporte", "ADMIN": "Ministerio del Deporte", "AMBITO": "Sociedad y cultura", "TEMATICA": "Infraestructura", "FECHA": null, "SECTOR": "Público", "ACCESO_DIS": "No posee", "TIPO_ENTRA": "Libre", "Descripcion": "Localización de la infraestructura deportiva pública y privada, en donde se identifican instalaciones en donde se practican deportes como fútbol, futbolito, rugby, tenis, baloncesto, hockey, atletismo, voleibol, natación, remo, canotaje, entre otros, Además se identifica los tipos de recintos, tales como: estadios, medialunas, multicancha, salas especializadas, piscinas, skatepark, gimnasios, salas de uso múltiple, etc. Disponible a Abril del 2014", "Origen Data": "Portal de Datos Geoespaciales IDE Chile, disponible en https://www.geoportal.cl/geoportal/catalog/35034/Infraestructura%20Deportiva" }, "geometry": { "type": "Point", "coordinates": [ -71.284545111209042, -29.623531141996878 ] } },
{ "type": "Feature", "properties": { "fid": 1598, "REGION": "Coquimbo", "INFO": "Equipamiento Deportivo", "CATEGORIA": "Base", "NOMBRE": "Complejo Deportivo", "INSTRUMENT": "Sin Instrumento", "CONDICIO": "Recintos para aprendizaje, práctica y competición de deportes. Con instalaciones del tipo: Pabellón o Gimnasio.", "EMISOR": "Ministerio del Deporte", "ADMIN": "Ministerio del Deporte", "AMBITO": "Sociedad y cultura", "TEMATICA": "Infraestructura", "FECHA": null, "SECTOR": "Público", "ACCESO_DIS": "No posee", "TIPO_ENTRA": "Restringido", "Descripcion": "Localización de la infraestructura deportiva pública y privada, en donde se identifican instalaciones en donde se practican deportes como fútbol, futbolito, rugby, tenis, baloncesto, hockey, atletismo, voleibol, natación, remo, canotaje, entre otros, Además se identifica los tipos de recintos, tales como: estadios, medialunas, multicancha, salas especializadas, piscinas, skatepark, gimnasios, salas de uso múltiple, etc. Disponible a Abril del 2014", "Origen Data": "Portal de Datos Geoespaciales IDE Chile, disponible en https://www.geoportal.cl/geoportal/catalog/35034/Infraestructura%20Deportiva" }, "geometry": { "type": "Point", "coordinates": [ -71.117060456674594, -29.373623515256099 ] } },
{ "type": "Feature", "properties": { "fid": 1599, "REGION": "Coquimbo", "INFO": "Equipamiento Deportivo", "CATEGORIA": "Base", "NOMBRE": "Escuela Jose Santos Ossa Municipalidad De La Higuera", "INSTRUMENT": "Sin Instrumento", "CONDICIO": "Recintos para aprendizaje, práctica y competición de deportes. Con instalaciones del tipo: Multicancha.", "EMISOR": "Ministerio del Deporte", "ADMIN": "Ministerio del Deporte", "AMBITO": "Sociedad y cultura", "TEMATICA": "Infraestructura", "FECHA": null, "SECTOR": "Público", "ACCESO_DIS": "No posee", "TIPO_ENTRA": "Restringido", "Descripcion": "Localización de la infraestructura deportiva pública y privada, en donde se identifican instalaciones en donde se practican deportes como fútbol, futbolito, rugby, tenis, baloncesto, hockey, atletismo, voleibol, natación, remo, canotaje, entre otros, Además se identifica los tipos de recintos, tales como: estadios, medialunas, multicancha, salas especializadas, piscinas, skatepark, gimnasios, salas de uso múltiple, etc. Disponible a Abril del 2014", "Origen Data": "Portal de Datos Geoespaciales IDE Chile, disponible en https://www.geoportal.cl/geoportal/catalog/35034/Infraestructura%20Deportiva" }, "geometry": { "type": "Point", "coordinates": [ -71.1163007512653, -29.373276583119186 ] } },
{ "type": "Feature", "properties": { "fid": 1600, "REGION": "Coquimbo", "INFO": "Equipamiento Deportivo", "CATEGORIA": "Base", "NOMBRE": "Multicancha", "INSTRUMENT": "Sin Instrumento", "CONDICIO": "Recintos para aprendizaje, práctica y competición de deportes. Con instalaciones del tipo: Multicancha.", "EMISOR": "Ministerio del Deporte", "ADMIN": "Ministerio del Deporte", "AMBITO": "Sociedad y cultura", "TEMATICA": "Infraestructura", "FECHA": null, "SECTOR": "Público", "ACCESO_DIS": "No posee", "TIPO_ENTRA": "Libre", "Descripcion": "Localización de la infraestructura deportiva pública y privada, en donde se identifican instalaciones en donde se practican deportes como fútbol, futbolito, rugby, tenis, baloncesto, hockey, atletismo, voleibol, natación, remo, canotaje, entre otros, Además se identifica los tipos de recintos, tales como: estadios, medialunas, multicancha, salas especializadas, piscinas, skatepark, gimnasios, salas de uso múltiple, etc. Disponible a Abril del 2014", "Origen Data": "Portal de Datos Geoespaciales IDE Chile, disponible en https://www.geoportal.cl/geoportal/catalog/35034/Infraestructura%20Deportiva" }, "geometry": { "type": "Point", "coordinates": [ -71.299960983026324, -29.452399198581425 ] } },
{ "type": "Feature", "properties": { "fid": 1601, "REGION": "Coquimbo", "INFO": "Equipamiento Deportivo", "CATEGORIA": "Base", "NOMBRE": "Cancha De Futbol Municipalidad De La Higuera Chungungo", "INSTRUMENT": "Sin Instrumento", "CONDICIO": "Recintos para aprendizaje, práctica y competición de deportes. Con instalaciones del tipo: Cancha de Fútbol.", "EMISOR": "Ministerio del Deporte", "ADMIN": "Ministerio del Deporte", "AMBITO": "Sociedad y cultura", "TEMATICA": "Infraestructura", "FECHA": null, "SECTOR": "Público", "ACCESO_DIS": "No posee", "TIPO_ENTRA": "Libre", "Descripcion": "Localización de la infraestructura deportiva pública y privada, en donde se identifican instalaciones en donde se practican deportes como fútbol, futbolito, rugby, tenis, baloncesto, hockey, atletismo, voleibol, natación, remo, canotaje, entre otros, Además se identifica los tipos de recintos, tales como: estadios, medialunas, multicancha, salas especializadas, piscinas, skatepark, gimnasios, salas de uso múltiple, etc. Disponible a Abril del 2014", "Origen Data": "Portal de Datos Geoespaciales IDE Chile, disponible en https://www.geoportal.cl/geoportal/catalog/35034/Infraestructura%20Deportiva" }, "geometry": { "type": "Point", "coordinates": [ -71.3002279632083, -29.45188330181951 ] } },
{ "type": "Feature", "properties": { "fid": 1635, "REGION": "Coquimbo", "INFO": "Equipamiento Deportivo", "CATEGORIA": "Base", "NOMBRE": "Multicancha Del Club Deportivo Victoria De Los Choros", "INSTRUMENT": "Sin Instrumento", "CONDICIO": "Recintos para aprendizaje, práctica y competición de deportes. Con instalaciones del tipo: Multicancha.", "EMISOR": "Ministerio del Deporte", "ADMIN": "Ministerio del Deporte", "AMBITO": "Sociedad y cultura", "TEMATICA": "Infraestructura", "FECHA": null, "SECTOR": "Privado", "ACCESO_DIS": "Posee", "TIPO_ENTRA": "Libre", "Descripcion": "Localización de la infraestructura deportiva pública y privada, en donde se identifican instalaciones en donde se practican deportes como fútbol, futbolito, rugby, tenis, baloncesto, hockey, atletismo, voleibol, natación, remo, canotaje, entre otros, Además se identifica los tipos de recintos, tales como: estadios, medialunas, multicancha, salas especializadas, piscinas, skatepark, gimnasios, salas de uso múltiple, etc. Disponible a Abril del 2014", "Origen Data": "Portal de Datos Geoespaciales IDE Chile, disponible en https://www.geoportal.cl/geoportal/catalog/35034/Infraestructura%20Deportiva" }, "geometry": { "type": "Point", "coordinates": [ -71.307381855812508, -29.290663684560496 ] } },
{ "type": "Feature", "properties": { "fid": 1636, "REGION": "Coquimbo", "INFO": "Equipamiento Deportivo", "CATEGORIA": "Base", "NOMBRE": "Club Cancha Deportivo Victoria De Los Choros", "INSTRUMENT": "Sin Instrumento", "CONDICIO": "Recintos para aprendizaje, práctica y competición de deportes. Con instalaciones del tipo: Cancha de Fútbol.", "EMISOR": "Ministerio del Deporte", "ADMIN": "Ministerio del Deporte", "AMBITO": "Sociedad y cultura", "TEMATICA": "Infraestructura", "FECHA": null, "SECTOR": "Privado", "ACCESO_DIS": "No posee", "TIPO_ENTRA": "Libre", "Descripcion": "Localización de la infraestructura deportiva pública y privada, en donde se identifican instalaciones en donde se practican deportes como fútbol, futbolito, rugby, tenis, baloncesto, hockey, atletismo, voleibol, natación, remo, canotaje, entre otros, Además se identifica los tipos de recintos, tales como: estadios, medialunas, multicancha, salas especializadas, piscinas, skatepark, gimnasios, salas de uso múltiple, etc. Disponible a Abril del 2014", "Origen Data": "Portal de Datos Geoespaciales IDE Chile, disponible en https://www.geoportal.cl/geoportal/catalog/35034/Infraestructura%20Deportiva" }, "geometry": { "type": "Point", "coordinates": [ -71.312499737919794, -29.28894168563275 ] } },
{ "type": "Feature", "properties": { "fid": 1637, "REGION": "Coquimbo", "INFO": "Equipamiento Deportivo", "CATEGORIA": "Base", "NOMBRE": "Multicancha", "INSTRUMENT": "Sin Instrumento", "CONDICIO": "Recintos para aprendizaje, práctica y competición de deportes. Con instalaciones del tipo: Multicancha.", "EMISOR": "Ministerio del Deporte", "ADMIN": "Ministerio del Deporte", "AMBITO": "Sociedad y cultura", "TEMATICA": "Infraestructura", "FECHA": null, "SECTOR": "Público", "ACCESO_DIS": "No posee", "TIPO_ENTRA": "Libre", "Descripcion": "Localización de la infraestructura deportiva pública y privada, en donde se identifican instalaciones en donde se practican deportes como fútbol, futbolito, rugby, tenis, baloncesto, hockey, atletismo, voleibol, natación, remo, canotaje, entre otros, Además se identifica los tipos de recintos, tales como: estadios, medialunas, multicancha, salas especializadas, piscinas, skatepark, gimnasios, salas de uso múltiple, etc. Disponible a Abril del 2014", "Origen Data": "Portal de Datos Geoespaciales IDE Chile, disponible en https://www.geoportal.cl/geoportal/catalog/35034/Infraestructura%20Deportiva" }, "geometry": { "type": "Point", "coordinates": [ -71.016847716133725, -29.352711357689437 ] } },
{ "type": "Feature", "properties": { "fid": 1638, "REGION": "Coquimbo", "INFO": "Equipamiento Deportivo", "CATEGORIA": "Base", "NOMBRE": "Escuela Basica Carlos Condell G-N° 46 Caleta De Hornos", "INSTRUMENT": "Sin Instrumento", "CONDICIO": "Recintos para aprendizaje, práctica y competición de deportes. Con instalaciones del tipo: Multicancha.", "EMISOR": "Ministerio del Deporte", "ADMIN": "Ministerio del Deporte", "AMBITO": "Sociedad y cultura", "TEMATICA": "Infraestructura", "FECHA": null, "SECTOR": "Público", "ACCESO_DIS": "No posee", "TIPO_ENTRA": "Restringido", "Descripcion": "Localización de la infraestructura deportiva pública y privada, en donde se identifican instalaciones en donde se practican deportes como fútbol, futbolito, rugby, tenis, baloncesto, hockey, atletismo, voleibol, natación, remo, canotaje, entre otros, Además se identifica los tipos de recintos, tales como: estadios, medialunas, multicancha, salas especializadas, piscinas, skatepark, gimnasios, salas de uso múltiple, etc. Disponible a Abril del 2014", "Origen Data": "Portal de Datos Geoespaciales IDE Chile, disponible en https://www.geoportal.cl/geoportal/catalog/35034/Infraestructura%20Deportiva" }, "geometry": { "type": "Point", "coordinates": [ -71.285032588846704, -29.621891444488462 ] } }
]
}
