{
"type": "FeatureCollection",
"name": "infraestructura_carabineros",
"crs": { "type": "name", "properties": { "name": "urn:ogc:def:crs:OGC:1.3:CRS84" } },
"features": [
{ "type": "Feature", "properties": { "fid": 778, "NOMBRE_REG": "REGION COQUIMBO", "NOMBRE_PRO": "ELQUI", "NOMBRE_COM": "LA HIGUERA", "NOMBRE_UNI": "RETEN LA HIGUERA", "TIPO_DE_UN": "RETEN", "TIPO_DE_VI": "AVENIDA", "NOMBRE_DE": "AVENIDA LA PAZ", "NUMERO": "S/N", "POINT_X": -71.200340729000004, "POINT_Y": -29.510620469, "HECHO": "2014", "RG": 4.0, "PREFECTURA": "COQUIMBO", "TIPO": null, "ZONA": "COQUIMBO", "UNI_COD": "04016", "UNID_ENCRI": null, "Descripcion": "Corresponde a la Ubicación de los Cuarteles de Carabineros de Chile, correspondiente a Comisarias, Subcomisarias, Tenencias, Tenencias de Carretera y Retenes operativos. La escala de referencia espacial es a nivel país. Informacion disponible a Mayo del 2018", "Origen Dato": "Portal de Datos Geoespaciales IDE Chile, disponible en: https://www.geoportal.cl/geoportal/catalog/35003/Cuarteles%20de%20Carabineros" }, "geometry": { "type": "Point", "coordinates": [ -71.200340728999947, -29.510620468999946, 0.0 ] } },
{ "type": "Feature", "properties": { "fid": 862, "NOMBRE_REG": "REGION COQUIMBO", "NOMBRE_PRO": "ELQUI", "NOMBRE_COM": "LA HIGUERA", "NOMBRE_UNI": "GARITA ATENCION COMUNITARIA PUNTA DE CHOROS (T)", "TIPO_DE_UN": "GARITA COMUNITARIA", "TIPO_DE_VI": "CALLE", "NOMBRE_DE": "SIN NOMBRE", "NUMERO": "S/N", "POINT_X": -71.461064558900006, "POINT_Y": -29.246465449799999, "HECHO": "2014", "RG": 4.0, "PREFECTURA": "COQUIMBO", "TIPO": null, "ZONA": "COQUIMBO", "UNI_COD": "04042", "UNID_ENCRI": null, "Descripcion": "Corresponde a la Ubicación de los Cuarteles de Carabineros de Chile, correspondiente a Comisarias, Subcomisarias, Tenencias, Tenencias de Carretera y Retenes operativos. La escala de referencia espacial es a nivel país. Informacion disponible a Mayo del 2018", "Origen Dato": "Portal de Datos Geoespaciales IDE Chile, disponible en: https://www.geoportal.cl/geoportal/catalog/35003/Cuarteles%20de%20Carabineros" }, "geometry": { "type": "Point", "coordinates": [ -71.461064558865999, -29.246465449803303, 0.0 ] } },
{ "type": "Feature", "properties": { "fid": 872, "NOMBRE_REG": "REGION COQUIMBO", "NOMBRE_PRO": "ELQUI", "NOMBRE_COM": "LA SERENA", "NOMBRE_UNI": "TCIA. CARR. ELQUI", "TIPO_DE_UN": "TENENCIA CARRETERAS", "TIPO_DE_VI": "RUTA", "NOMBRE_DE": "RUTA 5  NORTE", "NUMERO": "KM 482", "POINT_X": -71.178562806399995, "POINT_Y": -29.415732736199999, "HECHO": "2017", "RG": 4.0, "PREFECTURA": "COQUIMBO", "TIPO": null, "ZONA": "COQUIMBO", "UNI_COD": "04033", "UNID_ENCRI": null, "Descripcion": "Corresponde a la Ubicación de los Cuarteles de Carabineros de Chile, correspondiente a Comisarias, Subcomisarias, Tenencias, Tenencias de Carretera y Retenes operativos. La escala de referencia espacial es a nivel país. Informacion disponible a Mayo del 2018", "Origen Dato": "Portal de Datos Geoespaciales IDE Chile, disponible en: https://www.geoportal.cl/geoportal/catalog/35003/Cuarteles%20de%20Carabineros" }, "geometry": { "type": "Point", "coordinates": [ -71.178562806442287, -29.415732736176871, 0.0 ] } }
]
}
