{
"type": "FeatureCollection",
"name": "infraestructura_compañias",
"crs": { "type": "name", "properties": { "name": "urn:ogc:def:crs:OGC:1.3:CRS84" } },
"features": [
{ "type": "Feature", "properties": { "fid": 1012, "OBJECTID_1": 1012.0, "CUT_CIA": "0411201", "COMPAñIA": "Primera de La Higuera", "CUT_CUERPO": "04112", "DIRECCION": "11 de Septiembre S/N", "TELEFONO": "9643886", "ID_2002": "04104", "NOMBRE": "La Higuera", "ID_2002_20": "04", "NOMBRE_1": "Coquimbo", "Descripcion": "EL archivo incluye información sobre la geolocalización de compañías de bomberos de Chile a Noviembre del 2017", "Origen Data": "Portal de Datos Espaciale IDE Chile, disponible en https://www.geoportal.cl/geoportal/catalog/35338/Compa%C3%B1%C3%ADas%20de%20Bomberos%20de%20Chile" }, "geometry": { "type": "Point", "coordinates": [ -71.201312986443753, -29.51025241683638 ] } },
{ "type": "Feature", "properties": { "fid": 1013, "OBJECTID_1": 1013.0, "CUT_CIA": "0411202", "COMPAñIA": "Segunda de La Higuera", "CUT_CUERPO": "04112", "DIRECCION": "Punta de Choros S/N", "TELEFONO": "9643886", "ID_2002": "04104", "NOMBRE": "La Higuera", "ID_2002_20": "04", "NOMBRE_1": "Coquimbo", "Descripcion": "EL archivo incluye información sobre la geolocalización de compañías de bomberos de Chile a Noviembre del 2017", "Origen Data": "Portal de Datos Espaciale IDE Chile, disponible en https://www.geoportal.cl/geoportal/catalog/35338/Compa%C3%B1%C3%ADas%20de%20Bomberos%20de%20Chile" }, "geometry": { "type": "Point", "coordinates": [ -71.459302538175251, -29.243111683042581 ] } }
]
}
