{
"type": "FeatureCollection",
"name": "inversiones_SEIA",
"crs": { "type": "name", "properties": { "name": "urn:ogc:def:crs:OGC:1.3:CRS84" } },
"features": [
{ "type": "Feature", "properties": { "fid": 26544, "ID": 26544, "Nombre": "Recuperacion de Acopios Antiguos de Planta El Tofo", "WEB": "Ver", "Tipo": "DIA", "Region": "Region de Coquimbo", "Comunas": "La Higuera", "Provincias": "Elqui-Limari-Choapa", "Tipologia": "i1", "Razon de Ingreso": "Ingreso previo a la publicacion D.S. Nº 30/2024", "Titular": "Servicios INTOSIM SpA", "Inversion (MMU$)": 1.3, "Fecha Presentacion": "2022-09-14", "Estado": "Aprobado", "Fecha Calificacion": "2023-06-15", "Sector Productivo": "Mineria", "Latitud punto representativo": -29.000004, "Longitud punto representativo": -71.0, "Link del Expediente": "https://seia.sea.gob.cl/expediente/expediente.php?id_expediente=2156937706&modo=ficha", "Descripcion": "Informacion de todos los proyectos ingresados al Sistema de Evaluacion de Impacto Ambiental - SEIA del Ministerio de Medio Ambiente, desde el año 2010 a la actualidad", "Origen del Dato": "Portal de busqueda avanzada de proyectos, del Servicio de Evaluacion de Impacto Ambiental, SEIA, Disponible en: https://seia.sea.gob.cl/busqueda/buscarProyecto.php" }, "geometry": { "type": "Point", "coordinates": [ -71.0, -29.000004 ] } },
{ "type": "Feature", "properties": { "fid": 26670, "ID": 26670, "Nombre": "Parque Solar Fotovoltaico Punta del Viento", "WEB": "Ver", "Tipo": "DIA", "Region": "Region de Coquimbo", "Comunas": "La Higuera", "Provincias": "Elqui-Limari-Choapa", "Tipologia": "c", "Razon de Ingreso": "Ingreso previo a la publicacion D.S. Nº 30/2024", "Titular": "Energia Renovable Verano Tres SpA", "Inversion (MMU$)": 138.0, "Fecha Presentacion": "2019-11-19", "Estado": "Aprobado", "Fecha Calificacion": "2020-08-10", "Sector Productivo": "Energia", "Latitud punto representativo": -29.354795, "Longitud punto representativo": -71.029938, "Link del Expediente": "https://seia.sea.gob.cl/expediente/expediente.php?id_expediente=2144927449&modo=ficha", "Descripcion": "Informacion de todos los proyectos ingresados al Sistema de Evaluacion de Impacto Ambiental - SEIA del Ministerio de Medio Ambiente, desde el año 2010 a la actualidad", "Origen del Dato": "Portal de busqueda avanzada de proyectos, del Servicio de Evaluacion de Impacto Ambiental, SEIA, Disponible en: https://seia.sea.gob.cl/busqueda/buscarProyecto.php" }, "geometry": { "type": "Point", "coordinates": [ -71.029938, -29.354795 ] } },
{ "type": "Feature", "properties": { "fid": 26687, "ID": 26687, "Nombre": "Parque Fotovoltaico Los Rastrojos", "WEB": "Ver", "Tipo": "DIA", "Region": "Region de Coquimbo", "Comunas": "La Higuera", "Provincias": "Elqui-Limari-Choapa", "Tipologia": "c", "Razon de Ingreso": "Ingreso previo a la publicacion D.S. Nº 30/2024", "Titular": "La Serena Ocho SpA", "Inversion (MMU$)": 185.0, "Fecha Presentacion": "2019-06-20", "Estado": "Aprobado", "Fecha Calificacion": "2020-02-13", "Sector Productivo": "Energia", "Latitud punto representativo": -29.142544, "Longitud punto representativo": -70.893699, "Link del Expediente": "https://seia.sea.gob.cl/expediente/expediente.php?id_expediente=2143509595&modo=ficha", "Descripcion": "Informacion de todos los proyectos ingresados al Sistema de Evaluacion de Impacto Ambiental - SEIA del Ministerio de Medio Ambiente, desde el año 2010 a la actualidad", "Origen del Dato": "Portal de busqueda avanzada de proyectos, del Servicio de Evaluacion de Impacto Ambiental, SEIA, Disponible en: https://seia.sea.gob.cl/busqueda/buscarProyecto.php" }, "geometry": { "type": "Point", "coordinates": [ -70.893699, -29.142544 ] } },
{ "type": "Feature", "properties": { "fid": 26835, "ID": 26835, "Nombre": "Parque Fotovoltaico La Huella", "WEB": "Ver", "Tipo": "DIA", "Region": "Region de Coquimbo", "Comunas": "La Higuera", "Provincias": "Elqui-Limari-Choapa", "Tipologia": "b1", "Razon de Ingreso": "Ingreso previo a la publicacion D.S. Nº 30/2024", "Titular": "Austriansolar Chile Seis SpA", "Inversion (MMU$)": 200.0, "Fecha Presentacion": "2016-01-21", "Estado": "Aprobado", "Fecha Calificacion": "2016-11-14", "Sector Productivo": "Energia", "Latitud punto representativo": -29.137381, "Longitud punto representativo": -70.895575, "Link del Expediente": "https://seia.sea.gob.cl/expediente/expediente.php?id_expediente=2131072617&modo=ficha", "Descripcion": "Informacion de todos los proyectos ingresados al Sistema de Evaluacion de Impacto Ambiental - SEIA del Ministerio de Medio Ambiente, desde el año 2010 a la actualidad", "Origen del Dato": "Portal de busqueda avanzada de proyectos, del Servicio de Evaluacion de Impacto Ambiental, SEIA, Disponible en: https://seia.sea.gob.cl/busqueda/buscarProyecto.php" }, "geometry": { "type": "Point", "coordinates": [ -70.895575, -29.137381 ] } },
{ "type": "Feature", "properties": { "fid": 26938, "ID": 26938, "Nombre": "Parque Solar Punta del Viento", "WEB": "Ver", "Tipo": "DIA", "Region": "Region de Coquimbo", "Comunas": "La Higuera", "Provincias": "Elqui-Limari-Choapa", "Tipologia": "c", "Razon de Ingreso": "Ingreso previo a la publicacion D.S. Nº 30/2024", "Titular": "Energia Renovable Verano Tres SpA", "Inversion (MMU$)": 96.0, "Fecha Presentacion": "2013-12-20", "Estado": "Aprobado", "Fecha Calificacion": "2014-08-13", "Sector Productivo": "Energia", "Latitud punto representativo": -29.34995, "Longitud punto representativo": -71.03605, "Link del Expediente": "https://seia.sea.gob.cl/expediente/expediente.php?id_expediente=2128952303&modo=ficha", "Descripcion": "Informacion de todos los proyectos ingresados al Sistema de Evaluacion de Impacto Ambiental - SEIA del Ministerio de Medio Ambiente, desde el año 2010 a la actualidad", "Origen del Dato": "Portal de busqueda avanzada de proyectos, del Servicio de Evaluacion de Impacto Ambiental, SEIA, Disponible en: https://seia.sea.gob.cl/busqueda/buscarProyecto.php" }, "geometry": { "type": "Point", "coordinates": [ -71.03605, -29.34995 ] } },
{ "type": "Feature", "properties": { "fid": 26941, "ID": 26941, "Nombre": "Modificaciones Menores, Optimizacion de Procesos Proyecto Minero Puquios", "WEB": "Ver", "Tipo": "DIA", "Region": "Region de Coquimbo", "Comunas": "La Higuera", "Provincias": "Elqui-Limari-Choapa", "Tipologia": "i4", "Razon de Ingreso": "Ingreso previo a la publicacion D.S. Nº 30/2024", "Titular": "Cuprum Resources Chile SPA", "Inversion (MMU$)": 85.0, "Fecha Presentacion": "2013-12-20", "Estado": "Aprobado", "Fecha Calificacion": "2014-06-18", "Sector Productivo": "Mineria", "Latitud punto representativo": -29.450598, "Longitud punto representativo": -70.718955, "Link del Expediente": "https://seia.sea.gob.cl/expediente/expediente.php?id_expediente=2128961946&modo=ficha", "Descripcion": "Informacion de todos los proyectos ingresados al Sistema de Evaluacion de Impacto Ambiental - SEIA del Ministerio de Medio Ambiente, desde el año 2010 a la actualidad", "Origen del Dato": "Portal de busqueda avanzada de proyectos, del Servicio de Evaluacion de Impacto Ambiental, SEIA, Disponible en: https://seia.sea.gob.cl/busqueda/buscarProyecto.php" }, "geometry": { "type": "Point", "coordinates": [ -70.718955, -29.450598 ] } },
{ "type": "Feature", "properties": { "fid": 26952, "ID": 26952, "Nombre": "Parque Solar Estancia", "WEB": "Ver", "Tipo": "DIA", "Region": "Region de Coquimbo", "Comunas": "La Higuera", "Provincias": "Elqui-Limari-Choapa", "Tipologia": "c", "Razon de Ingreso": "Ingreso previo a la publicacion D.S. Nº 30/2024", "Titular": "Andes Mainstream SpA...", "Inversion (MMU$)": 160.0, "Fecha Presentacion": "2013-09-25", "Estado": "Aprobado", "Fecha Calificacion": "2014-03-12", "Sector Productivo": "Energia", "Latitud punto representativo": -29.373837, "Longitud punto representativo": -71.055785, "Link del Expediente": "https://seia.sea.gob.cl/expediente/expediente.php?id_expediente=2128552323&modo=ficha", "Descripcion": "Informacion de todos los proyectos ingresados al Sistema de Evaluacion de Impacto Ambiental - SEIA del Ministerio de Medio Ambiente, desde el año 2010 a la actualidad", "Origen del Dato": "Portal de busqueda avanzada de proyectos, del Servicio de Evaluacion de Impacto Ambiental, SEIA, Disponible en: https://seia.sea.gob.cl/busqueda/buscarProyecto.php" }, "geometry": { "type": "Point", "coordinates": [ -71.055785, -29.373837 ] } },
{ "type": "Feature", "properties": { "fid": 26975, "ID": 26975, "Nombre": "Proyecto Extraccion de Aridos e Instalaciones Asociadas Pozo Punta Colorada", "WEB": "Ver", "Tipo": "DIA", "Region": "Region de Coquimbo", "Comunas": "La Higuera", "Provincias": "Elqui-Limari-Choapa", "Tipologia": "i2", "Razon de Ingreso": "Ingreso previo a la publicacion D.S. Nº 30/2024", "Titular": "Sacyr Chile S.A.", "Inversion (MMU$)": 1.71, "Fecha Presentacion": "2013-04-10", "Estado": "Aprobado", "Fecha Calificacion": "2013-11-11", "Sector Productivo": "Mineria", "Latitud punto representativo": -29.370232, "Longitud punto representativo": -70.994342, "Link del Expediente": "https://seia.sea.gob.cl/expediente/expediente.php?id_expediente=8048977&modo=ficha", "Descripcion": "Informacion de todos los proyectos ingresados al Sistema de Evaluacion de Impacto Ambiental - SEIA del Ministerio de Medio Ambiente, desde el año 2010 a la actualidad", "Origen del Dato": "Portal de busqueda avanzada de proyectos, del Servicio de Evaluacion de Impacto Ambiental, SEIA, Disponible en: https://seia.sea.gob.cl/busqueda/buscarProyecto.php" }, "geometry": { "type": "Point", "coordinates": [ -70.994342, -29.370232 ] } },
{ "type": "Feature", "properties": { "fid": 27008, "ID": 27008, "Nombre": "MODIFICACION DE PROYECTO TECNICO (SOL. Nº 212041002): CULTIVO COMERCIAL DE OSTION DEL NORTE, MIT蚅IDOS Y MACROCYSTIS SP. EN EL SECTOR DE CALETA TOTORALILLO NORTE, LA HIGUERA - IV REGION", "WEB": "Ver", "Tipo": "DIA", "Region": "Region de Coquimbo", "Comunas": "La Higuera", "Provincias": "Elqui-Limari-Choapa", "Tipologia": "n2", "Razon de Ingreso": "Ingreso previo a la publicacion D.S. Nº 30/2024", "Titular": "STI Pescadores Artesanales Totoralillo Norte La Higuera, Coquimbo - IV Region", "Inversion (MMU$)": 0.25, "Fecha Presentacion": "2012-10-11", "Estado": "Aprobado", "Fecha Calificacion": "2013-06-14", "Sector Productivo": "Pesca y Acuicultura", "Latitud punto representativo": -29.489077, "Longitud punto representativo": -71.329606, "Link del Expediente": "https://seia.sea.gob.cl/expediente/expediente.php?id_expediente=7424716&modo=ficha", "Descripcion": "Informacion de todos los proyectos ingresados al Sistema de Evaluacion de Impacto Ambiental - SEIA del Ministerio de Medio Ambiente, desde el año 2010 a la actualidad", "Origen del Dato": "Portal de busqueda avanzada de proyectos, del Servicio de Evaluacion de Impacto Ambiental, SEIA, Disponible en: https://seia.sea.gob.cl/busqueda/buscarProyecto.php" }, "geometry": { "type": "Point", "coordinates": [ -71.329606, -29.489077 ] } },
{ "type": "Feature", "properties": { "fid": 27016, "ID": 27016, "Nombre": "Proyecto Minero Resguardo", "WEB": "Ver", "Tipo": "DIA", "Region": "Region de Coquimbo", "Comunas": "La Higuera", "Provincias": "Elqui-Limari-Choapa", "Tipologia": "i4", "Razon de Ingreso": "Ingreso previo a la publicacion D.S. Nº 30/2024", "Titular": "SERENA IRON SPA", "Inversion (MMU$)": 7.5, "Fecha Presentacion": "2012-08-08", "Estado": "Aprobado", "Fecha Calificacion": "2013-05-28", "Sector Productivo": "Mineria", "Latitud punto representativo": -29.44399, "Longitud punto representativo": -71.259235, "Link del Expediente": "https://seia.sea.gob.cl/expediente/expediente.php?id_expediente=7203872&modo=ficha", "Descripcion": "Informacion de todos los proyectos ingresados al Sistema de Evaluacion de Impacto Ambiental - SEIA del Ministerio de Medio Ambiente, desde el año 2010 a la actualidad", "Origen del Dato": "Portal de busqueda avanzada de proyectos, del Servicio de Evaluacion de Impacto Ambiental, SEIA, Disponible en: https://seia.sea.gob.cl/busqueda/buscarProyecto.php" }, "geometry": { "type": "Point", "coordinates": [ -71.259235, -29.44399 ] } },
{ "type": "Feature", "properties": { "fid": 27017, "ID": 27017, "Nombre": "Puerto Cruz Grande", "WEB": "Ver", "Tipo": "EIA", "Region": "Region de Coquimbo", "Comunas": "La Higuera", "Provincias": "Elqui-Limari-Choapa", "Tipologia": "f1", "Razon de Ingreso": "Ingreso previo a la publicacion D.S. Nº 30/2024", "Titular": "Compañia Minera del Pacifico S.A.", "Inversion (MMU$)": 250.0, "Fecha Presentacion": "2012-08-03", "Estado": "Aprobado", "Fecha Calificacion": "2015-02-03", "Sector Productivo": "Infraestructura Portuaria", "Latitud punto representativo": -29.453127, "Longitud punto representativo": -71.309803, "Link del Expediente": "https://seia.sea.gob.cl/expediente/expediente.php?id_expediente=7178119&modo=ficha", "Descripcion": "Informacion de todos los proyectos ingresados al Sistema de Evaluacion de Impacto Ambiental - SEIA del Ministerio de Medio Ambiente, desde el año 2010 a la actualidad", "Origen del Dato": "Portal de busqueda avanzada de proyectos, del Servicio de Evaluacion de Impacto Ambiental, SEIA, Disponible en: https://seia.sea.gob.cl/busqueda/buscarProyecto.php" }, "geometry": { "type": "Point", "coordinates": [ -71.309803, -29.453127 ] } },
{ "type": "Feature", "properties": { "fid": 27053, "ID": 27053, "Nombre": "Proyecto MOL", "WEB": "Ver", "Tipo": "DIA", "Region": "Region de Coquimbo", "Comunas": "La Higuera", "Provincias": "Elqui-Limari-Choapa", "Tipologia": "i4", "Razon de Ingreso": "Ingreso previo a la publicacion D.S. Nº 30/2024", "Titular": "Jorge Cardenas Inversiones de Capital E.I.R.L", "Inversion (MMU$)": 8.0, "Fecha Presentacion": "2011-09-06", "Estado": "Aprobado", "Fecha Calificacion": "2012-05-30", "Sector Productivo": "Mineria", "Latitud punto representativo": -29.513958, "Longitud punto representativo": -71.228484, "Link del Expediente": "https://seia.sea.gob.cl/expediente/expediente.php?id_expediente=6007274&modo=ficha", "Descripcion": "Informacion de todos los proyectos ingresados al Sistema de Evaluacion de Impacto Ambiental - SEIA del Ministerio de Medio Ambiente, desde el año 2010 a la actualidad", "Origen del Dato": "Portal de busqueda avanzada de proyectos, del Servicio de Evaluacion de Impacto Ambiental, SEIA, Disponible en: https://seia.sea.gob.cl/busqueda/buscarProyecto.php" }, "geometry": { "type": "Point", "coordinates": [ -71.228484, -29.513958 ] } },
{ "type": "Feature", "properties": { "fid": 27055, "ID": 27055, "Nombre": "PROSPECCION MINERA MESCALERO", "WEB": "Ver", "Tipo": "DIA", "Region": "Region de Coquimbo", "Comunas": "La Higuera", "Provincias": "Elqui-Limari-Choapa", "Tipologia": "i4", "Razon de Ingreso": "Ingreso previo a la publicacion D.S. Nº 30/2024", "Titular": "SOCIEDAD CONTRACTUAL MINERA ROCK EXPLORATION", "Inversion (MMU$)": 0.37, "Fecha Presentacion": "2011-08-29", "Estado": "Aprobado", "Fecha Calificacion": "2012-06-07", "Sector Productivo": "Mineria", "Latitud punto representativo": -29.335357, "Longitud punto representativo": -71.141185, "Link del Expediente": "https://seia.sea.gob.cl/expediente/expediente.php?id_expediente=5957807&modo=ficha", "Descripcion": "Informacion de todos los proyectos ingresados al Sistema de Evaluacion de Impacto Ambiental - SEIA del Ministerio de Medio Ambiente, desde el año 2010 a la actualidad", "Origen del Dato": "Portal de busqueda avanzada de proyectos, del Servicio de Evaluacion de Impacto Ambiental, SEIA, Disponible en: https://seia.sea.gob.cl/busqueda/buscarProyecto.php" }, "geometry": { "type": "Point", "coordinates": [ -71.141185, -29.335357 ] } },
{ "type": "Feature", "properties": { "fid": 27081, "ID": 27081, "Nombre": "Proyecto Prospeccion Dominga Norte y Sur", "WEB": "Ver", "Tipo": "DIA", "Region": "Region de Coquimbo", "Comunas": "La Higuera", "Provincias": "Elqui-Limari-Choapa", "Tipologia": "i4", "Razon de Ingreso": "Ingreso previo a la publicacion D.S. Nº 30/2024", "Titular": "Minera Andes Iron Limitada", "Inversion (MMU$)": 30.0, "Fecha Presentacion": "2011-02-28", "Estado": "Aprobado", "Fecha Calificacion": "2011-07-20", "Sector Productivo": "Mineria", "Latitud punto representativo": -29.362286, "Longitud punto representativo": -71.170208, "Link del Expediente": "https://seia.sea.gob.cl/expediente/expediente.php?id_expediente=5397802&modo=ficha", "Descripcion": "Informacion de todos los proyectos ingresados al Sistema de Evaluacion de Impacto Ambiental - SEIA del Ministerio de Medio Ambiente, desde el año 2010 a la actualidad", "Origen del Dato": "Portal de busqueda avanzada de proyectos, del Servicio de Evaluacion de Impacto Ambiental, SEIA, Disponible en: https://seia.sea.gob.cl/busqueda/buscarProyecto.php" }, "geometry": { "type": "Point", "coordinates": [ -71.170208, -29.362286 ] } },
{ "type": "Feature", "properties": { "fid": 27097, "ID": 27097, "Nombre": "Prospeccion Proyecto Alfa", "WEB": "Ver", "Tipo": "DIA", "Region": "Region de Coquimbo", "Comunas": "La Higuera", "Provincias": "Elqui-Limari-Choapa", "Tipologia": "i4", "Razon de Ingreso": "Ingreso previo a la publicacion D.S. Nº 30/2024", "Titular": "Sumitomo Metal Mining Chile Ltda", "Inversion (MMU$)": 10.0, "Fecha Presentacion": "2010-12-10", "Estado": "Aprobado", "Fecha Calificacion": "2011-07-20", "Sector Productivo": "Mineria", "Latitud punto representativo": -29.583684, "Longitud punto representativo": -70.684623, "Link del Expediente": "https://seia.sea.gob.cl/expediente/expediente.php?id_expediente=5130347&modo=ficha", "Descripcion": "Informacion de todos los proyectos ingresados al Sistema de Evaluacion de Impacto Ambiental - SEIA del Ministerio de Medio Ambiente, desde el año 2010 a la actualidad", "Origen del Dato": "Portal de busqueda avanzada de proyectos, del Servicio de Evaluacion de Impacto Ambiental, SEIA, Disponible en: https://seia.sea.gob.cl/busqueda/buscarProyecto.php" }, "geometry": { "type": "Point", "coordinates": [ -70.684623, -29.583684 ] } },
{ "type": "Feature", "properties": { "fid": 27120, "ID": 27120, "Nombre": "Plan General de Administracion de la Reserva Marina Islas Choros - Damas, Region de Coquimbo.", "WEB": "Ver", "Tipo": "DIA", "Region": "Region de Coquimbo", "Comunas": "La Higuera", "Provincias": "Elqui-Limari-Choapa", "Tipologia": "p", "Razon de Ingreso": "Ingreso previo a la publicacion D.S. Nº 30/2024", "Titular": "Servicio Nacional de Pesca, Region de Coquimbo", "Inversion (MMU$)": 0.0, "Fecha Presentacion": "2010-05-25", "Estado": "Aprobado", "Fecha Calificacion": "2010-10-08", "Sector Productivo": "Otros", "Latitud punto representativo": -29.246248, "Longitud punto representativo": -71.460372, "Link del Expediente": "https://seia.sea.gob.cl/expediente/expediente.php?id_expediente=4609626&modo=ficha", "Descripcion": "Informacion de todos los proyectos ingresados al Sistema de Evaluacion de Impacto Ambiental - SEIA del Ministerio de Medio Ambiente, desde el año 2010 a la actualidad", "Origen del Dato": "Portal de busqueda avanzada de proyectos, del Servicio de Evaluacion de Impacto Ambiental, SEIA, Disponible en: https://seia.sea.gob.cl/busqueda/buscarProyecto.php" }, "geometry": { "type": "Point", "coordinates": [ -71.460372, -29.246248 ] } },
{ "type": "Feature", "properties": { "fid": 27239, "ID": 27239, "Nombre": "Proyecto Minero Puquias", "WEB": "Ver", "Tipo": "EIA", "Region": "Region de Coquimbo", "Comunas": "La Higuera", "Provincias": "Elqui-Limari-Choapa", "Tipologia": "i4", "Razon de Ingreso": "Ingreso previo a la publicacion D.S. Nº 30/2024", "Titular": "Cuprum Resources Chile SPA", "Inversion (MMU$)": 60.0, "Fecha Presentacion": "2008-06-02", "Estado": "Aprobado", "Fecha Calificacion": "2011-03-09", "Sector Productivo": "Mineria", "Latitud punto representativo": -29.444897, "Longitud punto representativo": -70.713624, "Link del Expediente": "https://seia.sea.gob.cl/expediente/expediente.php?id_expediente=2948055&modo=ficha", "Descripcion": "Informacion de todos los proyectos ingresados al Sistema de Evaluacion de Impacto Ambiental - SEIA del Ministerio de Medio Ambiente, desde el año 2010 a la actualidad", "Origen del Dato": "Portal de busqueda avanzada de proyectos, del Servicio de Evaluacion de Impacto Ambiental, SEIA, Disponible en: https://seia.sea.gob.cl/busqueda/buscarProyecto.php" }, "geometry": { "type": "Point", "coordinates": [ -70.713624, -29.444897 ] } }
]
}
