{
"type": "FeatureCollection",
"name": "riesgo_linea_segura",
"crs": { "type": "name", "properties": { "name": "urn:ogc:def:crs:OGC:1.3:CRS84" } },
"features": [
{ "type": "Feature", "properties": { "fid": 1, "tipo": "Límite de área de evacuación", "nom_com": "La Higuera", "nom_prov": "Elqui", "nom_reg": "Coquimbo", "Descripcion": "Limite Area de Evacuacion, Amenza Por Tsunami", "Recomendaciones SENAPRED": "https://bibliogrd.senapred.gob.cl/bitstream/handle/2012/1711/06_diptico_tsunami_2023_SENAPRED.pdf", "Origen Data": "Visor Chile Preparado, Territorio y Amenazas - SENAPRED, disponible en https://www.visorchilepreparado.cl/" }, "geometry": { "type": "MultiLineString", "coordinates": [ [ [ -71.310284461, -29.458673701 ], [ -71.310308768, -29.458691205 ], [ -71.310479565, -29.4588141999999 ], [ -71.310487785, -29.458820117999899 ], [ -71.310495659, -29.458829561 ], [ -71.310584466, -29.4589360649999 ], [ -71.310596313, -29.458950274 ], [ -71.310592025999895, -29.459023004999899 ], [ -71.310604256, -29.459163659 ] ] ] } },
{ "type": "Feature", "properties": { "fid": 2, "tipo": "Límite de área de evacuación", "nom_com": "La Higuera", "nom_prov": "Elqui", "nom_reg": "Coquimbo", "Descripcion": "Limite Area de Evacuacion, Amenza Por Tsunami", "Recomendaciones SENAPRED": "https://bibliogrd.senapred.gob.cl/bitstream/handle/2012/1711/06_diptico_tsunami_2023_SENAPRED.pdf", "Origen Data": "Visor Chile Preparado, Territorio y Amenazas - SENAPRED, disponible en https://www.visorchilepreparado.cl/" }, "geometry": { "type": "MultiLineString", "coordinates": [ [ [ -71.310057506, -29.4543510949999 ], [ -71.309961358, -29.454408972 ], [ -71.309332469, -29.455249059 ], [ -71.309104106999897, -29.455554112 ], [ -71.309077021999897, -29.455590295 ], [ -71.308880224999896, -29.455853182999899 ], [ -71.308843015, -29.455902888 ], [ -71.3088415349999, -29.455904865 ], [ -71.308840414, -29.455907088999901 ], [ -71.308834331, -29.455916916 ], [ -71.308800387, -29.455971748 ], [ -71.308725014999894, -29.456093503 ], [ -71.308706835999899, -29.456172278999901 ], [ -71.308699727, -29.4561863919999 ], [ -71.308642195999894, -29.456442481 ], [ -71.308650859, -29.456508937 ], [ -71.308654357, -29.456535766999899 ], [ -71.308674773, -29.4566923749999 ], [ -71.308681301, -29.456742452 ], [ -71.308693782, -29.456768412 ], [ -71.308742310999904, -29.456869347999898 ], [ -71.308772013, -29.456931127 ], [ -71.308836567, -29.457013214 ], [ -71.309132969, -29.4573901169999 ], [ -71.309191386, -29.4574924029999 ], [ -71.309260612999907, -29.457613618 ], [ -71.309317550999907, -29.457713315 ], [ -71.309394148, -29.457847433 ], [ -71.309610708, -29.458088824999901 ], [ -71.30986339, -29.4583704799999 ], [ -71.310142153, -29.458571223 ], [ -71.310284461, -29.458673701 ] ] ] } },
{ "type": "Feature", "properties": { "fid": 3, "tipo": "Límite de área de evacuación", "nom_com": "La Higuera", "nom_prov": "Elqui", "nom_reg": "Coquimbo", "Descripcion": "Limite Area de Evacuacion, Amenza Por Tsunami", "Recomendaciones SENAPRED": "https://bibliogrd.senapred.gob.cl/bitstream/handle/2012/1711/06_diptico_tsunami_2023_SENAPRED.pdf", "Origen Data": "Visor Chile Preparado, Territorio y Amenazas - SENAPRED, disponible en https://www.visorchilepreparado.cl/" }, "geometry": { "type": "MultiLineString", "coordinates": [ [ [ -71.461880416, -29.2335758689999 ], [ -71.4616647779999, -29.234450081 ], [ -71.461483028, -29.234854425 ], [ -71.461388829, -29.23506399 ], [ -71.461395921, -29.236621634999899 ], [ -71.461502095, -29.236927679 ], [ -71.461557129, -29.237259142 ], [ -71.461666393, -29.2375087419999 ], [ -71.461666634, -29.237520818 ], [ -71.461670864, -29.2377329289999 ], [ -71.461779404, -29.238038582999899 ], [ -71.461802647, -29.238335198 ], [ -71.461803145, -29.23834155 ], [ -71.461776077, -29.2384713289999 ], [ -71.461781684999906, -29.238544937 ], [ -71.461767956, -29.238605990999901 ], [ -71.461716571, -29.238834529 ], [ -71.461498811999903, -29.239459508 ], [ -71.461448979, -29.239597874 ], [ -71.461398625, -29.239737689 ], [ -71.4612901039999, -29.24012456 ], [ -71.46124486, -29.240387073 ], [ -71.461176179999896, -29.240618479 ], [ -71.461031864999896, -29.240915426 ], [ -71.460839316, -29.241187527 ], [ -71.460456442999899, -29.241328657999901 ], [ -71.46020999, -29.24150758 ], [ -71.460065443, -29.241660821 ], [ -71.459788639, -29.241740772 ], [ -71.459632671, -29.241533042999901 ], [ -71.459232024999906, -29.241337566 ], [ -71.458870361, -29.241316288999901 ], [ -71.458822368, -29.241313466 ], [ -71.458383265, -29.241283227999901 ], [ -71.4582912, -29.241286595 ], [ -71.457887900999907, -29.241301344 ], [ -71.457559519, -29.241244749 ], [ -71.457219304, -29.241181952 ], [ -71.457185323, -29.241177982 ], [ -71.456856743999893, -29.241139599 ], [ -71.456515703, -29.241153907 ], [ -71.456177436, -29.2411617409999 ], [ -71.455949233, -29.241043256 ], [ -71.455737508, -29.240900671 ], [ -71.455718911, -29.240888147 ], [ -71.455591826, -29.240750455999901 ], [ -71.45550974, -29.240589975 ], [ -71.455359551999905, -29.240318384 ], [ -71.455231351999899, -29.240091223 ], [ -71.4550712449999, -29.240045167999899 ], [ -71.454853947999894, -29.2400198469999 ], [ -71.454644221, -29.240037209 ], [ -71.454533011, -29.240027303 ], [ -71.454372403, -29.240012997 ], [ -71.454144377, -29.239958348999899 ], [ -71.45383107, -29.239860065 ], [ -71.453555399, -29.2397844189999 ], [ -71.453259207, -29.239634122 ], [ -71.453054605, -29.2395001309999 ], [ -71.452956647999898, -29.239480321 ], [ -71.452954151, -29.239479815 ], [ -71.452665925, -29.239369494999899 ], [ -71.452126473, -29.2391630179999 ], [ -71.452031661, -29.239126729 ], [ -71.451603257, -29.2388618059999 ], [ -71.451283667, -29.238664175999901 ], [ -71.450877152, -29.238599751 ], [ -71.450859545, -29.238595451 ], [ -71.450247045, -29.2384458299999 ], [ -71.449945602, -29.238278874999899 ], [ -71.449911191999902, -29.238244655 ], [ -71.449771435999907, -29.238105671 ], [ -71.449583778, -29.23791905 ] ] ] } },
{ "type": "Feature", "properties": { "fid": 4, "tipo": "Límite de área de evacuación", "nom_com": "La Higuera", "nom_prov": "Elqui", "nom_reg": "Coquimbo", "Descripcion": "Limite Area de Evacuacion, Amenza Por Tsunami", "Recomendaciones SENAPRED": "https://bibliogrd.senapred.gob.cl/bitstream/handle/2012/1711/06_diptico_tsunami_2023_SENAPRED.pdf", "Origen Data": "Visor Chile Preparado, Territorio y Amenazas - SENAPRED, disponible en https://www.visorchilepreparado.cl/" }, "geometry": { "type": "MultiLineString", "coordinates": [ [ [ -71.283134723, -29.611926132999901 ], [ -71.28315486, -29.61193987 ], [ -71.284110236999894, -29.612333405999902 ], [ -71.284150774, -29.6123586749999 ], [ -71.284367064, -29.61249351 ], [ -71.284535978999898, -29.612638104 ], [ -71.284611804999898, -29.612807831999898 ], [ -71.284589846, -29.613197850999899 ], [ -71.284661878999898, -29.613560826 ], [ -71.284690825, -29.613706684 ], [ -71.284691608999907, -29.613830005 ], [ -71.284695959, -29.614513819 ], [ -71.284645196, -29.6147997099999 ], [ -71.28445835, -29.615192984 ], [ -71.284055751, -29.615618605 ], [ -71.283899858, -29.615722214999899 ], [ -71.283679499999906, -29.6157792139999 ], [ -71.283122859999906, -29.615780335999901 ], [ -71.2822014609999, -29.6156380749999 ], [ -71.28115259, -29.615554577999902 ], [ -71.28077508, -29.615524525999898 ], [ -71.280356586, -29.615530302 ], [ -71.279595276999899, -29.61562622 ], [ -71.279226069999893, -29.615779906999901 ], [ -71.278884611, -29.616008026 ], [ -71.278632999, -29.6164926719999 ], [ -71.27863359, -29.616610497 ], [ -71.278677452999901, -29.6167830539999 ], [ -71.27906409, -29.617274255 ], [ -71.279678431, -29.617665131 ], [ -71.280321976, -29.618178739 ], [ -71.280905361999899, -29.618445841 ], [ -71.281636649999896, -29.618643848 ], [ -71.282442112999902, -29.618912372 ], [ -71.282981206, -29.6190920949999 ], [ -71.283402576, -29.619300162999899 ], [ -71.283545031, -29.61942333 ], [ -71.283590225999902, -29.619500864 ], [ -71.283713308999907, -29.619712017 ], [ -71.283736480999906, -29.619846444 ], [ -71.283685802, -29.620108135999899 ], [ -71.283319144, -29.620719855999901 ], [ -71.283119642, -29.620928686 ], [ -71.282834663, -29.621226991 ], [ -71.282698024, -29.621473127999899 ], [ -71.282760681, -29.621586056999899 ], [ -71.282994483, -29.621770742 ], [ -71.283357625, -29.621824650999901 ], [ -71.2840558299999, -29.621776707 ], [ -71.284316423999897, -29.6217588129999 ], [ -71.284606703999899, -29.621766390999898 ], [ -71.285123605, -29.621779884 ], [ -71.285253449, -29.62184794 ], [ -71.285406076999905, -29.622040021 ], [ -71.285606011, -29.622291634 ], [ -71.285630467, -29.622322412 ], [ -71.285928697, -29.622603318 ], [ -71.287191199999896, -29.623565441 ], [ -71.28744453, -29.623720541 ], [ -71.288159387, -29.623897091999901 ], [ -71.288468265999896, -29.623867016 ], [ -71.288549266, -29.623859129 ], [ -71.290341681, -29.623284741 ], [ -71.290864342, -29.623117250999901 ], [ -71.290947463, -29.623090614 ], [ -71.291905143, -29.62306038 ], [ -71.292110083999901, -29.623102907 ], [ -71.292943184, -29.623275783999901 ] ] ] } },
{ "type": "Feature", "properties": { "fid": 5, "tipo": "Límite de área de evacuación", "nom_com": "La Higuera", "nom_prov": "Elqui", "nom_reg": "Coquimbo", "Descripcion": "Limite Area de Evacuacion, Amenza Por Tsunami", "Recomendaciones SENAPRED": "https://bibliogrd.senapred.gob.cl/bitstream/handle/2012/1711/06_diptico_tsunami_2023_SENAPRED.pdf", "Origen Data": "Visor Chile Preparado, Territorio y Amenazas - SENAPRED, disponible en https://www.visorchilepreparado.cl/" }, "geometry": { "type": "MultiLineString", "coordinates": [ [ [ -71.304874304999899, -29.437970228 ], [ -71.305292115, -29.4384104549999 ], [ -71.305350226, -29.438533155999899 ], [ -71.305430127, -29.438701867 ], [ -71.305479211, -29.438984406 ], [ -71.305377711999895, -29.439150325 ], [ -71.305291686, -29.439290952 ], [ -71.305068588, -29.439402614 ], [ -71.304909224, -29.439482379 ], [ -71.304625911999906, -29.439584748999899 ], [ -71.304400367, -29.439666248 ], [ -71.304342123, -29.439696273 ], [ -71.303847977, -29.439951016 ], [ -71.303420194999902, -29.440209925 ], [ -71.303193081, -29.440395484 ], [ -71.302965463, -29.440581455 ], [ -71.302784893, -29.440765226999901 ], [ -71.302728036, -29.440823092999899 ], [ -71.302690696999903, -29.4408610959999 ], [ -71.302165917, -29.441726834999901 ], [ -71.3019097869999, -29.442029931 ], [ -71.301817124, -29.442315484999899 ], [ -71.301817701999894, -29.442742239 ], [ -71.301875765, -29.443127831 ], [ -71.3019746639999, -29.4433923079999 ], [ -71.3021886289999, -29.4437985019999 ], [ -71.302450979999904, -29.444106996999899 ], [ -71.302591896, -29.444222582999899 ], [ -71.302999091999894, -29.4444199829999 ], [ -71.303079414, -29.444501151999901 ], [ -71.303262509, -29.444686175999902 ], [ -71.303327243, -29.444781466999899 ], [ -71.303290342, -29.44507404 ], [ -71.303155906, -29.4452034679999 ], [ -71.303151533999895, -29.445207678 ], [ -71.30271004, -29.4454710699999 ], [ -71.302493254, -29.445600402 ], [ -71.301603442, -29.446444692999901 ], [ -71.301031022, -29.446854668999901 ], [ -71.3008086789999, -29.447013915 ], [ -71.300794148, -29.447024321999901 ], [ -71.300344893, -29.447698289999899 ], [ -71.299405572999902, -29.448693638999899 ], [ -71.299178432, -29.449211262999899 ], [ -71.299178363, -29.44948562 ], [ -71.2992791409999, -29.450073755999899 ], [ -71.299402137999905, -29.450274527 ], [ -71.299445729999903, -29.450345684 ], [ -71.299547891, -29.4506156899999 ], [ -71.29991503, -29.451080512 ], [ -71.299993016, -29.451179248 ], [ -71.300089516, -29.451446825999898 ], [ -71.300801661, -29.452181809 ], [ -71.300909372, -29.452292976 ], [ -71.301328681, -29.452605822999899 ], [ -71.302153161, -29.452671681 ], [ -71.303283998, -29.4525691659999 ], [ -71.303472481, -29.452534128 ], [ -71.304270838, -29.452385722 ], [ -71.304700343, -29.452305882 ], [ -71.305229725999894, -29.452150525 ], [ -71.305856319, -29.452038543999901 ], [ -71.306564158999905, -29.451956094 ], [ -71.30744361, -29.451853655 ], [ -71.307748068, -29.451880245 ], [ -71.308270127, -29.45209582 ], [ -71.3084302, -29.45216192 ], [ -71.309242384999905, -29.452404798 ], [ -71.309555007, -29.452407173 ], [ -71.309805441, -29.452409077 ], [ -71.310322792, -29.452354563 ], [ -71.310491188999904, -29.452282477 ], [ -71.310849666, -29.4522544709999 ], [ -71.311099081999899, -29.452234985 ], [ -71.311521968, -29.4522222219999 ], [ -71.311584857, -29.452242914 ], [ -71.311734563999906, -29.452292172999901 ], [ -71.311735122, -29.452309993 ], [ -71.311752505, -29.4528651279999 ], [ -71.311329967999896, -29.453669165 ], [ -71.311309685, -29.453684919 ], [ -71.310955646, -29.4539598809999 ], [ -71.310195576, -29.454267985999898 ], [ -71.310172211, -29.454282049 ], [ -71.310057506, -29.4543510949999 ] ] ] } }
]
}
