{
"type": "FeatureCollection",
"name": "riesgo_puntos_criticos",
"crs": { "type": "name", "properties": { "name": "urn:ogc:def:crs:OGC:1.3:CRS84" } },
"features": [
{ "type": "Feature", "properties": { "fid": 1, "COD": 5.0, "REGI_N": "COQUIMBO", "PROVINCIA": "ELQUI", "COMUNA": "LA HIGUERA", "SECTOR": "Los Pajaritos", "CAUSA_PUNT": "Activacion de quebradas", "ACCIONES_D": "Limpieza - mejoramiento de sistemas de evacuacion de aguas lluvias", "ACCIONES_1": "Reforzamiento de taludes", "LA_SOLUCI": "Sectorial", "SI_LA_RESP": "Direccion General de Aguas- MOP", "NIVEL_DE_R": "Bajo", "X": -71.064, "Y": -29.303, "GID_ORIGIN": 1, "Descripcion": "Localización de puntos críticos de invierno temporada 2024", "Origen Dato": "Visor SITRural del Centro de Investigacion de Recursos Naturales, disponible en: https://visor.sitrural.cl/mapa" }, "geometry": { "type": "Point", "coordinates": [ -71.064, -29.303 ] } },
{ "type": "Feature", "properties": { "fid": 2, "COD": 5.0, "REGI_N": "COQUIMBO", "PROVINCIA": "ELQUI", "COMUNA": "LA HIGUERA", "SECTOR": "El Trapiche", "CAUSA_PUNT": "Danio/perdida en infraestructura (Ej.: Vial, Portuario/Costero, Agricola, otros)", "ACCIONES_D": "Reforzamiento de taludes", "ACCIONES_1": "null", "LA_SOLUCI": "Sectorial", "SI_LA_RESP": "Direccion General de Aguas- MOP", "NIVEL_DE_R": "Medio", "X": -71.067, "Y": -28.997, "GID_ORIGIN": 2, "Descripcion": "Localización de puntos críticos de invierno temporada 2024", "Origen Dato": "Visor SITRural del Centro de Investigacion de Recursos Naturales, disponible en: https://visor.sitrural.cl/mapa" }, "geometry": { "type": "Point", "coordinates": [ -71.067, -28.997 ] } },
{ "type": "Feature", "properties": { "fid": 3, "COD": 5.0, "REGI_N": "COQUIMBO", "PROVINCIA": "ELQUI", "COMUNA": "LA HIGUERA", "SECTOR": "Los Olivos", "CAUSA_PUNT": "Inundacion por desborde de cauce", "ACCIONES_D": "Mantencion de caminos", "ACCIONES_1": "No Aplica", "LA_SOLUCI": "Sectorial", "SI_LA_RESP": "Direccion de Vialidad - MOP", "NIVEL_DE_R": "Muy Alto", "X": -71.313, "Y": -29.509, "GID_ORIGIN": 3, "Descripcion": "Localización de puntos críticos de invierno temporada 2024", "Origen Dato": "Visor SITRural del Centro de Investigacion de Recursos Naturales, disponible en: https://visor.sitrural.cl/mapa" }, "geometry": { "type": "Point", "coordinates": [ -71.313, -29.509 ] } },
{ "type": "Feature", "properties": { "fid": 4, "COD": 5.0, "REGI_N": "COQUIMBO", "PROVINCIA": "ELQUI", "COMUNA": "LA HIGUERA", "SECTOR": "Petroglifos Los Morros", "CAUSA_PUNT": "Inundacion por desborde de cauce", "ACCIONES_D": "Mantencion de caminos", "ACCIONES_1": "No Aplica", "LA_SOLUCI": "Comunal", "SI_LA_RESP": "Otro", "NIVEL_DE_R": "Bajo", "X": -70.759, "Y": -29.373, "GID_ORIGIN": 4, "Descripcion": "Localización de puntos críticos de invierno temporada 2024", "Origen Dato": "Visor SITRural del Centro de Investigacion de Recursos Naturales, disponible en: https://visor.sitrural.cl/mapa" }, "geometry": { "type": "Point", "coordinates": [ -70.759, -29.373 ] } },
{ "type": "Feature", "properties": { "fid": 5, "COD": 5.0, "REGI_N": "COQUIMBO", "PROVINCIA": "ELQUI", "COMUNA": "LA HIGUERA", "SECTOR": "Los Pajaritos", "CAUSA_PUNT": "Inundacion por desborde de cauce", "ACCIONES_D": "Limpieza - mejoramiento de sistemas de evacuacion de aguas lluvias", "ACCIONES_1": "Mantencion de caminos", "LA_SOLUCI": "Sectorial", "SI_LA_RESP": "Direccion de Vialidad - MOP", "NIVEL_DE_R": "Muy Alto", "X": -70.747, "Y": -29.45, "GID_ORIGIN": 5, "Descripcion": "Localización de puntos críticos de invierno temporada 2024", "Origen Dato": "Visor SITRural del Centro de Investigacion de Recursos Naturales, disponible en: https://visor.sitrural.cl/mapa" }, "geometry": { "type": "Point", "coordinates": [ -70.747, -29.45 ] } },
{ "type": "Feature", "properties": { "fid": 6, "COD": 5.0, "REGI_N": "COQUIMBO", "PROVINCIA": "ELQUI", "COMUNA": "LA HIGUERA", "SECTOR": "El Trapiche", "CAUSA_PUNT": "Inundacion por desborde de cauce", "ACCIONES_D": "Reforzamiento de taludes", "ACCIONES_1": "Limpieza - mejoramiento de sistemas de evacuacion de aguas lluvias", "LA_SOLUCI": "Sectorial", "SI_LA_RESP": "Direccion General de Aguas- MOP", "NIVEL_DE_R": "Bajo", "X": -71.064, "Y": -29.366, "GID_ORIGIN": 6, "Descripcion": "Localización de puntos críticos de invierno temporada 2024", "Origen Dato": "Visor SITRural del Centro de Investigacion de Recursos Naturales, disponible en: https://visor.sitrural.cl/mapa" }, "geometry": { "type": "Point", "coordinates": [ -71.064, -29.366 ] } },
{ "type": "Feature", "properties": { "fid": 7, "COD": 5.0, "REGI_N": "COQUIMBO", "PROVINCIA": "ELQUI", "COMUNA": "LA HIGUERA", "SECTOR": "Quebrada Honda", "CAUSA_PUNT": "Activacion de quebradas", "ACCIONES_D": "Mantencion de caminos", "ACCIONES_1": "Limpieza - mejoramiento de sistemas de evacuacion de aguas lluvias", "LA_SOLUCI": "Sectorial", "SI_LA_RESP": "Direccion de Vialidad - MOP", "NIVEL_DE_R": "Muy Alto", "X": -71.252, "Y": -29.571, "GID_ORIGIN": 7, "Descripcion": "Localización de puntos críticos de invierno temporada 2024", "Origen Dato": "Visor SITRural del Centro de Investigacion de Recursos Naturales, disponible en: https://visor.sitrural.cl/mapa" }, "geometry": { "type": "Point", "coordinates": [ -71.252, -29.571 ] } },
{ "type": "Feature", "properties": { "fid": 8, "COD": 5.0, "REGI_N": "COQUIMBO", "PROVINCIA": "ELQUI", "COMUNA": "LA HIGUERA", "SECTOR": "Los Pajaritos", "CAUSA_PUNT": "Inundacion por desborde de cauce", "ACCIONES_D": "Reforzamiento de taludes", "ACCIONES_1": "Limpieza - mejoramiento de sistemas de evacuacion de aguas lluvias", "LA_SOLUCI": "Sectorial", "SI_LA_RESP": "Direccion General de Aguas- MOP", "NIVEL_DE_R": "Muy Alto", "X": -70.767, "Y": -29.45, "GID_ORIGIN": 8, "Descripcion": "Localización de puntos críticos de invierno temporada 2024", "Origen Dato": "Visor SITRural del Centro de Investigacion de Recursos Naturales, disponible en: https://visor.sitrural.cl/mapa" }, "geometry": { "type": "Point", "coordinates": [ -70.767, -29.45 ] } },
{ "type": "Feature", "properties": { "fid": 9, "COD": 5.0, "REGI_N": "COQUIMBO", "PROVINCIA": "ELQUI", "COMUNA": "LA HIGUERA", "SECTOR": "Localidad De Chungungo", "CAUSA_PUNT": "Activacion de quebradas", "ACCIONES_D": "Limpieza - mejoramiento de sistemas de evacuacion de aguas lluvias", "ACCIONES_1": "Mantencion de caminos", "LA_SOLUCI": "Sectorial", "SI_LA_RESP": "Direccion de Vialidad - MOP", "NIVEL_DE_R": "Alto", "X": -71.245, "Y": -29.562, "GID_ORIGIN": 9, "Descripcion": "Localización de puntos críticos de invierno temporada 2024", "Origen Dato": "Visor SITRural del Centro de Investigacion de Recursos Naturales, disponible en: https://visor.sitrural.cl/mapa" }, "geometry": { "type": "Point", "coordinates": [ -71.245, -29.562 ] } },
{ "type": "Feature", "properties": { "fid": 10, "COD": 5.0, "REGI_N": "COQUIMBO", "PROVINCIA": "ELQUI", "COMUNA": "LA HIGUERA", "SECTOR": "Quebrada Los Choros", "CAUSA_PUNT": "Inundacion por desborde de cauce", "ACCIONES_D": "Limpieza - mejoramiento de sistemas de evacuacion de aguas lluvias", "ACCIONES_1": "Reforzamiento de taludes", "LA_SOLUCI": "Sectorial", "SI_LA_RESP": "Direccion de Vialidad - MOP", "NIVEL_DE_R": "Medio", "X": -71.111, "Y": -28.978, "GID_ORIGIN": 10, "Descripcion": "Localización de puntos críticos de invierno temporada 2024", "Origen Dato": "Visor SITRural del Centro de Investigacion de Recursos Naturales, disponible en: https://visor.sitrural.cl/mapa" }, "geometry": { "type": "Point", "coordinates": [ -71.111, -28.978 ] } },
{ "type": "Feature", "properties": { "fid": 11, "COD": 5.0, "REGI_N": "COQUIMBO", "PROVINCIA": "ELQUI", "COMUNA": "LA HIGUERA", "SECTOR": "Quebrada El Chaniar", "CAUSA_PUNT": "Inundacion por desborde de cauce", "ACCIONES_D": "Mantencion de caminos", "ACCIONES_1": "No Aplica", "LA_SOLUCI": "Comunal", "SI_LA_RESP": "Otro", "NIVEL_DE_R": "Medio", "X": -71.069, "Y": -29.429, "GID_ORIGIN": 11, "Descripcion": "Localización de puntos críticos de invierno temporada 2024", "Origen Dato": "Visor SITRural del Centro de Investigacion de Recursos Naturales, disponible en: https://visor.sitrural.cl/mapa" }, "geometry": { "type": "Point", "coordinates": [ -71.069, -29.429 ] } },
{ "type": "Feature", "properties": { "fid": 12, "COD": 5.0, "REGI_N": "COQUIMBO", "PROVINCIA": "ELQUI", "COMUNA": "LA HIGUERA", "SECTOR": "La Junta Los Pajaritos", "CAUSA_PUNT": "Inundacion por desborde de cauce", "ACCIONES_D": "Reforzamiento de taludes", "ACCIONES_1": "Mantencion de caminos", "LA_SOLUCI": "Sectorial", "SI_LA_RESP": "Direccion de Vialidad - MOP", "NIVEL_DE_R": "Alto", "X": -70.758, "Y": -29.388, "GID_ORIGIN": 12, "Descripcion": "Localización de puntos críticos de invierno temporada 2024", "Origen Dato": "Visor SITRural del Centro de Investigacion de Recursos Naturales, disponible en: https://visor.sitrural.cl/mapa" }, "geometry": { "type": "Point", "coordinates": [ -70.758, -29.388 ] } }
]
}
