{
"type": "FeatureCollection",
"name": "riesgo_remocion_masa",
"crs": { "type": "name", "properties": { "name": "urn:ogc:def:crs:OGC:1.3:CRS84" } },
"features": [
{ "type": "Feature", "properties": { "fid": 1, "Codigo": "RM-2017-04-015", "Tipo de remoción": "Flujo", "Tipo de material": "Suelo/Sedimento", "Clasificación": "Flujo de detritos", "Detonante": "Lluvias", "Día del evento": "11 al 13", "Mes de inicio": "Mayo", "Año del evento": "2017", "Estación": "Otonio (del 21-03 al 20-06)", "Enlace del informe": "http://portalgeo.sernageomin.cl/Informes_PDF_Nac/RM-2017-04.pdf", "Latitud": "-29.28857481", "Longitud": "-71.31591750", "Autor del informe": "Alfaro, A. y Garrido, N.", "Fuente de información": "2017. Efectos geologicos del evento meteorologico del 11 al 13 de mayo de 2017, region de Atacama. Valle del Elqui, comunas de Vicuna y Paihuano", "Precisión": "Coordenadas exactas", "Descripcion": "Catastro remocion en masa a nivel nacional, descargado de Itrend, del Servicio Nacional de Geologia y Mineria, SERNAGEOMIN ", "Origen Dato": "Visor SITRural del Centro de Investigacion de Recursos Naturales, disponible en: https://visor.sitrural.cl/mapa" }, "geometry": { "type": "Point", "coordinates": [ -71.315904836347116, -29.288559583645743 ] } },
{ "type": "Feature", "properties": { "fid": 2, "Codigo": "RM-2017-04-016", "Tipo de remoción": "Flujo", "Tipo de material": "Suelo/Sedimento", "Clasificación": "Flujo indeterminado", "Detonante": "Lluvias", "Día del evento": "11 al 13", "Mes de inicio": "Mayo", "Año del evento": "2017", "Estación": "Otonio (del 21-03 al 20-06)", "Enlace del informe": "http://portalgeo.sernageomin.cl/Informes_PDF_Nac/RM-2017-04.pdf", "Latitud": "-29.35955574", "Longitud": "-71.01849258", "Autor del informe": "Alfaro, A. y Garrido, N.", "Fuente de información": "2017. Efectos geologicos del evento meteorologico del 11 al 13 de mayo de 2017, region de Atacama. Valle del Elqui, comunas de Vicuna y Paihuano", "Precisión": "Coordenadas exactas", "Descripcion": "Catastro remocion en masa a nivel nacional, descargado de Itrend, del Servicio Nacional de Geologia y Mineria, SERNAGEOMIN ", "Origen Dato": "Visor SITRural del Centro de Investigacion de Recursos Naturales, disponible en: https://visor.sitrural.cl/mapa" }, "geometry": { "type": "Point", "coordinates": [ -71.018488501905026, -29.359515663733532 ] } },
{ "type": "Feature", "properties": { "fid": 3, "Codigo": "RM-2018-24-078", "Tipo de remoción": "Flujo", "Tipo de material": "Roca y Suelo/Sedimento", "Clasificación": "Flujo indeterminado", "Detonante": "Sin informacion", "Día del evento": "0", "Mes de inicio": "0", "Año del evento": "0", "Estación": "Referencia bibliografica", "Enlace del informe": "http://portalgeo.sernageomin.cl/Informes_PDF_Nac/RM-2018-24.pdf", "Latitud": "-29.59169336", "Longitud": "-71.21422266", "Autor del informe": "Alfaro, A.; Pantoja, G.; Brantt, C.", "Fuente de información": "2018. Peligro de remocion en masa en la region de Coquimbo-Sector Norte", "Precisión": "Coordenadas exactas", "Descripcion": "Catastro remocion en masa a nivel nacional, descargado de Itrend, del Servicio Nacional de Geologia y Mineria, SERNAGEOMIN ", "Origen Dato": "Visor SITRural del Centro de Investigacion de Recursos Naturales, disponible en: https://visor.sitrural.cl/mapa" }, "geometry": { "type": "Point", "coordinates": [ -71.214212395866028, -29.591665748843724 ] } },
{ "type": "Feature", "properties": { "fid": 4, "Codigo": "RM-2018-24-079", "Tipo de remoción": "Flujo", "Tipo de material": "Roca y Suelo/Sedimento", "Clasificación": "Flujo indeterminado", "Detonante": "Sin informacion", "Día del evento": "0", "Mes de inicio": "0", "Año del evento": "0", "Estación": "Referencia bibliografica", "Enlace del informe": "http://portalgeo.sernageomin.cl/Informes_PDF_Nac/RM-2018-24.pdf", "Latitud": "-29.58673233", "Longitud": "-71.19788834", "Autor del informe": "Alfaro, A.; Pantoja, G.; Brantt, C.", "Fuente de información": "2018. Peligro de remocion en masa en la region de Coquimbo-Sector Norte", "Precisión": "Coordenadas exactas", "Descripcion": "Catastro remocion en masa a nivel nacional, descargado de Itrend, del Servicio Nacional de Geologia y Mineria, SERNAGEOMIN ", "Origen Dato": "Visor SITRural del Centro de Investigacion de Recursos Naturales, disponible en: https://visor.sitrural.cl/mapa" }, "geometry": { "type": "Point", "coordinates": [ -71.197852630741522, -29.586709210390048 ] } },
{ "type": "Feature", "properties": { "fid": 5, "Codigo": "RM-2018-24-080", "Tipo de remoción": "Flujo", "Tipo de material": "Roca y Suelo/Sedimento", "Clasificación": "Flujo indeterminado", "Detonante": "Sin informacion", "Día del evento": "0", "Mes de inicio": "0", "Año del evento": "0", "Estación": "Referencia bibliografica", "Enlace del informe": "http://portalgeo.sernageomin.cl/Informes_PDF_Nac/RM-2018-24.pdf", "Latitud": "-29.57045605", "Longitud": "-71.18373745", "Autor del informe": "Alfaro, A.; Pantoja, G.; Brantt, C.", "Fuente de información": "2018. Peligro de remocion en masa en la region de Coquimbo-Sector Norte", "Precisión": "Coordenadas exactas", "Descripcion": "Catastro remocion en masa a nivel nacional, descargado de Itrend, del Servicio Nacional de Geologia y Mineria, SERNAGEOMIN ", "Origen Dato": "Visor SITRural del Centro de Investigacion de Recursos Naturales, disponible en: https://visor.sitrural.cl/mapa" }, "geometry": { "type": "Point", "coordinates": [ -71.18372647304534, -29.57044463002557 ] } }
]
}
