{
"type": "FeatureCollection",
"name": "riesgo_punto_encuentro",
"crs": { "type": "name", "properties": { "name": "urn:ogc:def:crs:OGC:1.3:CRS84" } },
"features": [
{ "type": "Feature", "properties": { "fid": 1, "OBJECTID": 3914, "nombre_pe": "PE CHUNG3", "nom_com": "La Higuera", "nom_prov": "Elqui", "nom_reg": "Coquimbo", "tipo": "PE", "name": "04104PE013", "sector": "Chungungo", "Descripcion": "Puntos de Encuentro, Amenaza por Tsunami", "Recomendaciones SENAPRED": "https://bibliogrd.senapred.gob.cl/bitstream/handle/2012/1711/06_diptico_tsunami_2023_SENAPRED.pdf", "Origen Data": "Visor Chile Preparado, Territorio y Amenazas - SENAPRED, disponible en https://www.visorchilepreparado.cl/" }, "geometry": { "type": "Point", "coordinates": [ -71.299987116999944, -29.446425825999938 ] } },
{ "type": "Feature", "properties": { "fid": 2, "OBJECTID": 4016, "nombre_pe": "PE HORNOS 2", "nom_com": "La Higuera", "nom_prov": "Elqui", "nom_reg": "Coquimbo", "tipo": "PE", "name": "04104PE001", "sector": "Caleta Hornos", "Descripcion": "Puntos de Encuentro, Amenaza por Tsunami", "Recomendaciones SENAPRED": "https://bibliogrd.senapred.gob.cl/bitstream/handle/2012/1711/06_diptico_tsunami_2023_SENAPRED.pdf", "Origen Data": "Visor Chile Preparado, Territorio y Amenazas - SENAPRED, disponible en https://www.visorchilepreparado.cl/" }, "geometry": { "type": "Point", "coordinates": [ -71.288453764999986, -29.624244025999928 ] } },
{ "type": "Feature", "properties": { "fid": 3, "OBJECTID": 4104, "nombre_pe": "PE CHUNG2", "nom_com": "La Higuera", "nom_prov": "Elqui", "nom_reg": "Coquimbo", "tipo": "PE", "name": "04104PE011", "sector": "Chungungo", "Descripcion": "Puntos de Encuentro, Amenaza por Tsunami", "Recomendaciones SENAPRED": "https://bibliogrd.senapred.gob.cl/bitstream/handle/2012/1711/06_diptico_tsunami_2023_SENAPRED.pdf", "Origen Data": "Visor Chile Preparado, Territorio y Amenazas - SENAPRED, disponible en https://www.visorchilepreparado.cl/" }, "geometry": { "type": "Point", "coordinates": [ -71.29828583699998, -29.450333906999958 ] } },
{ "type": "Feature", "properties": { "fid": 4, "OBJECTID": 4286, "nombre_pe": "PE CHUNG4", "nom_com": "La Higuera", "nom_prov": "Elqui", "nom_reg": "Coquimbo", "tipo": "PE", "name": "04104PE015", "sector": "Chungungo", "Descripcion": "Puntos de Encuentro, Amenaza por Tsunami", "Recomendaciones SENAPRED": "https://bibliogrd.senapred.gob.cl/bitstream/handle/2012/1711/06_diptico_tsunami_2023_SENAPRED.pdf", "Origen Data": "Visor Chile Preparado, Territorio y Amenazas - SENAPRED, disponible en https://www.visorchilepreparado.cl/" }, "geometry": { "type": "Point", "coordinates": [ -71.301583123999933, -29.444695066999941 ] } },
{ "type": "Feature", "properties": { "fid": 5, "OBJECTID": 4323, "nombre_pe": "0", "nom_com": "La Higuera", "nom_prov": "Elqui", "nom_reg": "Coquimbo", "tipo": "PE", "name": "04104PE017", "sector": "Punta de Choros", "Descripcion": "Puntos de Encuentro, Amenaza por Tsunami", "Recomendaciones SENAPRED": "https://bibliogrd.senapred.gob.cl/bitstream/handle/2012/1711/06_diptico_tsunami_2023_SENAPRED.pdf", "Origen Data": "Visor Chile Preparado, Territorio y Amenazas - SENAPRED, disponible en https://www.visorchilepreparado.cl/" }, "geometry": { "type": "Point", "coordinates": [ -71.459114301999989, -29.240955457999974 ] } },
{ "type": "Feature", "properties": { "fid": 6, "OBJECTID": 4516, "nombre_pe": "PE CHUNG1", "nom_com": "La Higuera", "nom_prov": "Elqui", "nom_reg": "Coquimbo", "tipo": "PE", "name": "04104PE009", "sector": "Chungungo", "Descripcion": "Puntos de Encuentro, Amenaza por Tsunami", "Recomendaciones SENAPRED": "https://bibliogrd.senapred.gob.cl/bitstream/handle/2012/1711/06_diptico_tsunami_2023_SENAPRED.pdf", "Origen Data": "Visor Chile Preparado, Territorio y Amenazas - SENAPRED, disponible en https://www.visorchilepreparado.cl/" }, "geometry": { "type": "Point", "coordinates": [ -71.310509748999948, -29.452792196999951 ] } },
{ "type": "Feature", "properties": { "fid": 7, "OBJECTID": 4885, "nombre_pe": "PE HORNOS 3", "nom_com": "La Higuera", "nom_prov": "Elqui", "nom_reg": "Coquimbo", "tipo": "PE", "name": "04104PE003", "sector": "Caleta Hornos", "Descripcion": "Puntos de Encuentro, Amenaza por Tsunami", "Recomendaciones SENAPRED": "https://bibliogrd.senapred.gob.cl/bitstream/handle/2012/1711/06_diptico_tsunami_2023_SENAPRED.pdf", "Origen Data": "Visor Chile Preparado, Territorio y Amenazas - SENAPRED, disponible en https://www.visorchilepreparado.cl/" }, "geometry": { "type": "Point", "coordinates": [ -71.290893533999963, -29.623244850999981 ] } },
{ "type": "Feature", "properties": { "fid": 8, "OBJECTID": 4974, "nombre_pe": "PE HORNOS4", "nom_com": "La Higuera", "nom_prov": "Elqui", "nom_reg": "Coquimbo", "tipo": "PE", "name": "04104PE007", "sector": "Caleta Hornos", "Descripcion": "Puntos de Encuentro, Amenaza por Tsunami", "Recomendaciones SENAPRED": "https://bibliogrd.senapred.gob.cl/bitstream/handle/2012/1711/06_diptico_tsunami_2023_SENAPRED.pdf", "Origen Data": "Visor Chile Preparado, Territorio y Amenazas - SENAPRED, disponible en https://www.visorchilepreparado.cl/" }, "geometry": { "type": "Point", "coordinates": [ -71.283329539999954, -29.619568346999984 ] } },
{ "type": "Feature", "properties": { "fid": 9, "OBJECTID": 5177, "nombre_pe": "PE HORNOS1", "nom_com": "La Higuera", "nom_prov": "Elqui", "nom_reg": "Coquimbo", "tipo": "PE", "name": "04104PE005", "sector": "Caleta Hornos", "Descripcion": "Puntos de Encuentro, Amenaza por Tsunami", "Recomendaciones SENAPRED": "https://bibliogrd.senapred.gob.cl/bitstream/handle/2012/1711/06_diptico_tsunami_2023_SENAPRED.pdf", "Origen Data": "Visor Chile Preparado, Territorio y Amenazas - SENAPRED, disponible en https://www.visorchilepreparado.cl/" }, "geometry": { "type": "Point", "coordinates": [ -71.285152643999936, -29.62241566299997 ] } }
]
}
