{
"type": "FeatureCollection",
"name": "riesgo_via_evacuacion",
"crs": { "type": "name", "properties": { "name": "urn:ogc:def:crs:OGC:1.3:CRS84" } },
"features": [
{ "type": "Feature", "properties": { "fid": 1, "name": "04104VE014", "nom_reg": "Coquimbo", "nom_prov": "Elqui", "nom_com": "La Higuera", "nombre_ve": "V HORNOS6", "sector": "Caleta Hornos", "tipo": "Vía de Evacuación", "Descripcion": "Via de evacuacion, Amenaza por Tsunami", "Recomendaciones SENAPRED": "https://bibliogrd.senapred.gob.cl/bitstream/handle/2012/1711/06_diptico_tsunami_2023_SENAPRED.pdf", "Origen Data": "Visor Chile Preparado, Territorio y Amenazas - SENAPRED, disponible en https://www.visorchilepreparado.cl/" }, "geometry": { "type": "MultiLineString", "coordinates": [ [ [ -71.289223554, -29.623404282 ], [ -71.289105665, -29.623440735 ], [ -71.289017299, -29.623470057 ], [ -71.288941248, -29.623481484 ], [ -71.2888565, -29.623496578999902 ], [ -71.288789139, -29.623511080999901 ], [ -71.288718351999904, -29.623550678 ], [ -71.288648279, -29.623600747 ], [ -71.288556963, -29.623632874 ], [ -71.288481633999893, -29.623661962 ], [ -71.288398163, -29.623670828999899 ] ] ] } },
{ "type": "Feature", "properties": { "fid": 2, "name": "04104VE004", "nom_reg": "Coquimbo", "nom_prov": "Elqui", "nom_com": "La Higuera", "nombre_ve": " ", "sector": "Punta de Choros", "tipo": "Vía de Evacuación", "Descripcion": "Via de evacuacion, Amenaza por Tsunami", "Recomendaciones SENAPRED": "https://bibliogrd.senapred.gob.cl/bitstream/handle/2012/1711/06_diptico_tsunami_2023_SENAPRED.pdf", "Origen Data": "Visor Chile Preparado, Territorio y Amenazas - SENAPRED, disponible en https://www.visorchilepreparado.cl/" }, "geometry": { "type": "MultiLineString", "coordinates": [ [ [ -71.462682291, -29.245217715 ], [ -71.462416516, -29.245420365 ], [ -71.461672071999899, -29.245614615 ] ] ] } },
{ "type": "Feature", "properties": { "fid": 3, "name": "04104VE002", "nom_reg": "Coquimbo", "nom_prov": "Elqui", "nom_com": "La Higuera", "nombre_ve": "V HORNOS4", "sector": "Caleta Hornos", "tipo": "Vía de Evacuación", "Descripcion": "Via de evacuacion, Amenaza por Tsunami", "Recomendaciones SENAPRED": "https://bibliogrd.senapred.gob.cl/bitstream/handle/2012/1711/06_diptico_tsunami_2023_SENAPRED.pdf", "Origen Data": "Visor Chile Preparado, Territorio y Amenazas - SENAPRED, disponible en https://www.visorchilepreparado.cl/" }, "geometry": { "type": "MultiLineString", "coordinates": [ [ [ -71.286866733, -29.622768471 ], [ -71.286604766, -29.622662186 ], [ -71.2863582479999, -29.622537442999899 ], [ -71.286152526, -29.6224259429999 ], [ -71.28592816, -29.622313022 ], [ -71.285790232999901, -29.622227181 ], [ -71.285789807, -29.622226915999899 ] ] ] } },
{ "type": "Feature", "properties": { "fid": 4, "name": "04104VE019", "nom_reg": "Coquimbo", "nom_prov": "Elqui", "nom_com": "La Higuera", "nombre_ve": " ", "sector": "Punta de Choros", "tipo": "Vía de Evacuación", "Descripcion": "Via de evacuacion, Amenaza por Tsunami", "Recomendaciones SENAPRED": "https://bibliogrd.senapred.gob.cl/bitstream/handle/2012/1711/06_diptico_tsunami_2023_SENAPRED.pdf", "Origen Data": "Visor Chile Preparado, Territorio y Amenazas - SENAPRED, disponible en https://www.visorchilepreparado.cl/" }, "geometry": { "type": "MultiLineString", "coordinates": [ [ [ -71.462461, -29.248562 ], [ -71.462122952999906, -29.247299111 ], [ -71.4621222869999, -29.247296623 ] ] ] } },
{ "type": "Feature", "properties": { "fid": 5, "name": "04104VE015", "nom_reg": "Coquimbo", "nom_prov": "Elqui", "nom_com": "La Higuera", "nombre_ve": "V HORNOS7", "sector": "Caleta Hornos", "tipo": "Vía de Evacuación", "Descripcion": "Via de evacuacion, Amenaza por Tsunami", "Recomendaciones SENAPRED": "https://bibliogrd.senapred.gob.cl/bitstream/handle/2012/1711/06_diptico_tsunami_2023_SENAPRED.pdf", "Origen Data": "Visor Chile Preparado, Territorio y Amenazas - SENAPRED, disponible en https://www.visorchilepreparado.cl/" }, "geometry": { "type": "MultiLineString", "coordinates": [ [ [ -71.289223554, -29.623404282 ], [ -71.289387333, -29.623369915 ], [ -71.289541995, -29.623340522 ], [ -71.289695439, -29.623318466999901 ], [ -71.289856459, -29.6232929089999 ], [ -71.290044146, -29.623274708999901 ], [ -71.290156415999903, -29.623274667 ], [ -71.290314794, -29.623271019 ], [ -71.290341681, -29.623284741 ], [ -71.290384435, -29.6233065599999 ], [ -71.2904532109999, -29.623341658999902 ], [ -71.290524443, -29.623379784 ], [ -71.290614247, -29.623365528 ], [ -71.290754057, -29.623308596 ] ] ] } },
{ "type": "Feature", "properties": { "fid": 6, "name": "04104VE018", "nom_reg": "Coquimbo", "nom_prov": "Elqui", "nom_com": "La Higuera", "nombre_ve": " ", "sector": "Punta de Choros", "tipo": "Vía de Evacuación", "Descripcion": "Via de evacuacion, Amenaza por Tsunami", "Recomendaciones SENAPRED": "https://bibliogrd.senapred.gob.cl/bitstream/handle/2012/1711/06_diptico_tsunami_2023_SENAPRED.pdf", "Origen Data": "Visor Chile Preparado, Territorio y Amenazas - SENAPRED, disponible en https://www.visorchilepreparado.cl/" }, "geometry": { "type": "MultiLineString", "coordinates": [ [ [ -71.46199412, -29.243759225 ], [ -71.461118966999905, -29.2439406579999 ], [ -71.460339867999906, -29.244100747999902 ] ] ] } },
{ "type": "Feature", "properties": { "fid": 7, "name": "04104VE012", "nom_reg": "Coquimbo", "nom_prov": "Elqui", "nom_com": "La Higuera", "nombre_ve": "V HORNOS2", "sector": "Caleta Hornos", "tipo": "Vía de Evacuación", "Descripcion": "Via de evacuacion, Amenaza por Tsunami", "Recomendaciones SENAPRED": "https://bibliogrd.senapred.gob.cl/bitstream/handle/2012/1711/06_diptico_tsunami_2023_SENAPRED.pdf", "Origen Data": "Visor Chile Preparado, Territorio y Amenazas - SENAPRED, disponible en https://www.visorchilepreparado.cl/" }, "geometry": { "type": "MultiLineString", "coordinates": [ [ [ -71.285434514, -29.621324573 ], [ -71.285249827, -29.621387946 ], [ -71.285115522, -29.621437492 ], [ -71.285017365, -29.621481931999899 ], [ -71.284916424999906, -29.621543234999901 ], [ -71.284675988999894, -29.62168887 ], [ -71.284587901, -29.621747134 ], [ -71.284606703999899, -29.621766390999898 ], [ -71.285130019, -29.6223023269999 ] ] ] } },
{ "type": "Feature", "properties": { "fid": 8, "name": "04104VE005", "nom_reg": "Coquimbo", "nom_prov": "Elqui", "nom_com": "La Higuera", "nombre_ve": " ", "sector": "Punta de Choros", "tipo": "Vía de Evacuación", "Descripcion": "Via de evacuacion, Amenaza por Tsunami", "Recomendaciones SENAPRED": "https://bibliogrd.senapred.gob.cl/bitstream/handle/2012/1711/06_diptico_tsunami_2023_SENAPRED.pdf", "Origen Data": "Visor Chile Preparado, Territorio y Amenazas - SENAPRED, disponible en https://www.visorchilepreparado.cl/" }, "geometry": { "type": "MultiLineString", "coordinates": [ [ [ -71.463053416, -29.2470457209999 ], [ -71.462912998, -29.247123841 ], [ -71.462122952999906, -29.247299111 ], [ -71.461246984999903, -29.247487862 ] ] ] } },
{ "type": "Feature", "properties": { "fid": 9, "name": "04104VE013", "nom_reg": "Coquimbo", "nom_prov": "Elqui", "nom_com": "La Higuera", "nombre_ve": "V HORNOS3", "sector": "Caleta Hornos", "tipo": "Vía de Evacuación", "Descripcion": "Via de evacuacion, Amenaza por Tsunami", "Recomendaciones SENAPRED": "https://bibliogrd.senapred.gob.cl/bitstream/handle/2012/1711/06_diptico_tsunami_2023_SENAPRED.pdf", "Origen Data": "Visor Chile Preparado, Territorio y Amenazas - SENAPRED, disponible en https://www.visorchilepreparado.cl/" }, "geometry": { "type": "MultiLineString", "coordinates": [ [ [ -71.289166559, -29.6227709099999 ], [ -71.289086131, -29.622827508999901 ], [ -71.289048935, -29.622899568 ], [ -71.28890804, -29.622990645999899 ], [ -71.288857289, -29.623083854999901 ], [ -71.288838127, -29.623126972 ], [ -71.288758673, -29.623177088 ], [ -71.288655153, -29.623244921 ], [ -71.288556843, -29.623273041999902 ], [ -71.288438092, -29.623305827 ], [ -71.288355541, -29.623333628999902 ], [ -71.288323805999894, -29.623387422999901 ], [ -71.288398163, -29.623670828999899 ], [ -71.288407809, -29.623696304 ], [ -71.2884401109999, -29.623781613999899 ], [ -71.288468265999896, -29.623867016 ], [ -71.288472081999899, -29.623878589999901 ], [ -71.288494183, -29.623953602 ], [ -71.288518676, -29.624051627 ], [ -71.288543209999901, -29.62414015 ] ] ] } },
{ "type": "Feature", "properties": { "fid": 10, "name": "04104VE001", "nom_reg": "Coquimbo", "nom_prov": "Elqui", "nom_com": "La Higuera", "nombre_ve": "V HORNOS 5", "sector": "Caleta Hornos", "tipo": "Vía de Evacuación", "Descripcion": "Via de evacuacion, Amenaza por Tsunami", "Recomendaciones SENAPRED": "https://bibliogrd.senapred.gob.cl/bitstream/handle/2012/1711/06_diptico_tsunami_2023_SENAPRED.pdf", "Origen Data": "Visor Chile Preparado, Territorio y Amenazas - SENAPRED, disponible en https://www.visorchilepreparado.cl/" }, "geometry": { "type": "MultiLineString", "coordinates": [ [ [ -71.287772069, -29.622838378 ], [ -71.28747477, -29.622977665999901 ], [ -71.287250733999898, -29.623075248 ], [ -71.287199061, -29.623121442 ], [ -71.287207797, -29.623189532 ], [ -71.287284165, -29.623333467999899 ], [ -71.287344194, -29.623424115 ], [ -71.287388034999907, -29.623481371 ], [ -71.287458064, -29.62354118 ], [ -71.287558052, -29.623552797999899 ], [ -71.287664965, -29.623520506 ], [ -71.287770243999901, -29.6234830339999 ], [ -71.287860715, -29.623484157999901 ], [ -71.287962198999907, -29.623507184999902 ], [ -71.288059857, -29.623547071 ], [ -71.288137131, -29.623581823999899 ], [ -71.288265635999906, -29.623639569 ], [ -71.288398163, -29.623670828999899 ] ] ] } },
{ "type": "Feature", "properties": { "fid": 11, "name": "04104VE016", "nom_reg": "Coquimbo", "nom_prov": "Elqui", "nom_com": "La Higuera", "nombre_ve": "V HORNOS8", "sector": "Caleta Hornos", "tipo": "Vía de Evacuación", "Descripcion": "Via de evacuacion, Amenaza por Tsunami", "Recomendaciones SENAPRED": "https://bibliogrd.senapred.gob.cl/bitstream/handle/2012/1711/06_diptico_tsunami_2023_SENAPRED.pdf", "Origen Data": "Visor Chile Preparado, Territorio y Amenazas - SENAPRED, disponible en https://www.visorchilepreparado.cl/" }, "geometry": { "type": "MultiLineString", "coordinates": [ [ [ -71.285678705, -29.619269 ], [ -71.285394573, -29.619298348 ], [ -71.2852923519999, -29.619310701 ], [ -71.285144085999903, -29.619319944 ], [ -71.285036648999906, -29.619323027999901 ], [ -71.284922714999894, -29.619332110999899 ], [ -71.284813308, -29.619341107 ], [ -71.284701726, -29.619350020999899 ], [ -71.284580821, -29.619338078999899 ], [ -71.284467843, -29.619323291999901 ], [ -71.284328827, -29.6193115959999 ], [ -71.284214789, -29.619314636999899 ], [ -71.284088464, -29.619323462 ], [ -71.283963765, -29.619410188 ], [ -71.283849055, -29.619426468 ], [ -71.283739722, -29.6194543619999 ], [ -71.283605434, -29.61949362 ], [ -71.283590225999902, -29.619500864 ], [ -71.28351868, -29.619534944999899 ] ] ] } },
{ "type": "Feature", "properties": { "fid": 12, "name": "04104VE011", "nom_reg": "Coquimbo", "nom_prov": "Elqui", "nom_com": "La Higuera", "nombre_ve": "V HORNOS1", "sector": "Caleta Hornos", "tipo": "Vía de Evacuación", "Descripcion": "Via de evacuacion, Amenaza por Tsunami", "Recomendaciones SENAPRED": "https://bibliogrd.senapred.gob.cl/bitstream/handle/2012/1711/06_diptico_tsunami_2023_SENAPRED.pdf", "Origen Data": "Visor Chile Preparado, Territorio y Amenazas - SENAPRED, disponible en https://www.visorchilepreparado.cl/" }, "geometry": { "type": "MultiLineString", "coordinates": [ [ [ -71.285789807, -29.622226915999899 ], [ -71.285761261999895, -29.622236385999901 ], [ -71.285616875, -29.622286443 ], [ -71.285606011, -29.622291634 ], [ -71.285556708999906, -29.622315192 ], [ -71.285390268, -29.622432982 ] ], [ [ -71.286240231, -29.620759677 ], [ -71.286361149999905, -29.620949746999901 ], [ -71.286512430999906, -29.621372579 ], [ -71.286571795, -29.621497431 ], [ -71.286610094, -29.621608965 ], [ -71.286631158, -29.621690535 ], [ -71.286650307999906, -29.621793746 ], [ -71.286646478, -29.621870321 ], [ -71.286619668999904, -29.621945231 ], [ -71.286543069999894, -29.622010154 ], [ -71.286458974, -29.622032331 ], [ -71.286358488, -29.62205821 ], [ -71.2862425389999, -29.622092807999898 ], [ -71.286060709, -29.622143337 ], [ -71.285889062, -29.622194392 ], [ -71.285790232999901, -29.622227181 ], [ -71.28578112, -29.622230204999902 ] ] ] } },
{ "type": "Feature", "properties": { "fid": 13, "name": "04104VE007", "nom_reg": "Coquimbo", "nom_prov": "Elqui", "nom_com": "La Higuera", "nombre_ve": "V CHUNG2", "sector": "Chungungo", "tipo": "Vía de Evacuación", "Descripcion": "Via de evacuacion, Amenaza por Tsunami", "Recomendaciones SENAPRED": "https://bibliogrd.senapred.gob.cl/bitstream/handle/2012/1711/06_diptico_tsunami_2023_SENAPRED.pdf", "Origen Data": "Visor Chile Preparado, Territorio y Amenazas - SENAPRED, disponible en https://www.visorchilepreparado.cl/" }, "geometry": { "type": "MultiLineString", "coordinates": [ [ [ -71.304332185, -29.4465591599999 ], [ -71.304239800999895, -29.446510105 ], [ -71.304131643999895, -29.44646105 ], [ -71.303999722999905, -29.446409297999899 ], [ -71.303906317, -29.44635313 ], [ -71.303825199, -29.446345282 ], [ -71.303737322, -29.446427693 ], [ -71.303676482999904, -29.446482634999899 ], [ -71.303604825, -29.446512375999902 ], [ -71.303551466, -29.446527056 ], [ -71.303497717, -29.4465068219999 ], [ -71.303482701999897, -29.446480672 ], [ -71.303408343999905, -29.446419843999902 ], [ -71.303327226, -29.446390412 ], [ -71.303228082, -29.446396298 ], [ -71.303106194999899, -29.446469837999899 ], [ -71.303000364999903, -29.446470706 ], [ -71.302858546, -29.446484596999898 ], [ -71.302714511, -29.446524441 ], [ -71.302590661999901, -29.446555257999901 ], [ -71.3024816719999, -29.446594155 ], [ -71.302370896, -29.446684397 ], [ -71.302277987, -29.44681976 ], [ -71.302194011, -29.44692556 ], [ -71.302086808, -29.447040695999899 ], [ -71.302013552999895, -29.447130937999901 ] ] ] } },
{ "type": "Feature", "properties": { "fid": 14, "name": "04104VE003", "nom_reg": "Coquimbo", "nom_prov": "Elqui", "nom_com": "La Higuera", "nombre_ve": " ", "sector": "Punta de Choros", "tipo": "Vía de Evacuación", "Descripcion": "Via de evacuacion, Amenaza por Tsunami", "Recomendaciones SENAPRED": "https://bibliogrd.senapred.gob.cl/bitstream/handle/2012/1711/06_diptico_tsunami_2023_SENAPRED.pdf", "Origen Data": "Visor Chile Preparado, Territorio y Amenazas - SENAPRED, disponible en https://www.visorchilepreparado.cl/" }, "geometry": { "type": "MultiLineString", "coordinates": [ [ [ -71.462029206, -29.247009146 ], [ -71.461489051999905, -29.244930838999899 ], [ -71.461435714999894, -29.2448412439999 ], [ -71.461358391, -29.244381814 ], [ -71.461252453, -29.243933716 ] ] ] } },
{ "type": "Feature", "properties": { "fid": 15, "name": "04104VE008", "nom_reg": "Coquimbo", "nom_prov": "Elqui", "nom_com": "La Higuera", "nombre_ve": "V CHUNG3", "sector": "Chungungo", "tipo": "Vía de Evacuación", "Descripcion": "Via de evacuacion, Amenaza por Tsunami", "Recomendaciones SENAPRED": "https://bibliogrd.senapred.gob.cl/bitstream/handle/2012/1711/06_diptico_tsunami_2023_SENAPRED.pdf", "Origen Data": "Visor Chile Preparado, Territorio y Amenazas - SENAPRED, disponible en https://www.visorchilepreparado.cl/" }, "geometry": { "type": "MultiLineString", "coordinates": [ [ [ -71.302714511, -29.446524441 ], [ -71.302635471, -29.446504218 ], [ -71.30257914, -29.446474785 ], [ -71.302571602999905, -29.446414037 ], [ -71.302574514999904, -29.446230920999898 ], [ -71.302540503, -29.446098422 ], [ -71.302536548, -29.445981799 ], [ -71.302552100999904, -29.445854734 ], [ -71.302581393, -29.4457330769999 ], [ -71.302632091, -29.44566672 ], [ -71.302672958, -29.445570196999899 ], [ -71.302707244, -29.445490482 ], [ -71.30271004, -29.4454710699999 ], [ -71.302727843, -29.445347451 ], [ -71.302749489999897, -29.445199593 ], [ -71.302748285999897, -29.445062001999901 ], [ -71.302755616999903, -29.4448614689999 ], [ -71.302721369, -29.44469178 ], [ -71.302697823, -29.444550353 ], [ -71.302666441, -29.444456912 ], [ -71.302589959, -29.444413722 ], [ -71.302507659, -29.444413105 ], [ -71.302428907, -29.444446545999899 ], [ -71.302319606, -29.4444946049999 ], [ -71.302160031, -29.444563601 ], [ -71.302000049, -29.444612655999901 ], [ -71.301851332999902, -29.444634241 ], [ -71.301704871, -29.444642089 ] ] ] } },
{ "type": "Feature", "properties": { "fid": 16, "name": "04104VE006", "nom_reg": "Coquimbo", "nom_prov": "Elqui", "nom_com": "La Higuera", "nombre_ve": "V CHUNGU1", "sector": "Chungungo", "tipo": "Vía de Evacuación", "Descripcion": "Via de evacuacion, Amenaza por Tsunami", "Recomendaciones SENAPRED": "https://bibliogrd.senapred.gob.cl/bitstream/handle/2012/1711/06_diptico_tsunami_2023_SENAPRED.pdf", "Origen Data": "Visor Chile Preparado, Territorio y Amenazas - SENAPRED, disponible en https://www.visorchilepreparado.cl/" }, "geometry": { "type": "MultiLineString", "coordinates": [ [ [ -71.301747227, -29.448189052 ], [ -71.301787711, -29.448115189 ], [ -71.301863173, -29.448022862999899 ], [ -71.30197856, -29.44797082 ], [ -71.302115430999905, -29.447917102 ], [ -71.302269651999893, -29.447863384 ], [ -71.302458573, -29.447796234999899 ], [ -71.302489417999894, -29.447762661 ], [ -71.30245611, -29.4476524519999 ], [ -71.302435217, -29.447580587999902 ], [ -71.302385188999907, -29.447474787 ], [ -71.302315507999893, -29.447403216999898 ], [ -71.3022190249999, -29.447314532 ], [ -71.302133263, -29.447222734 ], [ -71.302068941999906, -29.447162055 ], [ -71.302013552999895, -29.447130937999901 ], [ -71.301866175, -29.447126447999899 ], [ -71.301792744999901, -29.447133917 ], [ -71.301625837, -29.447124714 ], [ -71.301479325999907, -29.447130937999901 ], [ -71.301386416999904, -29.447085817 ], [ -71.301272067999903, -29.44703136 ], [ -71.301031022, -29.446854668999901 ], [ -71.300989767, -29.446824428 ], [ -71.300964467, -29.446849755 ], [ -71.300915655, -29.446891524 ], [ -71.3008086789999, -29.447013915 ], [ -71.300716168, -29.4469647029999 ], [ -71.300653865, -29.446874216 ], [ -71.300478767, -29.446776195 ], [ -71.300334044, -29.446606602 ], [ -71.300132145, -29.446446345 ], [ -71.300064251, -29.446409004 ] ] ] } },
{ "type": "Feature", "properties": { "fid": 17, "name": "04104VE010", "nom_reg": "Coquimbo", "nom_prov": "Elqui", "nom_com": "La Higuera", "nombre_ve": "V CHUNG 5", "sector": "Chungungo", "tipo": "Vía de Evacuación", "Descripcion": "Via de evacuacion, Amenaza por Tsunami", "Recomendaciones SENAPRED": "https://bibliogrd.senapred.gob.cl/bitstream/handle/2012/1711/06_diptico_tsunami_2023_SENAPRED.pdf", "Origen Data": "Visor Chile Preparado, Territorio y Amenazas - SENAPRED, disponible en https://www.visorchilepreparado.cl/" }, "geometry": { "type": "MultiLineString", "coordinates": [ [ [ -71.31380603, -29.452430413999899 ], [ -71.313734751, -29.452493783 ], [ -71.313651504999896, -29.452540500999898 ], [ -71.313567468, -29.452556928 ], [ -71.313414195999897, -29.45251531 ], [ -71.313255978, -29.452411265 ], [ -71.313035393999897, -29.452170549 ], [ -71.312912752, -29.4520389199999 ], [ -71.312858559999896, -29.451875005 ], [ -71.312800091, -29.451688737 ], [ -71.312728787, -29.4516030529999 ], [ -71.312602341999906, -29.451565386 ], [ -71.312393907999905, -29.451610014 ], [ -71.312187827999907, -29.451702811 ], [ -71.311956289, -29.451802562999902 ], [ -71.311871788, -29.451857328 ], [ -71.311811343, -29.451964414 ], [ -71.311374945, -29.45211001 ], [ -71.311231961, -29.452160408999902 ], [ -71.311090699, -29.452168065 ], [ -71.310916181, -29.452213007 ], [ -71.310849666, -29.4522544709999 ], [ -71.310776413, -29.452300135 ], [ -71.310691275, -29.452432809999902 ], [ -71.310598770999903, -29.452576966 ] ] ] } },
{ "type": "Feature", "properties": { "fid": 18, "name": "04104VE009", "nom_reg": "Coquimbo", "nom_prov": "Elqui", "nom_com": "La Higuera", "nombre_ve": "V CHUNG4", "sector": "Chungungo", "tipo": "Vía de Evacuación", "Descripcion": "Via de evacuacion, Amenaza por Tsunami", "Recomendaciones SENAPRED": "https://bibliogrd.senapred.gob.cl/bitstream/handle/2012/1711/06_diptico_tsunami_2023_SENAPRED.pdf", "Origen Data": "Visor Chile Preparado, Territorio y Amenazas - SENAPRED, disponible en https://www.visorchilepreparado.cl/" }, "geometry": { "type": "MultiLineString", "coordinates": [ [ [ -71.302731319, -29.450825654 ], [ -71.302485761999904, -29.450689404999899 ], [ -71.302273525, -29.450633577 ], [ -71.302067881, -29.450634652 ], [ -71.301823578, -29.4506454089999 ], [ -71.301634145, -29.450613492999899 ], [ -71.301415734, -29.450514219 ], [ -71.301201286, -29.450402561 ], [ -71.300962518999896, -29.4503120809999 ], [ -71.300779023, -29.4502658769999 ], [ -71.300653433, -29.450260682 ], [ -71.30037915, -29.4502571149999 ], [ -71.300173264, -29.450235076 ], [ -71.300024412, -29.4502549279999 ], [ -71.299402137999905, -29.450274527 ], [ -71.299098517999894, -29.450289218 ], [ -71.298536892999905, -29.450292578 ] ] ] } },
{ "type": "Feature", "properties": { "fid": 19, "name": "04104VE017", "nom_reg": "Coquimbo", "nom_prov": "Elqui", "nom_com": "La Higuera", "nombre_ve": " ", "sector": "Punta de Choros", "tipo": "Vía de Evacuación", "Descripcion": "Via de evacuacion, Amenaza por Tsunami", "Recomendaciones SENAPRED": "https://bibliogrd.senapred.gob.cl/bitstream/handle/2012/1711/06_diptico_tsunami_2023_SENAPRED.pdf", "Origen Data": "Visor Chile Preparado, Territorio y Amenazas - SENAPRED, disponible en https://www.visorchilepreparado.cl/" }, "geometry": { "type": "MultiLineString", "coordinates": [ [ [ -71.462314297, -29.24963982 ], [ -71.462154208, -29.249287624 ], [ -71.461962102, -29.248999464999901 ], [ -71.461759323, -29.248839376 ], [ -71.461577888, -29.248753995999898 ], [ -71.461439145, -29.248359109 ], [ -71.45989632, -29.242520328 ], [ -71.459436286, -29.242645792 ], [ -71.459045954, -29.242603970999902 ], [ -71.458870361, -29.241316288999901 ], [ -71.458836847, -29.241070523 ] ] ] } }
]
}
