{
"type": "FeatureCollection",
"name": "toponimia",
"crs": { "type": "name", "properties": { "name": "urn:ogc:def:crs:OGC:1.3:CRS84" } },
"features": [
{ "type": "Feature", "properties": { "fid": 1, "Nombre": "Chungungo", "Tipo": "Localidad" }, "geometry": { "type": "Point", "coordinates": [ -71.30061548328564, -29.447412852552478 ] } },
{ "type": "Feature", "properties": { "fid": 2, "Nombre": "Totoralillo", "Tipo": "Localidad" }, "geometry": { "type": "Point", "coordinates": [ -71.303238753006582, -29.515888696390245 ] } },
{ "type": "Feature", "properties": { "fid": 3, "Nombre": "Yerbas Buenas", "Tipo": "Localidad" }, "geometry": { "type": "Point", "coordinates": [ -71.300063014244628, -29.573723360296452 ] } },
{ "type": "Feature", "properties": { "fid": 4, "Nombre": "Caleta Hornos", "Tipo": "Localidad" }, "geometry": { "type": "Point", "coordinates": [ -71.285915738508308, -29.6231261948612 ] } },
{ "type": "Feature", "properties": { "fid": 5, "Nombre": "Punta de Choros", "Tipo": "Localidad" }, "geometry": { "type": "Point", "coordinates": [ -71.461248319722657, -29.245323704263956 ] } },
{ "type": "Feature", "properties": { "fid": 6, "Nombre": "Punta Colorada", "Tipo": "Localidad" }, "geometry": { "type": "Point", "coordinates": [ -71.016759732008083, -29.353705175390434 ] } },
{ "type": "Feature", "properties": { "fid": 7, "Nombre": "La Higuera", "Tipo": "Localidad" }, "geometry": { "type": "Point", "coordinates": [ -71.20135893342065, -29.511723575872193 ] } },
{ "type": "Feature", "properties": { "fid": 8, "Nombre": "Los Choros", "Tipo": "Localidad" }, "geometry": { "type": "Point", "coordinates": [ -71.309199336399274, -29.290742510507126 ] } },
{ "type": "Feature", "properties": { "fid": 9, "Nombre": "El Trapinche", "Tipo": "Localidad" }, "geometry": { "type": "Point", "coordinates": [ -71.114644481065497, -29.374791374068405 ] } },
{ "type": "Feature", "properties": { "fid": 10, "Nombre": "Los Morros", "Tipo": "Localidad" }, "geometry": { "type": "Point", "coordinates": [ -70.743175800460691, -29.384632189035813 ] } },
{ "type": "Feature", "properties": { "fid": 11, "Nombre": "Observatorio La Silla", "Tipo": "Localidad" }, "geometry": { "type": "Point", "coordinates": [ -70.73892013384453, -29.256047895799444 ] } },
{ "type": "Feature", "properties": { "fid": 12, "Nombre": "Totoralillo Norte", "Tipo": "Localidad" }, "geometry": { "type": "Point", "coordinates": [ -71.326948580091667, -29.493826366604917 ] } },
{ "type": "Feature", "properties": { "fid": 13, "Nombre": "Los Pajaritos", "Tipo": "Localidad" }, "geometry": { "type": "Point", "coordinates": [ -70.770059157855499, -29.45919910935595 ] } },
{ "type": "Feature", "properties": { "fid": 14, "Nombre": "Tres Cruces", "Tipo": "Localidad" }, "geometry": { "type": "Point", "coordinates": [ -70.934123873390334, -29.373513705044928 ] } },
{ "type": "Feature", "properties": { "fid": 15, "Nombre": "Agua Grande", "Tipo": "Localidad" }, "geometry": { "type": "Point", "coordinates": [ -71.064215500208974, -29.498310211881879 ] } },
{ "type": "Feature", "properties": { "fid": 16, "Nombre": "Telescopio Gigante de Magallanes", "Tipo": "Localidad" }, "geometry": { "type": "Point", "coordinates": [ -70.682252902760027, -29.048730851174035 ] } },
{ "type": "Feature", "properties": { "fid": 17, "Nombre": "Isla Gaviota", "Tipo": "Natural" }, "geometry": { "type": "Point", "coordinates": [ -71.479617481623137, -29.260856868422195 ] } },
{ "type": "Feature", "properties": { "fid": 18, "Nombre": "Isla Choros", "Tipo": "Natural" }, "geometry": { "type": "Point", "coordinates": [ -71.541925366149073, -29.267192156471481 ] } },
{ "type": "Feature", "properties": { "fid": 19, "Nombre": "Islotes Pajaros", "Tipo": "Natural" }, "geometry": { "type": "Point", "coordinates": [ -71.535949295463368, -29.585148507460531 ] } },
{ "type": "Feature", "properties": { "fid": 20, "Nombre": "Isla Chañaral", "Tipo": "Natural" }, "geometry": { "type": "Point", "coordinates": [ -71.578075695378701, -29.032672202213963 ] } },
{ "type": "Feature", "properties": { "fid": 21, "Nombre": "Los Hornos", "Tipo": "Localidad" }, "geometry": { "type": "Point", "coordinates": [ -71.262160352137371, -29.630050677912941 ] } },
{ "type": "Feature", "properties": { "fid": 22, "Nombre": "Mina El Tofo", "Tipo": "Natural" }, "geometry": { "type": "Point", "coordinates": [ -71.235284362113859, -29.449494968508258 ] } },
{ "type": "Feature", "properties": { "fid": 23, "Nombre": "Punta Hornos", "Tipo": "Natural" }, "geometry": { "type": "Point", "coordinates": [ -71.318655446597475, -29.646639988887337 ] } },
{ "type": "Feature", "properties": { "fid": 24, "Nombre": "Punta Molle", "Tipo": "Natural" }, "geometry": { "type": "Point", "coordinates": [ -71.316108268928161, -29.642068131532184 ] } },
{ "type": "Feature", "properties": { "fid": 25, "Nombre": "Punta La Calavera", "Tipo": "Natural" }, "geometry": { "type": "Point", "coordinates": [ -71.332044457423294, -29.554615031552867 ] } },
{ "type": "Feature", "properties": { "fid": 26, "Nombre": "Punta Totoralillo", "Tipo": "Natural" }, "geometry": { "type": "Point", "coordinates": [ -71.334656947340548, -29.490249811217076 ] } },
{ "type": "Feature", "properties": { "fid": 27, "Nombre": "Punta Collao", "Tipo": "Natural" }, "geometry": { "type": "Point", "coordinates": [ -71.316826703655465, -29.464190224292693 ] } },
{ "type": "Feature", "properties": { "fid": 28, "Nombre": "Punta Mostacilla", "Tipo": "Natural" }, "geometry": { "type": "Point", "coordinates": [ -71.315520458696852, -29.450213403235502 ] } },
{ "type": "Feature", "properties": { "fid": 29, "Nombre": "Punta Barrancones", "Tipo": "Natural" }, "geometry": { "type": "Point", "coordinates": [ -71.324370268291489, -29.419483990584066 ] } },
{ "type": "Feature", "properties": { "fid": 30, "Nombre": "Punta Chungungo", "Tipo": "Natural" }, "geometry": { "type": "Point", "coordinates": [ -71.33798787198505, -29.400347501940342 ] } },
{ "type": "Feature", "properties": { "fid": 31, "Nombre": "Isla Chungungo", "Tipo": "Natural" }, "geometry": { "type": "Point", "coordinates": [ -71.357222329000692, -29.41213636269185 ] } },
{ "type": "Feature", "properties": { "fid": 32, "Nombre": "Punta Mar Brava", "Tipo": "Natural" }, "geometry": { "type": "Point", "coordinates": [ -71.335554990749586, -29.358449694892741 ] } },
{ "type": "Feature", "properties": { "fid": 33, "Nombre": "Caleta El Apolillado", "Tipo": "Localidad" }, "geometry": { "type": "Point", "coordinates": [ -71.494492346089217, -29.187086684384326 ] } },
{ "type": "Feature", "properties": { "fid": 34, "Nombre": "Isla Damas", "Tipo": "Natural" }, "geometry": { "type": "Point", "coordinates": [ -71.526136130211611, -29.235140170799429 ] } },
{ "type": "Feature", "properties": { "fid": 35, "Nombre": "Cerro Las Campanas", "Tipo": "Natural" }, "geometry": { "type": "Point", "coordinates": [ -70.682938681363083, -29.048330813655397 ] } },
{ "type": "Feature", "properties": { "fid": 36, "Nombre": "Los Corrales", "Tipo": "Localidad" }, "geometry": { "type": "Point", "coordinates": [ -70.635611793706005, -29.463537101813404 ] } },
{ "type": "Feature", "properties": { "fid": 37, "Nombre": "Junta de Chincoles", "Tipo": "Localidad" }, "geometry": { "type": "Point", "coordinates": [ -70.7802865869036, -29.449127587113683 ] } },
{ "type": "Feature", "properties": { "fid": 38, "Nombre": "Gualcuna", "Tipo": "Localidad" }, "geometry": { "type": "Point", "coordinates": [ -70.960336126386807, -29.555039561164445 ] } },
{ "type": "Feature", "properties": { "fid": 39, "Nombre": "Piritas", "Tipo": "Localidad" }, "geometry": { "type": "Point", "coordinates": [ -70.958311446700975, -29.48204496007078 ] } },
{ "type": "Feature", "properties": { "fid": 40, "Nombre": "El Maray", "Tipo": "Localidad" }, "geometry": { "type": "Point", "coordinates": [ -71.184878417141277, -29.583974373233954 ] } }
]
}
