{
"type": "FeatureCollection",
"name": "turismo_snaspe",
"crs": { "type": "name", "properties": { "name": "urn:ogc:def:crs:OGC:1.3:CRS84" } },
"features": [
{ "type": "Feature", "properties": { "fid": 61, "SUPERFICIE": "859,3", "NOMBRE_TOT": "Reserva Nacional Pinguino De Humbolt", "ID_CATASTR": "1345955", "CATEGORIA": "Reserva Nacional", "NOMBRE_UNI": "Pinguino De Humbolt", "REGION": "Coquimbo - Atacama", "CONDICION": "Bi-Regional", "DECRETO_VI": "N4 030190 MM", "TIPO_DE_PR": "Fiscal", "NUM_PLANO": "No menciona Plano", "TERRITORIO": "Continente", "Descripcion": "Información cartográfica de los bienes fiscales pertenecientes al Sistema Nacional de Áreas Protegidas (SNAP; antiguamente SNASPE). Incluye las unidades con categoría de Monumento Natural, Parque Nacional y Reserva Nacional. Esta información es solo referencial, para más detalles consultar el decreto y plano oficial de cada área, Revisión a enero de 2025.", "Origen Dato": "Portal de Datos Geoespaciales IDE Bienes Nacionales, disponible en: https://idembn.bienes.cl/idembn/catalog/8/SNAP%20%28antiguo%20SNASPE%29" }, "geometry": { "type": "MultiPolygon", "coordinates": [ [ [ [ -71.527795405690654, -29.229051961816602 ], [ -71.527767772073958, -29.229149116750506 ], [ -71.527732073288234, -29.229224466984878 ], [ -71.52767405224553, -29.229309032990734 ], [ -71.527608130908391, -29.229378379215682 ], [ -71.527567312778785, -29.229449437474226 ], [ -71.527552422376885, -29.229555129797589 ], [ -71.52758563583231, -29.229628270416711 ], [ -71.527636454268361, -29.229694962790891 ], [ -71.527655965407504, -29.229773026345438 ], [ -71.527661711395325, -29.2298621221879 ], [ -71.527662358454094, -29.22995812802781 ], [ -71.527656517824369, -29.23007513301334 ], [ -71.527647361728313, -29.230199891118382 ], [ -71.527649638103085, -29.230290591549121 ], [ -71.527648193014755, -29.230372901519068 ], [ -71.527695928293682, -29.230456571994132 ], [ -71.527796524547952, -29.230548450644999 ], [ -71.52787560749573, -29.230622288025298 ], [ -71.52793994436216, -29.230661934852403 ], [ -71.528002426821672, -29.230703793490182 ], [ -71.528046151542853, -29.230767547253897 ], [ -71.52805849206139, -29.230839596689052 ], [ -71.528057142907855, -29.230925753202111 ], [ -71.528095836408824, -29.230998832410094 ], [ -71.528161078037584, -29.231080627201983 ], [ -71.528240160619831, -29.231154463438237 ], [ -71.528353352246455, -29.231246910774967 ], [ -71.528449476981422, -29.23130042401306 ], [ -71.52852404820807, -29.231334358783382 ], [ -71.528562086298166, -29.231381303680759 ], [ -71.528586012792857, -29.231425444741706 ], [ -71.52854853499251, -29.231470771669127 ], [ -71.528520331589917, -29.231535914659311 ], [ -71.528434189233238, -29.231666229026683 ], [ -71.528388711858469, -29.23174247163918 ], [ -71.528348497679559, -29.2318186119826 ], [ -71.528312178119819, -29.231910057702638 ], [ -71.528280813266562, -29.231989103214563 ], [ -71.528184612814698, -29.232072477313093 ], [ -71.528087056267807, -29.232184577399803 ], [ -71.528005044830479, -29.232273829058009 ], [ -71.527893248065965, -29.232365194661874 ], [ -71.527808903432302, -29.232431420853707 ], [ -71.527695677411145, -29.232465905966425 ], [ -71.527587832073152, -29.232504900794545 ], [ -71.527462518519528, -29.232547309216073 ], [ -71.527191521975865, -29.232594665788913 ], [ -71.526987425715063, -29.232629046022865 ], [ -71.526789509357116, -29.232632865849915 ], [ -71.526609108349859, -29.232642435396496 ], [ -71.526417525715601, -29.232621780867607 ], [ -71.526253340637467, -29.232585376261024 ], [ -71.526109530284685, -29.232530315204805 ], [ -71.526029517127824, -29.232525771430687 ], [ -71.525915468414908, -29.232549279376041 ], [ -71.525747542741982, -29.232640795470822 ], [ -71.525537899896008, -29.23281030791706 ], [ -71.52541557032427, -29.232919208089939 ], [ -71.525271643510649, -29.232998084598581 ], [ -71.525185830140444, -29.233039311701095 ], [ -71.525082044854088, -29.233056534070585 ], [ -71.524953648534208, -29.233062054573004 ], [ -71.524797627099503, -29.233074194966544 ], [ -71.524752946141192, -29.233093320941737 ], [ -71.524715819221342, -29.233136653818157 ], [ -71.524672433735205, -29.233207502695475 ], [ -71.524705896370321, -29.233295133435167 ], [ -71.524739663016703, -29.23339493502117 ], [ -71.524759922090652, -29.233510216536544 ], [ -71.524758662039801, -29.23359851752754 ], [ -71.524728785091298, -29.2336538855632 ], [ -71.524660941834796, -29.233719118920632 ], [ -71.524533459439567, -29.233761148887332 ], [ -71.524444020076132, -29.233796358435605 ], [ -71.524351076807818, -29.233870374959373 ], [ -71.524298799595272, -29.234002275563135 ], [ -71.524322683427556, -29.23412357519533 ], [ -71.524374498713939, -29.234250424798208 ], [ -71.524457945343798, -29.234391884652421 ], [ -71.524509530700726, -29.234509606529983 ], [ -71.524512428735775, -29.234625223176572 ], [ -71.524499262205794, -29.234792897833845 ], [ -71.524443131502963, -29.234909652776832 ], [ -71.524425393948292, -29.235033579623678 ], [ -71.524445882366933, -29.235157988831954 ], [ -71.524490600648306, -29.235278887691916 ], [ -71.524541882616745, -29.235384438656197 ], [ -71.524644486045844, -29.235458560709002 ], [ -71.524700958416247, -29.235493999482333 ], [ -71.52473403921033, -29.235566417978166 ], [ -71.524736251907768, -29.235654651548977 ], [ -71.524720720564261, -29.235728008105283 ], [ -71.524646769865356, -29.235826842048656 ], [ -71.524547903476559, -29.235901805986817 ], [ -71.52439626064681, -29.23596080346017 ], [ -71.524295944936199, -29.235977958008263 ], [ -71.524206502558627, -29.2360131666263 ], [ -71.524141825265161, -29.236066162489347 ], [ -71.524091723150121, -29.236146272765371 ], [ -71.524083669759008, -29.236240793039439 ], [ -71.524103545354038, -29.236351343111959 ], [ -71.524129850320762, -29.236433027123567 ], [ -71.524159237229867, -29.236517578448638 ], [ -71.524183513827012, -29.236602228076862 ], [ -71.524189127809208, -29.236690224227061 ], [ -71.524187479030317, -29.236760440849142 ], [ -71.524165571759795, -29.236840684445323 ], [ -71.524092079455215, -29.236900340116229 ], [ -71.523994403751871, -29.236947022803751 ], [ -71.523903877683097, -29.237007006352378 ], [ -71.523821905459712, -29.237068318601743 ], [ -71.523763707316846, -29.237126186015399 ], [ -71.523726808788084, -29.237207851073748 ], [ -71.523746135832454, -29.237309005314486 ], [ -71.523748716232177, -29.237411954310343 ], [ -71.523725898119707, -29.237506564814115 ], [ -71.523700193221558, -29.237610030748392 ], [ -71.523668125346802, -29.237685696704716 ], [ -71.523588338428212, -29.237742873823947 ], [ -71.523528063493913, -29.237812613261315 ], [ -71.523407832937139, -29.237914110161473 ], [ -71.523267853158444, -29.237985386748125 ], [ -71.523150337827602, -29.238069168974842 ], [ -71.523031086985739, -29.238142633123562 ], [ -71.522939036554078, -29.238181930735408 ], [ -71.522739647535545, -29.238268333377896 ], [ -71.52259497621786, -29.238298425674131 ], [ -71.522424723786173, -29.238385441658732 ], [ -71.522245117207049, -29.238430770003472 ], [ -71.522006110885656, -29.238510007756837 ], [ -71.521713071184976, -29.238588466676372 ], [ -71.521465872401819, -29.238644959939524 ], [ -71.521292038424164, -29.23867197275742 ], [ -71.521145199080678, -29.238698465327914 ], [ -71.521045526784434, -29.238700384207792 ], [ -71.520903594837151, -29.23867399277572 ], [ -71.520780580199002, -29.238656338523626 ], [ -71.520655717089937, -29.238647821256215 ], [ -71.520545479933602, -29.238642662628308 ], [ -71.520433074837172, -29.238633904797457 ], [ -71.520346225607028, -29.238650139509549 ], [ -71.520243766736812, -29.238706721973305 ], [ -71.52021471439879, -29.238791016716892 ], [ -71.520201378809588, -29.238878987068585 ], [ -71.520195304737015, -29.238968299947803 ], [ -71.520208100255942, -29.239064530691792 ], [ -71.520245496655946, -29.23914754539074 ], [ -71.520310068498119, -29.239237318596675 ], [ -71.52034995034947, -29.239336667714564 ], [ -71.52040923320321, -29.239419879455269 ], [ -71.520442255395167, -29.239507295850036 ], [ -71.520461479561817, -29.239590976116876 ], [ -71.520468065287815, -29.239675385465244 ], [ -71.520410287296727, -29.239739534893204 ], [ -71.520340304916829, -29.239817928643493 ], [ -71.520204571475873, -29.239961589112891 ], [ -71.520140187250789, -29.2400417039693 ], [ -71.520119690810603, -29.240121958315033 ], [ -71.520102325138765, -29.240193940861158 ], [ -71.520100431223355, -29.240253133008288 ], [ -71.520130744247595, -29.240340297447748 ], [ -71.520231952518245, -29.240438226766432 ], [ -71.520295424856656, -29.240536020531565 ], [ -71.520330995086297, -29.240602666631151 ], [ -71.520284991473773, -29.240660981989485 ], [ -71.520222382111456, -29.240687932154142 ], [ -71.520070300557052, -29.240752250350063 ], [ -71.51999125248237, -29.240844866977088 ], [ -71.519939263171409, -29.240934982427799 ], [ -71.519908462925329, -29.241022691164634 ], [ -71.519905264831991, -29.241122634328359 ], [ -71.519949391702184, -29.241291582073984 ], [ -71.519980001155872, -29.241375891190764 ], [ -71.520069829875965, -29.241548953153252 ], [ -71.520217379104281, -29.241750868355375 ], [ -71.520382019906336, -29.241952453825085 ], [ -71.520418826416687, -29.242056619442184 ], [ -71.520501709268061, -29.242179875133548 ], [ -71.520573073482581, -29.24229835756563 ], [ -71.520639241055264, -29.24243691597087 ], [ -71.520709981297841, -29.242530440730185 ], [ -71.520808331800623, -29.242588474580753 ], [ -71.520945561446325, -29.242605808141981 ], [ -71.521105080990154, -29.242602735857563 ], [ -71.521298907138217, -29.242603995781177 ], [ -71.521441335566792, -29.242601252748297 ], [ -71.521524291758823, -29.242499773244045 ], [ -71.521662342883118, -29.242322322670788 ], [ -71.521800143496392, -29.24213488860045 ], [ -71.521929426467025, -29.242062480953585 ], [ -71.522023526035071, -29.241950799186416 ], [ -71.522134090631553, -29.241813829179783 ], [ -71.522170469125726, -29.241673295772635 ], [ -71.522165467632959, -29.241473630038644 ], [ -71.522151197049908, -29.241359042554429 ], [ -71.52207450978473, -29.241255645403594 ], [ -71.52199882288194, -29.241192180811392 ], [ -71.52191643931404, -29.241088893753972 ], [ -71.521845449079251, -29.240985386241736 ], [ -71.521814089212853, -29.240871128373882 ], [ -71.521787674871945, -29.240726810175751 ], [ -71.521870629336462, -29.240625330542716 ], [ -71.521949387357125, -29.240583861346678 ], [ -71.522069149076188, -29.240586547643154 ], [ -71.522122172719619, -29.240655442068999 ], [ -71.522186590639791, -29.240724117832954 ], [ -71.52233064032923, -29.240786264186653 ], [ -71.522433437074653, -29.240794271586093 ], [ -71.522565718175372, -29.24084166305936 ], [ -71.522679574139133, -29.240883917388143 ], [ -71.522805462639084, -29.240850109119421 ], [ -71.522909925865392, -29.240840853603849 ], [ -71.523019413499497, -29.240812189113363 ], [ -71.523126751374207, -29.24080770632024 ], [ -71.523382549088367, -29.240755622029159 ], [ -71.523670443926036, -29.240652548690619 ], [ -71.523844374034198, -29.240551671120297 ], [ -71.524273934557328, -29.240316229426497 ], [ -71.524476876644158, -29.240181491147677 ], [ -71.52469863250009, -29.240039254330512 ], [ -71.524861826045139, -29.239943340529226 ], [ -71.525021092658633, -29.239831151913013 ], [ -71.52517890256803, -29.239727718490325 ], [ -71.525345437235572, -29.239667619451993 ], [ -71.525416539614952, -29.239609360469437 ], [ -71.525466457702152, -29.239467852434128 ], [ -71.525500100420757, -29.239286502922418 ], [ -71.52553168724863, -29.239175466083815 ], [ -71.525581601027923, -29.23905004169097 ], [ -71.525681142465572, -29.23896608914022 ], [ -71.525852225348885, -29.23885497535262 ], [ -71.526068464174472, -29.238731270659002 ], [ -71.526244481957434, -29.238603653877448 ], [ -71.526556967110622, -29.238191723305594 ], [ -71.526723553094456, -29.237706569803656 ], [ -71.526862952099194, -29.237233989422695 ], [ -71.526919886232022, -29.236763000468464 ], [ -71.526924565245011, -29.236401456525439 ], [ -71.527023334221568, -29.235953757340624 ], [ -71.52719746979497, -29.235769669171631 ], [ -71.527606456123252, -29.23562924003954 ], [ -71.52805516085391, -29.235427800740535 ], [ -71.528325195340457, -29.235229811017785 ], [ -71.528555857642914, -29.234981837673725 ], [ -71.528715736707269, -29.23473446155165 ], [ -71.528859523222678, -29.23455496530967 ], [ -71.528992234219004, -29.234406868669467 ], [ -71.529131787283234, -29.234295022433539 ], [ -71.529261438779301, -29.234261332121292 ], [ -71.529387118547419, -29.234305682832986 ], [ -71.52949103838769, -29.234379756308979 ], [ -71.529553845111607, -29.234447386415265 ], [ -71.529593895783066, -29.23453585449543 ], [ -71.529579900662, -29.234673813509822 ], [ -71.529536116964763, -29.234784299823783 ], [ -71.529425694216812, -29.234906273421952 ], [ -71.52925924054837, -29.234998731336685 ], [ -71.529142294751125, -29.235092782695936 ], [ -71.52904848944948, -29.235181287519055 ], [ -71.528931607974783, -29.235277886832193 ], [ -71.528866568497563, -29.235353087048349 ], [ -71.528791467173079, -29.23543791178308 ], [ -71.528750912685382, -29.235555290188945 ], [ -71.52877168618221, -29.235669242253881 ], [ -71.528789508993782, -29.235767555361125 ], [ -71.528852131524687, -29.23581567407717 ], [ -71.52893043837426, -29.235876943648421 ], [ -71.529062433471623, -29.235926872770417 ], [ -71.529195772015058, -29.235937750495378 ], [ -71.529420961920295, -29.235937884240272 ], [ -71.529594267218229, -29.235909870672209 ], [ -71.529739830651508, -29.235898089336128 ], [ -71.530011583169596, -29.235879829218742 ], [ -71.530232051662423, -29.235895748440186 ], [ -71.530519020906013, -29.235910381243446 ], [ -71.530708797874098, -29.23592689335419 ], [ -71.530999820568226, -29.235888333537829 ], [ -71.531171426249074, -29.235840853909284 ], [ -71.531338244773181, -29.235746151315084 ], [ -71.531520834649086, -29.235562819670871 ], [ -71.5316715163857, -29.235399031779124 ], [ -71.5317214006119, -29.235330883997023 ], [ -71.531789827518821, -29.235282404405385 ], [ -71.531831058190889, -29.235278226117153 ], [ -71.531876107424097, -29.235278715124579 ], [ -71.531905175654728, -29.235323059378455 ], [ -71.531961042154961, -29.235383214102125 ], [ -71.532017914872341, -29.235421576625097 ], [ -71.532083280178881, -29.23542711676793 ], [ -71.532129505138883, -29.235412614850802 ], [ -71.532156043560406, -29.235356309031481 ], [ -71.532208935576861, -29.23529813366055 ], [ -71.532280981292686, -29.235196227796504 ], [ -71.532350973462812, -29.235126542356799 ], [ -71.532437653449151, -29.235100266452683 ], [ -71.532509431845867, -29.235101611904433 ], [ -71.532546570037667, -29.235089960353093 ], [ -71.532598542471263, -29.235047956186161 ], [ -71.532644072965098, -29.234997876669475 ], [ -71.532686416123866, -29.234945125970867 ], [ -71.532685042611561, -29.234890487384838 ], [ -71.532667805052995, -29.234825223141925 ], [ -71.532573657986845, -29.234694545186503 ], [ -71.532544710325226, -29.234585985439278 ], [ -71.532536042156423, -29.234501920498552 ], [ -71.532547316322109, -29.234428955146075 ], [ -71.53257649278963, -29.23437287441498 ], [ -71.532625804136217, -29.234335546643031 ], [ -71.532692921439406, -29.234311275867235 ], [ -71.532772111885819, -29.23433271668744 ], [ -71.532891668667105, -29.234395492698912 ], [ -71.532985067804503, -29.234460688469536 ], [ -71.533107227387532, -29.234508534798426 ], [ -71.533236863698335, -29.234530265123595 ], [ -71.533350125273799, -29.234511914108133 ], [ -71.533441407434893, -29.234475136506955 ], [ -71.533492346391043, -29.234422980419314 ], [ -71.53347741661436, -29.23431823451471 ], [ -71.533446450934576, -29.23418686754108 ], [ -71.533391990533289, -29.234099045520455 ], [ -71.533281920501679, -29.233954560090897 ], [ -71.533278206767505, -29.233806897026593 ], [ -71.533278567584603, -29.23367228771879 ], [ -71.53327905703766, -29.233473009770961 ], [ -71.533130858015539, -29.233299428734163 ], [ -71.53280098174416, -29.233146167489654 ], [ -71.532693443354887, -29.233064224897021 ], [ -71.53250986413903, -29.233008960078227 ], [ -71.532326708987426, -29.232970491307299 ], [ -71.532192740227259, -29.232981484612154 ], [ -71.532012329869247, -29.233052192550819 ], [ -71.531864048330334, -29.233256714740527 ], [ -71.531706393087845, -29.23346982100762 ], [ -71.531586019044909, -29.233640193932171 ], [ -71.531378753580725, -29.23378704098015 ], [ -71.531180648877779, -29.233916905397798 ], [ -71.53104752297871, -29.233961490346136 ], [ -71.53082045342984, -29.234083512267372 ], [ -71.530584221815687, -29.234222515239754 ], [ -71.530423608575362, -29.234318044765633 ], [ -71.530357151102066, -29.234344536437316 ], [ -71.530184210468477, -29.234331074354966 ], [ -71.530078993931028, -29.234341509635662 ], [ -71.530048552578862, -29.234274879236047 ], [ -71.530036436527098, -29.234174286040542 ], [ -71.530032314247862, -29.234105224262265 ], [ -71.529987546049469, -29.234028140828293 ], [ -71.529930113347305, -29.233971511380247 ], [ -71.529876408574353, -29.233932130805599 ], [ -71.52981999037894, -29.233915898984446 ], [ -71.529770592772834, -29.233916853727614 ], [ -71.529705237842634, -29.233938325657402 ], [ -71.529662572707949, -29.233944923694438 ], [ -71.529606661697883, -29.233948891076668 ], [ -71.529566490974929, -29.233923684271872 ], [ -71.52951615211316, -29.233887126574846 ], [ -71.529501167767251, -29.23381524105482 ], [ -71.529498704084162, -29.233717130833838 ], [ -71.529556314219036, -29.233649617035656 ], [ -71.529610919625611, -29.233593708790703 ], [ -71.529756531146404, -29.233362220575881 ], [ -71.529909825622767, -29.233169895913324 ], [ -71.52998490810181, -29.233011413447763 ], [ -71.530060685159583, -29.232880628573305 ], [ -71.530079091277969, -29.232774045034169 ], [ -71.530111098544822, -29.232579445752627 ], [ -71.530157636001988, -29.232333761434749 ], [ -71.530201454946379, -29.23218973864067 ], [ -71.530285406117045, -29.231963002007262 ], [ -71.530386712613762, -29.231799393374143 ], [ -71.53051835093251, -29.231584394169008 ], [ -71.530676794281192, -29.231387351618967 ], [ -71.530846354099324, -29.231213185933967 ], [ -71.530993911520696, -29.231002497371431 ], [ -71.531172613727634, -29.230772732166919 ], [ -71.531294177278838, -29.230576401713382 ], [ -71.531377146975998, -29.230414269076348 ], [ -71.531446149612606, -29.230222076732403 ], [ -71.531485390184017, -29.23002075578496 ], [ -71.531488625881693, -29.229855714500935 ], [ -71.531507433298174, -29.229722720491111 ], [ -71.531537147480179, -29.229583045549056 ], [ -71.531548124498329, -29.229384628733889 ], [ -71.531521223578864, -29.229240142406397 ], [ -71.531471461623767, -29.229111957856009 ], [ -71.531390744280259, -29.228986638161974 ], [ -71.53130531473056, -29.228879534475634 ], [ -71.53119668165732, -29.228775145173689 ], [ -71.5310609881478, -29.2287256567644 ], [ -71.530969296928035, -29.228712880635207 ], [ -71.530860079348741, -29.228726155185544 ], [ -71.530685214827699, -29.228763022883221 ], [ -71.53049523845047, -29.228806879032891 ], [ -71.530289871631751, -29.228846568935325 ], [ -71.53009967123883, -29.22888149976357 ], [ -71.529850916519294, -29.228897997094087 ], [ -71.529579579696971, -29.228893858074773 ], [ -71.529387613542397, -29.228863399915245 ], [ -71.529274612512737, -29.228838724741252 ], [ -71.529166380130462, -29.22880052874223 ], [ -71.529027881659175, -29.228742791945471 ], [ -71.528940245673923, -29.22867237359954 ], [ -71.528863416635318, -29.228604882859422 ], [ -71.528783089508565, -29.228540593951205 ], [ -71.528728662120386, -29.228510292557178 ], [ -71.528653248853047, -29.228499208670932 ], [ -71.528588878611771, -29.228500451491314 ], [ -71.528524744631298, -29.228511096041775 ], [ -71.528479513832863, -29.228562132834959 ], [ -71.528456368054265, -29.228637825862798 ], [ -71.528425834520036, -29.228704255093007 ], [ -71.528369403421308, -29.228736697545504 ], [ -71.528291200490102, -29.228757018819351 ], [ -71.528219678619465, -29.228758400332616 ], [ -71.528148155693799, -29.228759780925468 ], [ -71.528066691746631, -29.22879270658537 ], [ -71.52796742555671, -29.228829110868844 ], [ -71.52790812450263, -29.228889825199058 ], [ -71.52784238046776, -29.228978880935596 ], [ -71.527795405690654, -29.229051961816602 ] ] ], [ [ [ -71.536118524459084, -29.250583865372146 ], [ -71.535969823423699, -29.250586387245594 ], [ -71.535768126007937, -29.250564731728389 ], [ -71.535647143775606, -29.250564986157144 ], [ -71.535521157202837, -29.250578501559854 ], [ -71.535381298542035, -29.250612088335693 ], [ -71.53528320032926, -29.250685165818592 ], [ -71.535205319871096, -29.250778074759666 ], [ -71.535142604736095, -29.250886408679808 ], [ -71.535077399004152, -29.251005789112192 ], [ -71.535051360866149, -29.251130731189505 ], [ -71.5350304794229, -29.251315011980523 ], [ -71.535013095091315, -29.251474303247825 ], [ -71.535013427962653, -29.251596086516894 ], [ -71.534960280286327, -29.251711736192412 ], [ -71.534935646782245, -29.251827326611323 ], [ -71.534959358623496, -29.251995329174154 ], [ -71.535029322912209, -29.252120222479576 ], [ -71.535109697460911, -29.252232895059468 ], [ -71.535141253382804, -29.252315173000593 ], [ -71.535117352450726, -29.25248601117373 ], [ -71.535139988694141, -29.252654883856518 ], [ -71.535176617069965, -29.252756710526299 ], [ -71.535198675460151, -29.252847953275833 ], [ -71.535249715797448, -29.252903043000213 ], [ -71.535278054092913, -29.252956208993417 ], [ -71.535279915085482, -29.25301975174715 ], [ -71.535270017200915, -29.253101054407807 ], [ -71.535241453721682, -29.253142493905422 ], [ -71.53517417904834, -29.253224885246283 ], [ -71.535101847040551, -29.253298928874614 ], [ -71.535029538267494, -29.253381840552848 ], [ -71.534960487213667, -29.253421887637771 ], [ -71.534884735915426, -29.253479683390939 ], [ -71.534793647645941, -29.253597893105525 ], [ -71.534831669371087, -29.253630643225808 ], [ -71.534853140104161, -29.253737638788849 ], [ -71.534868253951473, -29.253883094117221 ], [ -71.534900927020345, -29.253940002837513 ], [ -71.535001387166474, -29.253964364131011 ], [ -71.535047346016597, -29.254024446906108 ], [ -71.535059033243286, -29.25411134797973 ], [ -71.535032566389063, -29.254201672947392 ], [ -71.534964027545939, -29.254326713226366 ], [ -71.534929930092716, -29.254417053951904 ], [ -71.534853898839785, -29.254524199785685 ], [ -71.534812185528367, -29.254621243227884 ], [ -71.534827710388853, -29.254739277790261 ], [ -71.534866138797895, -29.254836152113011 ], [ -71.534908438209214, -29.254953078782567 ], [ -71.534969800253748, -29.255063278551035 ], [ -71.535020962992846, -29.255170232103843 ], [ -71.535059791622587, -29.255271471226106 ], [ -71.53508159934664, -29.255414025520651 ], [ -71.535094748883253, -29.255522824310312 ], [ -71.535090835230193, -29.255657928180238 ], [ -71.535099835369451, -29.255815519880297 ], [ -71.535100102067815, -29.255913087521222 ], [ -71.535138849762475, -29.255984306318581 ], [ -71.535250447120745, -29.256066628677988 ], [ -71.535374741070584, -29.256092634703585 ], [ -71.535498110662743, -29.256174471834267 ], [ -71.535580977104757, -29.25618466435316 ], [ -71.535711235378344, -29.256215490433647 ], [ -71.535801298084024, -29.256260916573726 ], [ -71.535915040096967, -29.256310438867136 ], [ -71.536021824145621, -29.256411811278511 ], [ -71.536143189120565, -29.256491001180876 ], [ -71.536228615920081, -29.256571685081951 ], [ -71.536278534676683, -29.256650370988972 ], [ -71.536314322829128, -29.256753966818241 ], [ -71.536331926035146, -29.256869424034651 ], [ -71.53633565600316, -29.257017801440892 ], [ -71.53633064693102, -29.257205844878904 ], [ -71.536305629212649, -29.257380889159805 ], [ -71.536246899561405, -29.257660254157585 ], [ -71.536166826521935, -29.257906155066564 ], [ -71.536061171212609, -29.258122325813481 ], [ -71.535946932423244, -29.258308727835054 ], [ -71.535820963632503, -29.258528888786859 ], [ -71.535639715776142, -29.25876437452127 ], [ -71.535497144671197, -29.258968432143387 ], [ -71.535419712062861, -29.259093130899991 ], [ -71.535378202566207, -29.259179423065415 ], [ -71.535372446479201, -29.259255190305055 ], [ -71.53542936788817, -29.25935172328224 ], [ -71.535501192408262, -29.259445612595499 ], [ -71.535525241401785, -29.25951609258388 ], [ -71.535558379474551, -29.259638798376912 ], [ -71.535594407460394, -29.259727539473175 ], [ -71.53563037744884, -29.259795381869719 ], [ -71.53566627466148, -29.259837101803956 ], [ -71.535750360204545, -29.259843048233375 ], [ -71.535815266590419, -29.259861239279282 ], [ -71.535865640142447, -29.259919781817011 ], [ -71.5359496689709, -29.260044234072797 ], [ -71.536006425395712, -29.260141251605148 ], [ -71.536088608401116, -29.260242594595379 ], [ -71.536148521053349, -29.260346935801017 ], [ -71.53626463665988, -29.260346689837402 ], [ -71.536381752263537, -29.260329947085893 ], [ -71.536452865304668, -29.260322464462604 ], [ -71.536585251216692, -29.260314952333431 ], [ -71.536698227157117, -29.260314712384218 ], [ -71.536841344695148, -29.260306230345616 ], [ -71.536957502747427, -29.260259178592666 ], [ -71.537022177019452, -29.260193059880098 ], [ -71.537070063917028, -29.260108650599076 ], [ -71.537096947785699, -29.259994960297238 ], [ -71.537124249925583, -29.259867342696637 ], [ -71.537165828617063, -29.259771949281546 ], [ -71.537211678433266, -29.25970770442105 ], [ -71.537245025471847, -29.259661812905911 ], [ -71.53731185852574, -29.259619517134318 ], [ -71.537391313647234, -29.25960285282487 ], [ -71.537462466267527, -29.259610032513528 ], [ -71.537529476418285, -29.259631883159997 ], [ -71.537594455061452, -29.259675732093829 ], [ -71.537672051862359, -29.259743380372775 ], [ -71.537730854599772, -29.25982389768977 ], [ -71.537888666703935, -29.260095723462346 ], [ -71.537925719422347, -29.26018067450542 ], [ -71.53801965529334, -29.26025964017078 ], [ -71.538066758002671, -29.260347502542185 ], [ -71.538123843332571, -29.260414818529885 ], [ -71.538210931419229, -29.260438088826156 ], [ -71.538344812630243, -29.260437802999249 ], [ -71.538408462457795, -29.260458192477397 ], [ -71.538485508452311, -29.260481483807503 ], [ -71.538551852828562, -29.260561117686958 ], [ -71.538606080746078, -29.260639174876896 ], [ -71.538648648278468, -29.260746057283562 ], [ -71.538660635835498, -29.260834490178386 ], [ -71.538682390070434, -29.260979268213347 ], [ -71.538680384400607, -29.261102704028648 ], [ -71.538671266177914, -29.261201468270588 ], [ -71.538624621770367, -29.261328080678332 ], [ -71.538587266235012, -29.261406333810211 ], [ -71.538517034080158, -29.261484656884413 ], [ -71.538435007906571, -29.261544490955725 ], [ -71.538334091919964, -29.26156733533109 ], [ -71.538190986116831, -29.261619069811111 ], [ -71.538064256775598, -29.261648141771204 ], [ -71.537890684844157, -29.261722570554145 ], [ -71.537793395089864, -29.261787267854203 ], [ -71.537743979095495, -29.261929919601705 ], [ -71.537684517921832, -29.26204350086368 ], [ -71.537618505191205, -29.26218909565651 ], [ -71.537575640231353, -29.26229973290673 ], [ -71.53749963070733, -29.262433713617252 ], [ -71.537396902743723, -29.26251247750821 ], [ -71.537350548052856, -29.262562030585386 ], [ -71.537337474236608, -29.262637695058395 ], [ -71.537367716230492, -29.262765630557514 ], [ -71.537451804972633, -29.262877630683256 ], [ -71.537526607255131, -29.262968899267243 ], [ -71.537560453033237, -29.263076580944801 ], [ -71.537583098265813, -29.263177755663165 ], [ -71.537609516012992, -29.263295249796062 ], [ -71.537617161265501, -29.263363803689149 ], [ -71.537572540103014, -29.263403082422485 ], [ -71.537561547834613, -29.263471676429305 ], [ -71.537591739118312, -29.263605488157644 ], [ -71.537640404955511, -29.263680484977641 ], [ -71.537707166517777, -29.263745001155144 ], [ -71.537813732397524, -29.263796210233536 ], [ -71.537923977322436, -29.263850624834184 ], [ -71.538045187580664, -29.263888943286851 ], [ -71.538229232096597, -29.263923924329681 ], [ -71.538307541325693, -29.263933325529425 ], [ -71.538353106815194, -29.263952365336692 ], [ -71.538402442676627, -29.264017645269821 ], [ -71.538459082188368, -29.264090883600801 ], [ -71.538521245452742, -29.264186435813585 ], [ -71.538561488148645, -29.264254924933194 ], [ -71.538547186146346, -29.264349046243268 ], [ -71.538507122759896, -29.264497222647634 ], [ -71.538429111913103, -29.264657753590548 ], [ -71.53834781545882, -29.264812564496779 ], [ -71.538305763973767, -29.264973019166455 ], [ -71.538309431169282, -29.265116194146835 ], [ -71.538310070100081, -29.265355711841423 ], [ -71.53828794325743, -29.265627806506263 ], [ -71.538236203565262, -29.265831236158593 ], [ -71.538184487777073, -29.266043257800384 ], [ -71.538090302218578, -29.266166520044656 ], [ -71.537985218714596, -29.266319442717091 ], [ -71.53781603119576, -29.266514693560282 ], [ -71.537593859839816, -29.266751533368193 ], [ -71.537433828193528, -29.266940737192346 ], [ -71.537344693185133, -29.267055450387804 ], [ -71.537256499742796, -29.26716101823996 ], [ -71.537263651174811, -29.267300267919225 ], [ -71.537289714728487, -29.267488161992496 ], [ -71.537369333952412, -29.267644616426697 ], [ -71.537425934362076, -29.2677779597817 ], [ -71.537464591210863, -29.26790093971557 ], [ -71.537528796515119, -29.268026101770282 ], [ -71.537595364080474, -29.268081897374532 ], [ -71.537678617899388, -29.268178641380793 ], [ -71.537769244251223, -29.268148650586326 ], [ -71.537827913697313, -29.268119438314159 ], [ -71.537878938492923, -29.268096953859036 ], [ -71.537940309417166, -29.268121435251949 ], [ -71.537999139800291, -29.268150396883417 ], [ -71.538058492062376, -29.268195768510793 ], [ -71.538089218600916, -29.268222552419147 ], [ -71.538099665711513, -29.268305317808004 ], [ -71.538112668316344, -29.268388077033009 ], [ -71.538138459989455, -29.268477521324243 ], [ -71.538161976267432, -29.268548956115247 ], [ -71.538327724324006, -29.2685643777968 ], [ -71.538422747704558, -29.268579947205083 ], [ -71.538476079871728, -29.268619792234343 ], [ -71.538488992379413, -29.268706341917131 ], [ -71.538504458393007, -29.268799546535696 ], [ -71.538520706360956, -29.26897798427763 ], [ -71.538538873552582, -29.269116567057928 ], [ -71.538540817095551, -29.269175749053737 ], [ -71.538633343589481, -29.269198914472284 ], [ -71.538757083609994, -29.269224137798584 ], [ -71.538918336667365, -29.269117468903936 ], [ -71.538983966068656, -29.269059698806711 ], [ -71.53906561991883, -29.269009681574286 ], [ -71.539124206054296, -29.268976847499903 ], [ -71.539193552363116, -29.268976699223995 ], [ -71.539316363821499, -29.269020046536724 ], [ -71.539380554844712, -29.269083767958914 ], [ -71.539467917019053, -29.269167687828684 ], [ -71.539586025109287, -29.269297277952838 ], [ -71.539653924707665, -29.269415504537925 ], [ -71.539751704908909, -29.269584632814848 ], [ -71.539769860672337, -29.269669353297559 ], [ -71.539788113660052, -29.269714327444458 ], [ -71.539792119332361, -29.269865002101557 ], [ -71.539799628886925, -29.269987416966721 ], [ -71.53983580996848, -29.270109769240122 ], [ -71.539882620061618, -29.27018815065297 ], [ -71.539983109479692, -29.270238162440474 ], [ -71.540035181758483, -29.270255797716779 ], [ -71.540089970967486, -29.270291222022873 ], [ -71.54013958561346, -29.27036838178347 ], [ -71.540159264382709, -29.270465695325274 ], [ -71.540161075288424, -29.270598284991138 ], [ -71.54014562363048, -29.270692970399981 ], [ -71.540116346167892, -29.27076187077579 ], [ -71.540147085172876, -29.270867790133831 ], [ -71.540192063854334, -29.271019463509784 ], [ -71.540237075233861, -29.271181975804851 ], [ -71.540294400230067, -29.271322781325729 ], [ -71.540310219828129, -29.271484331474326 ], [ -71.540310687437128, -29.27165106566817 ], [ -71.540304531604022, -29.271796732036748 ], [ -71.540247983312725, -29.271917593050254 ], [ -71.540184996607707, -29.272142227117037 ], [ -71.540076874755485, -29.272280430232282 ], [ -71.540003850714029, -29.272452283251166 ], [ -71.540007917267815, -29.272654629532955 ], [ -71.540008199684436, -29.272873903405785 ], [ -71.540040312757085, -29.273091519159646 ], [ -71.540110740607346, -29.273241600706513 ], [ -71.540255089106083, -29.27353869054118 ], [ -71.540452709554287, -29.273760536249114 ], [ -71.540586621647691, -29.273884118774735 ], [ -71.540642063424357, -29.274042280042519 ], [ -71.540689977341799, -29.274317448024924 ], [ -71.540730267203458, -29.27467521327846 ], [ -71.540762507386319, -29.274964177402545 ], [ -71.540834069418807, -29.275266820576562 ], [ -71.540873838057038, -29.275438778789997 ], [ -71.540992116741918, -29.275589922179417 ], [ -71.541103583886041, -29.275745657710189 ], [ -71.541151092892648, -29.275876308707478 ], [ -71.541135843781532, -29.276041504246301 ], [ -71.541049690388704, -29.27613803565033 ], [ -71.540916317227015, -29.276207141504418 ], [ -71.540822073031975, -29.276221109250862 ], [ -71.540743698202576, -29.276290095900841 ], [ -71.540728216447505, -29.276372710985211 ], [ -71.540767810704438, -29.276482733874609 ], [ -71.540838833645935, -29.276592688319013 ], [ -71.540909971296614, -29.276743933860541 ], [ -71.540894800185725, -29.276936656173667 ], [ -71.540903180231112, -29.277122445236159 ], [ -71.540880209960889, -29.277335830438712 ], [ -71.540880733616746, -29.27752163636622 ], [ -71.540798047253091, -29.277757045709823 ], [ -71.540838724745612, -29.277817273122434 ], [ -71.540815952554738, -29.277844003316623 ], [ -71.540715120783304, -29.277870903404203 ], [ -71.540570515960354, -29.277904567448026 ], [ -71.540439268580016, -29.277948208777808 ], [ -71.540372814921625, -29.278013388970813 ], [ -71.540327233313079, -29.278053509758895 ], [ -71.540299710166749, -29.278260258201954 ], [ -71.540304834719862, -29.278349873913022 ], [ -71.540227037213938, -29.278409793225141 ], [ -71.540061470807188, -29.278448562608713 ], [ -71.539934790653405, -29.278453103763436 ], [ -71.539813018130729, -29.278470437867185 ], [ -71.539769474327699, -29.278581498252755 ], [ -71.539794090619154, -29.278671071650269 ], [ -71.539857819952346, -29.278807508222151 ], [ -71.539965236967447, -29.278884099750979 ], [ -71.540116593182844, -29.278990470650989 ], [ -71.540282617142466, -29.279113882536574 ], [ -71.540409539028872, -29.279194698803828 ], [ -71.540477795017551, -29.279311437400587 ], [ -71.540546519591018, -29.279490542276186 ], [ -71.540566467081376, -29.279652681182313 ], [ -71.540562266545081, -29.2798916940121 ], [ -71.540538418576304, -29.280075267225811 ], [ -71.540480508533335, -29.28027598503941 ], [ -71.540334527742175, -29.28034885575412 ], [ -71.540149014455821, -29.280433040933122 ], [ -71.54004185931241, -29.280450344454323 ], [ -71.539954279464354, -29.280497480344007 ], [ -71.539891086853387, -29.280553100189294 ], [ -71.539886429609183, -29.280629932559954 ], [ -71.539828267539164, -29.280741024745119 ], [ -71.53974563209573, -29.2808137580869 ], [ -71.539682427195771, -29.280865109371703 ], [ -71.539609333853477, -29.280865267255205 ], [ -71.539546105961222, -29.280908083308283 ], [ -71.539521932947906, -29.280976421952317 ], [ -71.539497795822186, -29.28105756512668 ], [ -71.539517538715131, -29.281147149124145 ], [ -71.539581067039691, -29.281211031483775 ], [ -71.539673748035909, -29.281244974565478 ], [ -71.539800431659856, -29.281240433450339 ], [ -71.539936874077299, -29.281240138577061 ], [ -71.540049022861865, -29.281265503847596 ], [ -71.540170967334276, -29.281322711497896 ], [ -71.540210166539339, -29.281399449298203 ], [ -71.540191022754271, -29.281523260409315 ], [ -71.540196424564598, -29.281711038390149 ], [ -71.540211426246543, -29.281847579785158 ], [ -71.540377869501256, -29.281967608605697 ], [ -71.540602314095636, -29.282069552658669 ], [ -71.540894908249243, -29.282145741997848 ], [ -71.541094867573136, -29.282205059935119 ], [ -71.541295471596698, -29.282278229554464 ], [ -71.541446775129714, -29.282363258831786 ], [ -71.541568864273771, -29.282456888851083 ], [ -71.541632490122993, -29.282554913382356 ], [ -71.541627930693934, -29.282665888985861 ], [ -71.54157952758591, -29.282781228102248 ], [ -71.541531051015795, -29.282870960000292 ], [ -71.541502102480152, -29.282973453762551 ], [ -71.541517155450862, -29.283127066033622 ], [ -71.541571096030083, -29.283246451537657 ], [ -71.5416832835337, -29.283284618880575 ], [ -71.541770985391295, -29.283307495380821 ], [ -71.541901348553452, -29.283266878717388 ], [ -71.542116014786217, -29.283182384934229 ], [ -71.542234761010874, -29.283104822019631 ], [ -71.54235756218408, -29.283104555148302 ], [ -71.542526482272919, -29.283127714175915 ], [ -71.542802815289505, -29.283137195052589 ], [ -71.542917932479313, -29.2831335819935 ], [ -71.543063445027329, -29.283022349527702 ], [ -71.543421328585126, -29.282799535306491 ], [ -71.543678100415562, -29.282677975687466 ], [ -71.543977131180256, -29.282573128208355 ], [ -71.544111283069427, -29.282515696255786 ], [ -71.544318538932757, -29.2825253246511 ], [ -71.544468298787237, -29.282558606955412 ], [ -71.544683497743677, -29.282662327609444 ], [ -71.544852743455948, -29.282799758927595 ], [ -71.545069734886425, -29.283014850311602 ], [ -71.545200874765868, -29.283246474905422 ], [ -71.545324350794971, -29.283481476720468 ], [ -71.545374672223446, -29.283632613618966 ], [ -71.545340615456084, -29.283800740539643 ], [ -71.545306423629185, -29.283921814254548 ], [ -71.54531472961699, -29.284138956109931 ], [ -71.545319028244975, -29.284300277184865 ], [ -71.545357636368621, -29.284380857486855 ], [ -71.545465377919598, -29.284481452489501 ], [ -71.545573052606215, -29.284558519434391 ], [ -71.545669002069275, -29.284561668793323 ], [ -71.545703424809318, -29.284521260070697 ], [ -71.545768491128442, -29.284460617748429 ], [ -71.54583361416006, -29.28442014145681 ], [ -71.545956417665451, -29.284419871158047 ], [ -71.54604864580152, -29.284463360532552 ], [ -71.546225465767165, -29.284563802264291 ], [ -71.546404691883907, -29.284705671469595 ], [ -71.546503031318807, -29.284743092869817 ], [ -71.546607385582718, -29.284737485230213 ], [ -71.546736018362154, -29.284635037804339 ], [ -71.546901362805627, -29.284489493564905 ], [ -71.547134550607012, -29.284451337889077 ], [ -71.547392249354118, -29.284396997070811 ], [ -71.547811590574653, -29.284373561352254 ], [ -71.548044840417873, -29.284356912356515 ], [ -71.548173579548163, -29.284292103093961 ], [ -71.548541271626561, -29.284060075464883 ], [ -71.548780192495784, -29.283882102715605 ], [ -71.548908837153178, -29.283785030446481 ], [ -71.54897604191919, -29.283671964187768 ], [ -71.549067820157504, -29.283564220198269 ], [ -71.549221115954069, -29.283499354342542 ], [ -71.549454455910535, -29.283514965383038 ], [ -71.549663332130336, -29.283562891415308 ], [ -71.549798536903083, -29.283566438413818 ], [ -71.549914825887726, -29.283562406317323 ], [ -71.549987942293427, -29.283524516883805 ], [ -71.550078200712406, -29.283456409305714 ], [ -71.550138185866444, -29.28334687045043 ], [ -71.550163700929886, -29.283233637325186 ], [ -71.550137472032901, -29.283101656518852 ], [ -71.550063872922649, -29.282973553660163 ], [ -71.549977363279254, -29.28284925334081 ], [ -71.549865064521924, -29.282743872410588 ], [ -71.549813112263834, -29.282653446739655 ], [ -71.549778390329422, -29.282562983399668 ], [ -71.549765139282798, -29.282449836563952 ], [ -71.549803718884718, -29.282385617125399 ], [ -71.549902623744245, -29.282328807436549 ], [ -71.5499671138503, -29.282287165000366 ], [ -71.549984013865696, -29.282173951180216 ], [ -71.549914472748611, -29.281941394426511 ], [ -71.549853796932823, -29.28181326380972 ], [ -71.549754398730727, -29.281700308701613 ], [ -71.549646409575843, -29.281594918288338 ], [ -71.549572866218611, -29.281485678499568 ], [ -71.549542408408897, -29.281380114751546 ], [ -71.549542046695137, -29.281255621547988 ], [ -71.549619162823888, -29.281112091659331 ], [ -71.549713463095628, -29.280953433931248 ], [ -71.549820883109632, -29.280862652339337 ], [ -71.550052387307716, -29.280559656134983 ], [ -71.550277263061844, -29.280270214671592 ], [ -71.55040659885907, -29.279965779072555 ], [ -71.550492925837219, -29.27979830547547 ], [ -71.550518571525259, -29.27966138272507 ], [ -71.550509424547784, -29.27950172700567 ], [ -71.550473947366882, -29.279243282072084 ], [ -71.550438137792057, -29.278870783245484 ], [ -71.550428505905785, -29.278543847832879 ], [ -71.550487835666075, -29.278049478209105 ], [ -71.550434554555565, -29.277639000340319 ], [ -71.550363885662762, -29.27723831108684 ], [ -71.550267574952102, -29.276957191814166 ], [ -71.5500411163694, -29.27669917313991 ], [ -71.54980582222764, -29.276387948755179 ], [ -71.549666153181718, -29.276122131695143 ], [ -71.549353063103936, -29.275925134887117 ], [ -71.548970305867513, -29.275652254377704 ], [ -71.548550434627302, -29.275253566318341 ], [ -71.548341477272231, -29.275041127711447 ], [ -71.548176407467992, -29.274995872106178 ], [ -71.548046236441621, -29.275011368410567 ], [ -71.547898310201788, -29.274890037682724 ], [ -71.547654520579073, -29.274639656538497 ], [ -71.547323640524382, -29.274290619893875 ], [ -71.547054401916995, -29.274245592387665 ], [ -71.547002075690131, -29.274162067963747 ], [ -71.546949073057604, -29.273842830889759 ], [ -71.547061181704706, -29.273584058660184 ], [ -71.547156189959026, -29.27341656766809 ], [ -71.54734594756863, -29.273069569177164 ], [ -71.547397464198426, -29.272871759246566 ], [ -71.547396677019719, -29.272598029198331 ], [ -71.54744779979454, -29.272263355130242 ], [ -71.547542587509099, -29.272019828123966 ], [ -71.547576326556239, -29.271677588686426 ], [ -71.547549758785934, -29.271495159409515 ], [ -71.547392829910876, -29.271259792046742 ], [ -71.547227068106295, -29.270971218861177 ], [ -71.546938492657603, -29.270769484584832 ], [ -71.54663408353764, -29.270564857224539 ], [ -71.546381889640173, -29.270405734682715 ], [ -71.546233731641678, -29.270200762310189 ], [ -71.546111333779848, -29.26989688403162 ], [ -71.545980213137426, -29.269577818259108 ], [ -71.545762331342019, -29.269274149376706 ], [ -71.545501331280889, -29.269069423329082 ], [ -71.545248817946259, -29.268796244781125 ], [ -71.545065878079726, -29.268568535187939 ], [ -71.545035911768537, -29.268176229429425 ], [ -71.545019397553517, -29.267766274973738 ], [ -71.545018689256054, -29.267517594093171 ], [ -71.544964349033719, -29.267295914445381 ], [ -71.544833373932775, -29.267108007804861 ], [ -71.544702744891595, -29.267041082238009 ], [ -71.54460238706416, -29.266826224758692 ], [ -71.544609141930096, -29.266503594174065 ], [ -71.544623436445008, -29.266133898472674 ], [ -71.544730339597194, -29.265952192922889 ], [ -71.544906318301798, -29.265705632355637 ], [ -71.545044063594119, -29.265577628743788 ], [ -71.545066679737815, -29.265436435230338 ], [ -71.545050875614521, -29.265275161548406 ], [ -71.545057629352428, -29.264952530965608 ], [ -71.545018061796284, -29.264529184666358 ], [ -71.545055621541437, -29.264246813003808 ], [ -71.545154619742206, -29.26398447083746 ], [ -71.545219807777116, -29.263800186851768 ], [ -71.54526686005525, -29.263651557228677 ], [ -71.54526638677325, -29.263485208528571 ], [ -71.545170829694342, -29.263271538985403 ], [ -71.545020898224564, -29.263016400458824 ], [ -71.54473544564263, -29.262803145822481 ], [ -71.544416102149341, -29.262595905309183 ], [ -71.544259577012497, -29.262406132597494 ], [ -71.54418463928134, -29.262287474011458 ], [ -71.544251902295755, -29.26209127214489 ], [ -71.544380354302433, -29.261948405719576 ], [ -71.544623829060811, -29.261710231425514 ], [ -71.54473142557616, -29.261563110761053 ], [ -71.54477169451566, -29.261414495935888 ], [ -71.544716799046341, -29.261188854525653 ], [ -71.544600376470342, -29.260791056753298 ], [ -71.544409423006087, -29.260417185613566 ], [ -71.544320601637267, -29.260185676990567 ], [ -71.544272371621574, -29.259918433676049 ], [ -71.54429889293128, -29.25970449674719 ], [ -71.544447518363569, -29.259502176124471 ], [ -71.544610031551997, -29.259319720157027 ], [ -71.54480641563174, -29.259218293498513 ], [ -71.544996220766635, -29.259188173410802 ], [ -71.545199537254334, -29.25914020030703 ], [ -71.545321288280562, -29.259027053981328 ], [ -71.545415826837512, -29.258884260928657 ], [ -71.545496582585017, -29.258664264039361 ], [ -71.545625164504997, -29.258568925445783 ], [ -71.545787806723112, -29.258526982124401 ], [ -71.54597772839756, -29.258538448600426 ], [ -71.546235467610785, -29.258549765231837 ], [ -71.546330427941015, -29.258555497741604 ], [ -71.546384528755013, -29.258501909717491 ], [ -71.546411198113717, -29.258341442196414 ], [ -71.546390531188877, -29.258228607155996 ], [ -71.546227601324702, -29.258169553773218 ], [ -71.546091849559588, -29.258128264056637 ], [ -71.545929003956402, -29.258098915531981 ], [ -71.545800134909072, -29.258093256947213 ], [ -71.54577941795489, -29.257962598263514 ], [ -71.545765363990924, -29.257790337948904 ], [ -71.545751462319203, -29.257671546328709 ], [ -71.545595230803741, -29.257582772195249 ], [ -71.545506816115179, -29.257412710782933 ], [ -71.545567427686763, -29.257264051863753 ], [ -71.54566193133661, -29.257109376974409 ], [ -71.545858344369719, -29.257019830786231 ], [ -71.546041294692046, -29.256965959784775 ], [ -71.54623779212892, -29.256906118296861 ], [ -71.546319018960105, -29.256852470702274 ], [ -71.546325478273744, -29.256739575974482 ], [ -71.54627088769162, -29.256620874307313 ], [ -71.546135053004093, -29.256549879275955 ], [ -71.54593141888877, -29.256484973434699 ], [ -71.545843038390856, -29.25640793276099 ], [ -71.545713716016792, -29.256241865998309 ], [ -71.545645359799011, -29.256051901098907 ], [ -71.545515952362763, -29.255856127967302 ], [ -71.545562882506559, -29.255665910454727 ], [ -71.54562359454836, -29.255552897658337 ], [ -71.545668825543729, -29.255512043319634 ], [ -71.545706165676151, -29.255464767564408 ], [ -71.545715353424924, -29.255401138311782 ], [ -71.545715218942576, -29.255353944220932 ], [ -71.54565898987579, -29.255347911602787 ], [ -71.545602806456202, -29.255358294397432 ], [ -71.545565274089583, -29.255337857198782 ], [ -71.545529914074663, -29.25525790985569 ], [ -71.545518074159531, -29.255212793482432 ], [ -71.545510292238149, -29.255143045695522 ], [ -71.545402523433395, -29.255143282077249 ], [ -71.545344684007233, -29.25518854961701 ], [ -71.545281527176726, -29.255217414621484 ], [ -71.545225373661651, -29.255238056202753 ], [ -71.545166836891781, -29.255244340326378 ], [ -71.545108276795276, -29.255242415811836 ], [ -71.545084791294755, -29.255219895874344 ], [ -71.545030845819497, -29.255193339240996 ], [ -71.544974487266259, -29.255142164390875 ], [ -71.54496267191945, -29.255105255644512 ], [ -71.544950781191758, -29.255041672503012 ], [ -71.544957568468973, -29.254957529375019 ], [ -71.54500890993846, -29.25489175668487 ], [ -71.545186543794273, -29.254792577733017 ], [ -71.54538932173179, -29.254717692844206 ], [ -71.545412677407583, -29.254630792990479 ], [ -71.545445381515464, -29.254510787693299 ], [ -71.545349276478817, -29.254427011674892 ], [ -71.54519496390364, -29.25443275687601 ], [ -71.545034567975947, -29.254470328196486 ], [ -71.54490718112271, -29.254495419778603 ], [ -71.544793967356782, -29.254524616449906 ], [ -71.544657068127322, -29.254524914492752 ], [ -71.544562537797006, -29.254483764328786 ], [ -71.544472565551814, -29.254384703933319 ], [ -71.544414765278233, -29.254262236673096 ], [ -71.544419181698274, -29.254154699575476 ], [ -71.54452093003033, -29.254053167026647 ], [ -71.544532007863623, -29.253989027322049 ], [ -71.544503391309561, -29.253885697923501 ], [ -71.544479601189693, -29.253819579113202 ], [ -71.544460449283378, -29.253724500430195 ], [ -71.544497992576524, -29.253645841778209 ], [ -71.544554462792433, -29.253583683714719 ], [ -71.54462038762432, -29.253525640439342 ], [ -71.544695694678182, -29.253446899403027 ], [ -71.544681006440456, -29.253260826259567 ], [ -71.544623995495471, -29.253132744723377 ], [ -71.544471547952284, -29.252923401338776 ], [ -71.544324625362208, -29.252716937571702 ], [ -71.544229722983673, -29.252543446040757 ], [ -71.544054676215339, -29.252407350417982 ], [ -71.543927116701411, -29.252370406289831 ], [ -71.543799672782441, -29.252374819085535 ], [ -71.543677078491058, -29.252424712373742 ], [ -71.543587562939152, -29.252486941656755 ], [ -71.543469700616754, -29.252540961976262 ], [ -71.54335169810409, -29.252545353395519 ], [ -71.543233684759358, -29.252545608810575 ], [ -71.543040035603227, -29.25250880768602 ], [ -71.54290295388401, -29.252442934087931 ], [ -71.542661879385406, -29.252327656894 ], [ -71.542415911151679, -29.252150354962939 ], [ -71.542122529548706, -29.251898713524575 ], [ -71.541845696942914, -29.25166913033479 ], [ -71.541703466390445, -29.251450246953514 ], [ -71.541367626507437, -29.25120696546945 ], [ -71.541117000607613, -29.251050349765528 ], [ -71.540752956074428, -29.250848484189095 ], [ -71.540436186743918, -29.250671330163897 ], [ -71.540171435820795, -29.250527149487684 ], [ -71.539952157417076, -29.250347476005487 ], [ -71.539770722283194, -29.250131861371493 ], [ -71.539708953432424, -29.25001758868196 ], [ -71.539647184704677, -29.249903315052048 ], [ -71.539598274614946, -29.24980920423172 ], [ -71.539557052194311, -29.249717319795671 ], [ -71.5394986470275, -29.24960868791484 ], [ -71.539446621511388, -29.249503047895864 ], [ -71.539383039534584, -29.249374771041012 ], [ -71.539342455398881, -29.249248963661959 ], [ -71.539327848000212, -29.249163385981117 ], [ -71.539232576299824, -29.24900318613771 ], [ -71.539145306163718, -29.248905373848277 ], [ -71.539092862430465, -29.248869541361621 ], [ -71.539047488441682, -29.248832455015972 ], [ -71.538929881990356, -29.248775152129916 ], [ -71.538759228371418, -29.248750224717714 ], [ -71.538630100069355, -29.24881475309509 ], [ -71.538539717535073, -29.248871960877835 ], [ -71.538477216122232, -29.248935330704285 ], [ -71.538425051087813, -29.24899989427939 ], [ -71.538378592234125, -29.249081797806163 ], [ -71.538330749688541, -29.249174858582723 ], [ -71.53827137253964, -29.249301972515607 ], [ -71.538250364792987, -29.24937886311049 ], [ -71.538216644241515, -29.249463218280674 ], [ -71.538181586496464, -29.249632331945225 ], [ -71.53815362778667, -29.249753858632069 ], [ -71.538109231559702, -29.249905844731565 ], [ -71.538055955188753, -29.250010862199616 ], [ -71.53801041559521, -29.250064790357595 ], [ -71.537933327475741, -29.250104983394117 ], [ -71.53766620576333, -29.250221970906914 ], [ -71.537464759105859, -29.250290853099834 ], [ -71.537290982504061, -29.25033980275651 ], [ -71.537079404636827, -29.250391039588187 ], [ -71.536872910886842, -29.250457723613295 ], [ -71.536619980784025, -29.250540848258645 ], [ -71.536458719521633, -29.250558855470775 ], [ -71.536287359408817, -29.250570258676383 ], [ -71.536118524459084, -29.250583865372146 ] ] ], [ [ [ -71.57463266882904, -29.020395838237238 ], [ -71.57456779283288, -29.020456474249428 ], [ -71.574508417671382, -29.020522267668202 ], [ -71.574483446046244, -29.020581546778089 ], [ -71.574442590652424, -29.020685367110765 ], [ -71.57440467113183, -29.020786771230451 ], [ -71.574372994490574, -29.020873355794773 ], [ -71.574327282877007, -29.02095453877206 ], [ -71.574276439245494, -29.021020576292695 ], [ -71.574179446838002, -29.021102791046342 ], [ -71.574102731197243, -29.021175587826093 ], [ -71.573989323635502, -29.021239834094846 ], [ -71.573879314968408, -29.021289179042256 ], [ -71.573728086251222, -29.021302884128577 ], [ -71.573559753534397, -29.021298064592493 ], [ -71.573317738827058, -29.021315128478427 ], [ -71.573134424861948, -29.021345870677965 ], [ -71.57285349667788, -29.021429804917968 ], [ -71.572676910881555, -29.021524724437505 ], [ -71.572549333615555, -29.021649040937806 ], [ -71.572453306419035, -29.021782260225546 ], [ -71.572369595411843, -29.021951823133328 ], [ -71.572295130419207, -29.02211765185579 ], [ -71.572237745962312, -29.022297926281045 ], [ -71.572141125637074, -29.022447124073757 ], [ -71.572030114466727, -29.022615905309852 ], [ -71.571800327807509, -29.022917253133652 ], [ -71.571599657506226, -29.023047473938476 ], [ -71.571457769813904, -29.023112638935469 ], [ -71.571268438264141, -29.023184528233273 ], [ -71.571112342095091, -29.023309941719948 ], [ -71.57086259398676, -29.023491429041822 ], [ -71.57069150664482, -29.023641153189683 ], [ -71.570499388946303, -29.02382001915997 ], [ -71.570376689915804, -29.023948603906543 ], [ -71.570146154102289, -29.024036237473432 ], [ -71.569942283009269, -29.02408583071885 ], [ -71.569733337913604, -29.024102017310195 ], [ -71.569537828142899, -29.024096413098409 ], [ -71.569399079697462, -29.024092436868941 ], [ -71.569152087889364, -29.024113074530739 ], [ -71.569024720453655, -29.024142684921909 ], [ -71.568831002320394, -29.024218751332885 ], [ -71.568629429585485, -29.024331066585532 ], [ -71.568482948429107, -29.024420199825993 ], [ -71.568385412048031, -29.024476451138408 ], [ -71.568256257424224, -29.024492939536003 ], [ -71.568145887027313, -29.024474538442828 ], [ -71.567995950035737, -29.024400153957913 ], [ -71.567796271133446, -29.024263398729047 ], [ -71.567656318909542, -29.024107025800372 ], [ -71.567569011655991, -29.023969201972335 ], [ -71.567498596133845, -29.023811737273626 ], [ -71.567472570574949, -29.023705766904246 ], [ -71.567439684759449, -29.023637862367721 ], [ -71.567414163425113, -29.02359169319266 ], [ -71.567388020388179, -29.023562245699186 ], [ -71.567344489508542, -29.023560996872799 ], [ -71.567280849967318, -29.0235878697187 ], [ -71.567176931321725, -29.02359923857092 ], [ -71.567046693357156, -29.023585937121325 ], [ -71.566878632194147, -29.023564376299774 ], [ -71.566710570058561, -29.023542815282852 ], [ -71.566596212587982, -29.02354192688081 ], [ -71.566512906336328, -29.023584974873838 ], [ -71.56645016398204, -29.023636005864901 ], [ -71.566414588457221, -29.023713902963738 ], [ -71.566392941067434, -29.023856770013051 ], [ -71.566396905383314, -29.024043417732635 ], [ -71.566426410557682, -29.024273921438404 ], [ -71.566468182089935, -29.024490438879283 ], [ -71.566540699512174, -29.024704474154181 ], [ -71.566614214697253, -29.02489162272537 ], [ -71.566694237751264, -29.025013414285581 ], [ -71.566794587408609, -29.025097036796328 ], [ -71.566878629567498, -29.025207106945768 ], [ -71.566931550533141, -29.025329742128783 ], [ -71.566976193625607, -29.025468961179826 ], [ -71.567026995013165, -29.025648728720903 ], [ -71.567060172539826, -29.025792801983833 ], [ -71.567118045676068, -29.025885299385386 ], [ -71.56721294632942, -29.026012502030191 ], [ -71.567283674828744, -29.026068360594426 ], [ -71.56738390188012, -29.026155343490728 ], [ -71.567396592045327, -29.026226358546285 ], [ -71.56740025532001, -29.026334123189265 ], [ -71.567376375789308, -29.026461283954792 ], [ -71.567322998636854, -29.026557320325409 ], [ -71.567269621368595, -29.026653355778009 ], [ -71.567225730860883, -29.02680349342014 ], [ -71.567196392432237, -29.02702614320475 ], [ -71.567161659277346, -29.027166532534999 ], [ -71.567128908018546, -29.027325829187546 ], [ -71.56710483872358, -29.027395831304947 ], [ -71.567034844963814, -29.027473941914682 ], [ -71.566902549765018, -29.027639810181977 ], [ -71.56650414737048, -29.028134621482824 ], [ -71.566398229055963, -29.028221741406249 ], [ -71.566297360360366, -29.0283355231409 ], [ -71.566283325928836, -29.028388155328177 ], [ -71.566225151017434, -29.028426353086026 ], [ -71.566180554717036, -29.028390510341929 ], [ -71.566151566214472, -29.028357858624609 ], [ -71.566086571978062, -29.028318870351981 ], [ -71.566025643751047, -29.028333033386573 ], [ -71.565926545788372, -29.028399135128691 ], [ -71.565864634663413, -29.028439785715285 ], [ -71.565815183252866, -29.028470187429999 ], [ -71.565767700542921, -29.028447612023474 ], [ -71.565671160153741, -29.028444842660903 ], [ -71.565652271068842, -29.02846551466229 ], [ -71.565641909304688, -29.028581891944871 ], [ -71.565646037206164, -29.028695803807206 ], [ -71.56564351720526, -29.028763674473403 ], [ -71.565581994208003, -29.028799655414922 ], [ -71.565509613044398, -29.028848601474316 ], [ -71.565477162342802, -29.02888411522931 ], [ -71.565475404753386, -29.028931442888229 ], [ -71.565507944979274, -29.029005265082596 ], [ -71.565578320323041, -29.029104839406727 ], [ -71.565617176612008, -29.029234681940014 ], [ -71.565613238854041, -29.029340711925698 ], [ -71.565577617494725, -29.029401911663232 ], [ -71.56549455905072, -29.029505671057741 ], [ -71.565414444248319, -29.029642456371516 ], [ -71.565366796667348, -29.029763975478964 ], [ -71.565368635959445, -29.029912719182072 ], [ -71.565388942000851, -29.030158965590349 ], [ -71.56544274860525, -29.030296270698262 ], [ -71.565547320946806, -29.030454425907735 ], [ -71.565697705930205, -29.030568641428381 ], [ -71.565819148775574, -29.030669097927937 ], [ -71.565884626824797, -29.030690370384544 ], [ -71.565901657234548, -29.030826619933492 ], [ -71.56583090202777, -29.030947422529284 ], [ -71.565711538267138, -29.030989252334628 ], [ -71.565511744335637, -29.031015845235817 ], [ -71.56534872750791, -29.031043492393582 ], [ -71.565193546360703, -29.031058435859801 ], [ -71.565046439419874, -29.031054215595606 ], [ -71.564906207983242, -29.031063121233061 ], [ -71.564746938309526, -29.031100265671228 ], [ -71.564677136021402, -29.031140467539029 ], [ -71.564602993295551, -29.031229413065311 ], [ -71.564569616254175, -29.031310642575278 ], [ -71.564583433469991, -29.031415439384816 ], [ -71.564670995885308, -29.031540416707767 ], [ -71.564731863038787, -29.031626536740948 ], [ -71.56476486622465, -29.031696232097168 ], [ -71.56481943367065, -29.031760296743833 ], [ -71.564877904601758, -29.031815098786371 ], [ -71.564944183421815, -29.031851374720407 ], [ -71.565051604769067, -29.03188627453731 ], [ -71.565097492073306, -29.031940146871356 ], [ -71.565130479020226, -29.032001329210296 ], [ -71.565101955968146, -29.032097522319994 ], [ -71.565056441093986, -29.032137297318197 ], [ -71.565002497521149, -29.032181663613542 ], [ -71.564927724395119, -29.032194017725377 ], [ -71.56486998684467, -29.032192361297771 ], [ -71.564825367230014, -29.032207997573927 ], [ -71.564777102389982, -29.032247693314332 ], [ -71.56471978289315, -29.032308878906917 ], [ -71.564682572259386, -29.032391786540501 ], [ -71.564670038936015, -29.032543128665122 ], [ -71.564680881306444, -29.032716378517069 ], [ -71.564685232888152, -29.032971361830114 ], [ -71.564706657425504, -29.033138847984731 ], [ -71.564707662354593, -29.033242344203483 ], [ -71.564679737475316, -29.033339714794732 ], [ -71.564592427652073, -29.033465259765538 ], [ -71.56454143417713, -29.033660139973389 ], [ -71.564514406091931, -29.033864244694822 ], [ -71.564529080360089, -29.033992715425875 ], [ -71.564601714898302, -29.03413138591851 ], [ -71.564676671912267, -29.034338416342468 ], [ -71.564753212582403, -29.034502808858562 ], [ -71.564846857881577, -29.034599399336546 ], [ -71.564896002515695, -29.034716054073957 ], [ -71.564920549191584, -29.034840540009526 ], [ -71.564906557645841, -29.034942882967652 ], [ -71.564907718604687, -29.035055534398747 ], [ -71.56490147965566, -29.035151550669298 ], [ -71.564911780796535, -29.035233964619195 ], [ -71.564949647029167, -29.035293705954938 ], [ -71.565000862119419, -29.035353830902594 ], [ -71.565070762512988, -29.035414491869382 ], [ -71.565113097873464, -29.03549782364135 ], [ -71.565112894683409, -29.035575243035627 ], [ -71.565057763397334, -29.035620586540023 ], [ -71.564982581339706, -29.035630161076742 ], [ -71.56487997304842, -29.035659684759839 ], [ -71.564827598105666, -29.035702759925709 ], [ -71.564803542354227, -29.035774802928053 ], [ -71.564818835004104, -29.035866744321254 ], [ -71.564883106024595, -29.036007015028165 ], [ -71.564935510309809, -29.036107060005044 ], [ -71.564991541810073, -29.036181400373746 ], [ -71.565037156550389, -29.036248402632918 ], [ -71.565048908141733, -29.036363705040213 ], [ -71.56503068587233, -29.036494570576675 ], [ -71.564966961699099, -29.03657258671079 ], [ -71.564907643947933, -29.036587650545396 ], [ -71.564889157878611, -29.036650314344197 ], [ -71.564895281975552, -29.036722712570754 ], [ -71.564890150972886, -29.036852307660329 ], [ -71.564911283610982, -29.036963867487628 ], [ -71.564957802399007, -29.037072456908021 ], [ -71.565046128366419, -29.037189642894784 ], [ -71.565138524651346, -29.037310644537918 ], [ -71.565172007553542, -29.037429955573806 ], [ -71.565221226156794, -29.037579305649711 ], [ -71.565317557684708, -29.037707815974986 ], [ -71.565427302837804, -29.037842043628448 ], [ -71.565493059308466, -29.03792286985599 ], [ -71.565516548573569, -29.038002483176896 ], [ -71.565518215742415, -29.03810004428296 ], [ -71.565489040942367, -29.0381735041165 ], [ -71.565473995449523, -29.03829380388617 ], [ -71.565482783559574, -29.038484440308761 ], [ -71.56550030030202, -29.038582456250161 ], [ -71.565577142600603, -29.038649668776145 ], [ -71.56567936833089, -29.038745471067557 ], [ -71.56579761747517, -29.03883708880862 ], [ -71.565853842120802, -29.038889779786842 ], [ -71.565874575282564, -29.039043609950902 ], [ -71.565870441862472, -29.039154936243445 ], [ -71.565792682428594, -29.039254863604114 ], [ -71.565748518909245, -29.039304675228784 ], [ -71.565690254426244, -29.039454670454685 ], [ -71.565647067746056, -29.039620598291616 ], [ -71.565683825256386, -29.039770244910059 ], [ -71.565801730432099, -29.039871140142466 ], [ -71.5659579994647, -29.039935986974346 ], [ -71.566109674793736, -29.03998212778874 ], [ -71.566268527908093, -29.039977395647444 ], [ -71.566402684403968, -29.039925519482942 ], [ -71.566549646697254, -29.039813645300665 ], [ -71.566679897115591, -29.039724509763722 ], [ -71.56681646491613, -29.039607693857924 ], [ -71.566897440112442, -29.039563580192215 ], [ -71.567001563005448, -29.039608356068371 ], [ -71.567125785677959, -29.03968156983095 ], [ -71.56725426059127, -29.03978276675651 ], [ -71.567409153009052, -29.039884720290207 ], [ -71.567548857669507, -29.040066891922073 ], [ -71.567701577524417, -29.040157818666891 ], [ -71.567845287618681, -29.040270125272098 ], [ -71.567898724214487, -29.040379844037069 ], [ -71.567992660382089, -29.040505148570848 ], [ -71.568094001631891, -29.040652302952086 ], [ -71.56821889285456, -29.040828981901303 ], [ -71.568388028320442, -29.040920379415365 ], [ -71.56857330992041, -29.041019450473229 ], [ -71.568715953248216, -29.041160575366838 ], [ -71.568785537220435, -29.041277969236635 ], [ -71.568839243375479, -29.041380482661303 ], [ -71.568885009615514, -29.041475555880513 ], [ -71.568911421371055, -29.041649412585766 ], [ -71.568856032170657, -29.041813712833388 ], [ -71.568814650112003, -29.042043327354818 ], [ -71.568746487639444, -29.042227905156718 ], [ -71.568734354484221, -29.042326685493645 ], [ -71.56874505548187, -29.042418684283497 ], [ -71.568790329468825, -29.042491848402285 ], [ -71.5688314334176, -29.042525242582435 ], [ -71.568909379651984, -29.04255473631973 ], [ -71.568993057346447, -29.042581914650452 ], [ -71.56911394477396, -29.042595291085 ], [ -71.569302141047402, -29.042620508208266 ], [ -71.569479700815975, -29.042628072366288 ], [ -71.569677091682706, -29.042633726629788 ], [ -71.569836831417859, -29.04258569177874 ], [ -71.569975696105089, -29.042589668760375 ], [ -71.570117121205172, -29.042591540664059 ], [ -71.570266550441033, -29.042578386086074 ], [ -71.570438516590102, -29.042626896311887 ], [ -71.570586470518165, -29.042720482650164 ], [ -71.570764504383661, -29.042806213556158 ], [ -71.570933299935703, -29.043007179572012 ], [ -71.571054654615978, -29.043234027186767 ], [ -71.571133556987775, -29.043382296170709 ], [ -71.571202622470338, -29.043528104058648 ], [ -71.571290095774827, -29.04364610901543 ], [ -71.571364627200467, -29.043711440639552 ], [ -71.571467324027566, -29.043753607730718 ], [ -71.57156627218167, -29.043762978291525 ], [ -71.571676291227405, -29.043674599020488 ], [ -71.571890400385911, -29.043523823567899 ], [ -71.571996755764872, -29.04343315615203 ], [ -71.572101089161634, -29.043364227592416 ], [ -71.572187094551168, -29.043320925445759 ], [ -71.572306283811727, -29.043319978063675 ], [ -71.572472911055129, -29.043311672176213 ], [ -71.572619134859423, -29.043318036628435 ], [ -71.572726732077854, -29.043294965885053 ], [ -71.572835458464525, -29.043241417385943 ], [ -71.572889873288062, -29.043179776141617 ], [ -71.572936110853064, -29.043021596624694 ], [ -71.573070678067666, -29.042954585688314 ], [ -71.573193655767128, -29.042985346121785 ], [ -71.573268371365856, -29.042978767114327 ], [ -71.57338149186107, -29.042940598761533 ], [ -71.57347078355842, -29.042875597594882 ], [ -71.5735433613212, -29.042792683483839 ], [ -71.573603138429419, -29.042720299709881 ], [ -71.573677013196132, -29.042614302822145 ], [ -71.57370312230961, -29.042512625503775 ], [ -71.573697720786811, -29.042390433211537 ], [ -71.573702823202638, -29.042185730395282 ], [ -71.573723731204808, -29.042090442295059 ], [ -71.573750522742728, -29.041970199159937 ], [ -71.573816306536955, -29.041869657243289 ], [ -71.573894247265443, -29.041776000687914 ], [ -71.574001620479848, -29.041691903084768 ], [ -71.57410554662394, -29.041633857589765 ], [ -71.574278603159158, -29.041518950657576 ], [ -71.574454670848098, -29.041431678619524 ], [ -71.574641825769689, -29.041277736416394 ], [ -71.574811295839737, -29.041134665322861 ], [ -71.574995221054749, -29.041067864028957 ], [ -71.575324055284923, -29.041054513125591 ], [ -71.575742536586986, -29.041070275957832 ], [ -71.575936882475347, -29.041072040948066 ], [ -71.576506208069588, -29.041185435145653 ], [ -71.576782698525719, -29.041247731966852 ], [ -71.576966607990769, -29.041300581769558 ], [ -71.577112338391856, -29.041338742896226 ], [ -71.577370339768393, -29.04148209580713 ], [ -71.577605386453371, -29.041617992899837 ], [ -71.577684199405297, -29.04179021662128 ], [ -71.57780169409375, -29.041963545769551 ], [ -71.577924411192711, -29.042205012409593 ], [ -71.578009705016584, -29.042411415746827 ], [ -71.578137702831654, -29.042510257163496 ], [ -71.578323122667982, -29.042522355849375 ], [ -71.578572191080184, -29.042488681022835 ], [ -71.578749442035715, -29.042510785237663 ], [ -71.578873252370229, -29.042544691696957 ], [ -71.5789764025279, -29.042561655679908 ], [ -71.579059649318708, -29.042613091669445 ], [ -71.579154806659872, -29.042702243941175 ], [ -71.579249790822189, -29.042796063344841 ], [ -71.579293493281483, -29.042909442529901 ], [ -71.579354458982806, -29.043019001489249 ], [ -71.579309300687555, -29.043129482236427 ], [ -71.579229623378467, -29.043197287445881 ], [ -71.579153766209359, -29.043315435106564 ], [ -71.579136503386053, -29.043422400087469 ], [ -71.579115891560946, -29.043547957744064 ], [ -71.579154277958423, -29.043661184720921 ], [ -71.579228688177466, -29.043735728174486 ], [ -71.579334651697607, -29.043820517493611 ], [ -71.579399378791777, -29.043869087717518 ], [ -71.579521310208833, -29.043881914953761 ], [ -71.579651734548392, -29.043880968792241 ], [ -71.579754558052613, -29.0438348497409 ], [ -71.579842296054338, -29.04376493892477 ], [ -71.579966040982981, -29.043728761086253 ], [ -71.580064134046353, -29.043738571173492 ], [ -71.580197939522733, -29.043825034700561 ], [ -71.58030664816232, -29.043907565694617 ], [ -71.580397872673757, -29.043959228078243 ], [ -71.580476668310652, -29.043987174902941 ], [ -71.580566356546356, -29.044008425211985 ], [ -71.580672424888888, -29.044018463082505 ], [ -71.580799672866192, -29.044031441303396 ], [ -71.580950257083288, -29.043989020798065 ], [ -71.581042275192388, -29.043947264563155 ], [ -71.581150415369606, -29.043901295709009 ], [ -71.581269867826336, -29.043856050097933 ], [ -71.58137489439045, -29.043947418546274 ], [ -71.58142294778861, -29.044013586429486 ], [ -71.581305574253008, -29.044094945796971 ], [ -71.581262939638989, -29.044168481646878 ], [ -71.581210738576544, -29.044226819707124 ], [ -71.581197775219863, -29.044289522551313 ], [ -71.581194410113127, -29.044380531929697 ], [ -71.581211722497599, -29.044416067502592 ], [ -71.581209411731393, -29.044478555545563 ], [ -71.581097230056415, -29.044489887448584 ], [ -71.581052040703682, -29.044488596881248 ], [ -71.580932577217396, -29.044552930151312 ], [ -71.58089739943739, -29.044640694813772 ], [ -71.580852278906903, -29.0447094872838 ], [ -71.580808867109113, -29.044804025393422 ], [ -71.580794436827745, -29.044906399357561 ], [ -71.58081687655897, -29.045019170111541 ], [ -71.580834661383491, -29.045121082444609 ], [ -71.580901704210731, -29.045179062283609 ], [ -71.580968660482512, -29.045239375687402 ], [ -71.581054914593437, -29.045281550994432 ], [ -71.581172377130116, -29.045343306975816 ], [ -71.581309914058764, -29.045365922383144 ], [ -71.581442134671306, -29.045388386414036 ], [ -71.581588596494427, -29.045385560145711 ], [ -71.581720488838684, -29.04534494162823 ], [ -71.581800596941591, -29.045265466982318 ], [ -71.581878219463761, -29.045181249943116 ], [ -71.581938614701812, -29.045059164734099 ], [ -71.581983664919477, -29.044920287986091 ], [ -71.582029734368291, -29.044825826509374 ], [ -71.582094064996696, -29.044741229101561 ], [ -71.582176226901083, -29.0446781663975 ], [ -71.58228358461119, -29.044682981131352 ], [ -71.58240628747906, -29.044701960320747 ], [ -71.582473233582562, -29.044807532552923 ], [ -71.582513678726883, -29.044937169503857 ], [ -71.582551896209338, -29.04505506242684 ], [ -71.582589941627077, -29.045177622516373 ], [ -71.582624866698552, -29.045324749161381 ], [ -71.582620381284983, -29.045446095235274 ], [ -71.582599428154211, -29.045580986641323 ], [ -71.582563561870032, -29.045687420420133 ], [ -71.582547494130253, -29.04583413187963 ], [ -71.582567769138123, -29.045938797002474 ], [ -71.58261173549981, -29.046045173961943 ], [ -71.582637093982157, -29.04615101952086 ], [ -71.58266897712582, -29.046224346804767 ], [ -71.582736020621837, -29.046282324727176 ], [ -71.582823469163188, -29.046364245930857 ], [ -71.582912296049926, -29.046408830481493 ], [ -71.58297599252252, -29.046485401875596 ], [ -71.583035533596984, -29.046614533029178 ], [ -71.583066813165274, -29.046704195357915 ], [ -71.583119703872171, -29.046785129735966 ], [ -71.583157421464833, -29.046844607357215 ], [ -71.583244524518761, -29.046935862634378 ], [ -71.58333489045026, -29.047010858692072 ], [ -71.583475864734083, -29.047012545371452 ], [ -71.583675750871379, -29.047004233677679 ], [ -71.583824198513582, -29.046947732150631 ], [ -71.584011498644429, -29.046847955482676 ], [ -71.584157200581075, -29.046793712109956 ], [ -71.584344570709987, -29.046709239617325 ], [ -71.584454589020964, -29.04664928899227 ], [ -71.584569619172456, -29.046615768068492 ], [ -71.584651825030093, -29.046660173121275 ], [ -71.584787293205181, -29.046721870361218 ], [ -71.584948050107045, -29.046747487030451 ], [ -71.585097618343269, -29.04675175338318 ], [ -71.585200101857353, -29.046733646953619 ], [ -71.585305494178613, -29.046636759803388 ], [ -71.585386373516627, -29.046554946233204 ], [ -71.585384271163818, -29.046449735828396 ], [ -71.585388150956391, -29.046344696144473 ], [ -71.585362118065689, -29.046238802882318 ], [ -71.585264680433824, -29.046120358500211 ], [ -71.585185966996008, -29.045981417538897 ], [ -71.585111296863417, -29.045895167082307 ], [ -71.585060750705708, -29.045804347340564 ], [ -71.585024825557269, -29.045724236257481 ], [ -71.585031472199489, -29.045623838706323 ], [ -71.585029505425425, -29.045518036583921 ], [ -71.585032646857286, -29.045433013412012 ], [ -71.585087819660004, -29.045304360098058 ], [ -71.585162540324276, -29.04519042960743 ], [ -71.585177515647104, -29.045103164992163 ], [ -71.58520840225593, -29.044982825030115 ], [ -71.585177276774203, -29.044871032615632 ], [ -71.585165362529182, -29.044795896910742 ], [ -71.585121993668437, -29.044692479977517 ], [ -71.585108953837803, -29.044568307835561 ], [ -71.585112760233187, -29.044465249654703 ], [ -71.585116187218716, -29.044372497177086 ], [ -71.585160607548573, -29.04428349356181 ], [ -71.585194619763627, -29.044158084925179 ], [ -71.585195396218111, -29.044057518975933 ], [ -71.585195779185369, -29.043970768178131 ], [ -71.585200918544132, -29.043831639026514 ], [ -71.585203393908387, -29.043764651767958 ], [ -71.585168095708454, -29.043686269658522 ], [ -71.5851077177024, -29.043571063278915 ], [ -71.585049512923845, -29.043476552529469 ], [ -71.585029746709267, -29.043375401650895 ], [ -71.585003539348108, -29.043289540967635 ], [ -71.585010433675407, -29.043187547315714 ], [ -71.585060722615594, -29.043098711260456 ], [ -71.585094354235977, -29.04298360837192 ], [ -71.585129222975254, -29.042835010952437 ], [ -71.585184064253895, -29.042702458809863 ], [ -71.585189585189667, -29.042553024794007 ], [ -71.585224168113015, -29.042412156658305 ], [ -71.585243034467268, -29.042299854107625 ], [ -71.585254424208998, -29.042150586694138 ], [ -71.585270176801544, -29.041962756975117 ], [ -71.585285739661899, -29.041780080106438 ], [ -71.58529400471194, -29.041635882246688 ], [ -71.585323800681664, -29.041472756712992 ], [ -71.585372106283785, -29.04135807204889 ], [ -71.585431863889539, -29.041251451679123 ], [ -71.58553743592681, -29.041177088368268 ], [ -71.58569402629206, -29.04115318450668 ], [ -71.585848062009916, -29.041118890557733 ], [ -71.586013645619147, -29.041090085149253 ], [ -71.586160384723911, -29.041094270766376 ], [ -71.586327666247243, -29.041099041868723 ], [ -71.586437759782825, -29.041140868974413 ], [ -71.586561291288746, -29.041216608634709 ], [ -71.586690215693679, -29.041305398686365 ], [ -71.586809569469267, -29.04137587095537 ], [ -71.586955832838967, -29.041392937840435 ], [ -71.587131443534403, -29.041410841646943 ], [ -71.58721314149588, -29.041426066679932 ], [ -71.587296727503286, -29.041469716567757 ], [ -71.587386754299459, -29.041498075206231 ], [ -71.587472324332666, -29.041567573432662 ], [ -71.587552120420568, -29.041634327763198 ], [ -71.587582486760567, -29.04176673101253 ], [ -71.587586076654063, -29.041920476391791 ], [ -71.587610477427418, -29.042055288680032 ], [ -71.587639145443575, -29.042154114155309 ], [ -71.587671224499019, -29.042240141599205 ], [ -71.587725083643505, -29.042293259929377 ], [ -71.587811320152511, -29.042344722866876 ], [ -71.587937897410541, -29.042338014420892 ], [ -71.588061443886758, -29.042333799069151 ], [ -71.588144474719982, -29.04231295344314 ], [ -71.588208374214304, -29.042332829480916 ], [ -71.588311934359794, -29.042392523461654 ], [ -71.588446838692775, -29.042431098183449 ], [ -71.588575576626965, -29.042525039058933 ], [ -71.588704504299315, -29.042613826046296 ], [ -71.588829832871753, -29.042720564664645 ], [ -71.58893585285476, -29.042793223482796 ], [ -71.589053232828221, -29.042876522557513 ], [ -71.589190966275368, -29.042965560447858 ], [ -71.589294147562271, -29.043035559300876 ], [ -71.589383795149956, -29.043074222203515 ], [ -71.589473349081587, -29.043115461444785 ], [ -71.589571706988096, -29.043156951133216 ], [ -71.589659180805469, -29.043174919202141 ], [ -71.589800052730865, -29.043178933349555 ], [ -71.589895290888322, -29.043177198414615 ], [ -71.590011269826419, -29.043139236249676 ], [ -71.590098946037244, -29.043072096889304 ], [ -71.590154624666141, -29.042996308622346 ], [ -71.59019289671383, -29.042834912277268 ], [ -71.590167446232769, -29.042728441419591 ], [ -71.590113217635945, -29.042605676498138 ], [ -71.590031625136476, -29.0425079226133 ], [ -71.58987567062232, -29.042269976562537 ], [ -71.589778847638129, -29.042107309864026 ], [ -71.589711467108472, -29.041942902257016 ], [ -71.589671342700839, -29.041836013463765 ], [ -71.589575060383467, -29.04167375472062 ], [ -71.589451678355218, -29.041499283773732 ], [ -71.589332663249451, -29.041366380238848 ], [ -71.589272786611176, -29.041229982144184 ], [ -71.58920283917665, -29.041046672390248 ], [ -71.589102655527228, -29.040883222840851 ], [ -71.588995812629179, -29.040740305369781 ], [ -71.588930806457043, -29.040583038489281 ], [ -71.588850790475917, -29.040352817692352 ], [ -71.58878938689702, -29.040257819117041 ], [ -71.588726281677594, -29.040023901796754 ], [ -71.588679030459105, -29.039848391010164 ], [ -71.588627651883712, -29.039672762236602 ], [ -71.588550030087021, -29.039536298190587 ], [ -71.588479594278397, -29.039429065218087 ], [ -71.588396104599482, -29.039339603643619 ], [ -71.588365799008116, -29.039216336767613 ], [ -71.588377612672716, -29.039068646061232 ], [ -71.588421268278793, -29.038932271600025 ], [ -71.588442880351764, -29.038839146777192 ], [ -71.588487921783596, -29.038726745979186 ], [ -71.588459312602879, -29.03864016733457 ], [ -71.588385682670079, -29.038542333518503 ], [ -71.588277863311433, -29.038440126107552 ], [ -71.588219089896597, -29.038370637504482 ], [ -71.588213028135925, -29.038288691122617 ], [ -71.588230846736082, -29.038113685357423 ], [ -71.588256935248879, -29.037960854352413 ], [ -71.588267641039977, -29.037855452058938 ], [ -71.588275526713403, -29.037760604604934 ], [ -71.588231336994141, -29.037603775660834 ], [ -71.588153990106036, -29.037422067371104 ], [ -71.58806983395597, -29.037240164650996 ], [ -71.587957479892367, -29.037015737379942 ], [ -71.587932205028807, -29.036912925910983 ], [ -71.58791892184307, -29.036800246989248 ], [ -71.587918009090913, -29.036667503175941 ], [ -71.587939574734449, -29.036555817659757 ], [ -71.58800349169762, -29.036399399494968 ], [ -71.588079401052497, -29.036233113835362 ], [ -71.588136379619925, -29.03610712467648 ], [ -71.588176310981396, -29.035970440505206 ], [ -71.588215865563313, -29.035843954632337 ], [ -71.588245101848088, -29.035706781139623 ], [ -71.588250345867948, -29.03562544035362 ], [ -71.588279134825925, -29.035549089765858 ], [ -71.588364447904922, -29.035456811499085 ], [ -71.58846141083184, -29.035373635369154 ], [ -71.588552127736961, -29.035297295768071 ], [ -71.588630079668718, -29.035189116322837 ], [ -71.588690154863031, -29.03505650265749 ], [ -71.588765100014299, -29.034928718020304 ], [ -71.588853060343467, -29.034788090807069 ], [ -71.588905850023806, -29.034716927998769 ], [ -71.588957557727895, -29.034670182474439 ], [ -71.589021364407955, -29.034608265681424 ], [ -71.589077755884844, -29.034547218071815 ], [ -71.589136127117726, -29.034499190175488 ], [ -71.589191921899555, -29.034454329613393 ], [ -71.589336976057169, -29.034352342957597 ], [ -71.589479682198743, -29.034309941946667 ], [ -71.589611470187336, -29.034276523446167 ], [ -71.589778163742039, -29.034253393748074 ], [ -71.589924850393118, -29.03419871366108 ], [ -71.590148853369428, -29.034152433155842 ], [ -71.590303944897002, -29.034156853125275 ], [ -71.590487576067247, -29.034152792702034 ], [ -71.590648270779155, -29.03415744603997 ], [ -71.590770423888728, -29.034177643802806 ], [ -71.590864463441221, -29.034209198444877 ], [ -71.590958551284245, -29.034286346067461 ], [ -71.591019057810826, -29.034382292967493 ], [ -71.591103268344384, -29.034492593885812 ], [ -71.591165615885046, -29.034585553496562 ], [ -71.591226738070148, -29.034664801340551 ], [ -71.591304378545814, -29.034740726289154 ], [ -71.591440583818553, -29.034802356251792 ], [ -71.591600499153131, -29.034831227706647 ], [ -71.591749206485886, -29.034835464299348 ], [ -71.591923796452534, -29.034841956887639 ], [ -71.592081485625883, -29.034837330652092 ], [ -71.592197818260203, -29.03484380304155 ], [ -71.592312467406899, -29.034799367139449 ], [ -71.592415145141459, -29.034725969472596 ], [ -71.592530295001225, -29.034609040873104 ], [ -71.59261120022073, -29.034477781572981 ], [ -71.592701548142969, -29.034291492161579 ], [ -71.592773620810348, -29.034147043267907 ], [ -71.59280448038227, -29.033913520445971 ], [ -71.59276488667625, -29.033780541611897 ], [ -71.59262527985841, -29.033644715058589 ], [ -71.592439425387596, -29.033556403831451 ], [ -71.59222578965506, -29.033467301809299 ], [ -71.592089760946791, -29.033385292523732 ], [ -71.591943340611664, -29.033283454393874 ], [ -71.591804635738185, -29.033123235628661 ], [ -71.591722033703491, -29.03294996359547 ], [ -71.591643368433836, -29.032820755283517 ], [ -71.591369515266791, -29.032705518547104 ], [ -71.591188363247923, -29.032590985325879 ], [ -71.591021159665971, -29.032449486748419 ], [ -71.590890893573786, -29.032211372689748 ], [ -71.590756511191827, -29.031934073957071 ], [ -71.590669255446343, -29.031736252753884 ], [ -71.590576894804045, -29.031511080846936 ], [ -71.590459543106249, -29.031224499717709 ], [ -71.59040006956738, -29.031027470073742 ], [ -71.590358343636993, -29.030801644763418 ], [ -71.590342624053022, -29.030474010736267 ], [ -71.590404377193209, -29.029603065238472 ], [ -71.59035289536773, -29.029295036457381 ], [ -71.590219513225605, -29.02893562450501 ], [ -71.590121657519887, -29.028748898303071 ], [ -71.589990957377637, -29.028506055311247 ], [ -71.589920779204562, -29.028326249041818 ], [ -71.589935060525349, -29.028173309937113 ], [ -71.589914470597577, -29.027985441174071 ], [ -71.589830237902547, -29.027844088313579 ], [ -71.589770827133862, -29.027775939374642 ], [ -71.58964023222677, -29.02777221679197 ], [ -71.589535794309398, -29.027805487249214 ], [ -71.589396321406227, -29.02785588317894 ], [ -71.58927059460845, -29.027906670593673 ], [ -71.589127142981482, -29.027878415624322 ], [ -71.58898480615845, -29.027819984427115 ], [ -71.588890136963215, -29.02777499537218 ], [ -71.588718016469343, -29.027735373292348 ], [ -71.588608767454815, -29.027748864291908 ], [ -71.588521908739295, -29.027796207016141 ], [ -71.588416234225235, -29.027840936412279 ], [ -71.588285346580378, -29.027864188313718 ], [ -71.588197505143953, -29.027874138687004 ], [ -71.58811012297781, -29.027871646469599 ], [ -71.588040191330208, -29.027844742491698 ], [ -71.588005084202507, -29.027771088684897 ], [ -71.588005555303369, -29.02769429713512 ], [ -71.588045869089939, -29.027626945749745 ], [ -71.588126177569833, -29.027564887306031 ], [ -71.588158716040482, -29.027515996656824 ], [ -71.588196475466219, -29.027382985318017 ], [ -71.588173017403861, -29.027214871534273 ], [ -71.58811651462706, -29.027023489024174 ], [ -71.588063147643211, -29.026861963365089 ], [ -71.588016875939616, -29.026737850933291 ], [ -71.588010488812245, -29.026566502355259 ], [ -71.588008943186637, -29.026466474514844 ], [ -71.588019712881049, -29.026332536492479 ], [ -71.588030711801466, -29.02623184736391 ], [ -71.588012535429542, -29.02608689963516 ], [ -71.587976805122707, -29.025994207182787 ], [ -71.587889010254699, -29.025897737115397 ], [ -71.58780628413983, -29.025797575308346 ], [ -71.587754318388974, -29.025720461992272 ], [ -71.587755176863951, -29.025626521189945 ], [ -71.587747211846064, -29.025488783751079 ], [ -71.58775631547671, -29.025383618836976 ], [ -71.587730255376201, -29.025311828373638 ], [ -71.587602758094775, -29.0252302682436 ], [ -71.587481646611764, -29.025187852566926 ], [ -71.587359350766562, -29.02517748787109 ], [ -71.587267753317406, -29.025184042238074 ], [ -71.587193814953437, -29.025207142736409 ], [ -71.587106586787485, -29.025236740023296 ], [ -71.587040061994884, -29.025200464584906 ], [ -71.586936624694999, -29.025103548274807 ], [ -71.586893566552035, -29.025067941929258 ], [ -71.586839507156725, -29.02495692419739 ], [ -71.586769134644769, -29.024812822150754 ], [ -71.586737042343557, -29.024621683910286 ], [ -71.586688967047309, -29.024439255761845 ], [ -71.586661836042879, -29.024255134087586 ], [ -71.586641973532551, -29.02414536628303 ], [ -71.586594222733808, -29.024024827856518 ], [ -71.586511645523004, -29.023928506103154 ], [ -71.586394073825574, -29.0238609787631 ], [ -71.586316867313542, -29.023831273913341 ], [ -71.58625066751533, -29.023856886907954 ], [ -71.58611489896559, -29.023928642818241 ], [ -71.586020948335047, -29.023928253916718 ], [ -71.585886717342078, -29.023887753759986 ], [ -71.585690510831256, -29.023870387946662 ], [ -71.585453914992073, -29.02384529995263 ], [ -71.585206143952519, -29.023769472251615 ], [ -71.585029279399222, -29.023681917395319 ], [ -71.584874898054636, -29.023480411362282 ], [ -71.584763319169539, -29.023321379466797 ], [ -71.584682976641062, -29.023277206515711 ], [ -71.584570098226962, -29.023294610484996 ], [ -71.584467056767252, -29.023328338040056 ], [ -71.584373191192086, -29.02332565858455 ], [ -71.58419018283962, -29.023263136933366 ], [ -71.584003482997758, -29.023159256004561 ], [ -71.583823929012127, -29.023073913563085 ], [ -71.583607847918884, -29.022954366766982 ], [ -71.583422673340621, -29.022809275438899 ], [ -71.583327910300468, -29.022689684356379 ], [ -71.583241375377554, -29.022629916762117 ], [ -71.583118152833805, -29.022644731894452 ], [ -71.582979722611668, -29.022650890580504 ], [ -71.58290033606356, -29.022535376775522 ], [ -71.582795974283968, -29.022463640765476 ], [ -71.582634995387295, -29.022440706910743 ], [ -71.582482497909311, -29.022470728404187 ], [ -71.582384230093126, -29.022473700883374 ], [ -71.582274598256447, -29.022472173827012 ], [ -71.582194957364152, -29.022450635874108 ], [ -71.582114023002305, -29.022414614183987 ], [ -71.582065486657797, -29.022392358920545 ], [ -71.582022653973567, -29.022387386553923 ], [ -71.581930110055993, -29.022389816520313 ], [ -71.581871356084321, -29.022416043759623 ], [ -71.58180720462488, -29.02243196896946 ], [ -71.581749855880403, -29.022420183275344 ], [ -71.58169213333808, -29.022418533585103 ], [ -71.581628544594793, -29.022419253725779 ], [ -71.581590929955468, -29.022420715748517 ], [ -71.581567560071875, -29.022427658421108 ], [ -71.581490196390689, -29.022410226847448 ], [ -71.581439182697167, -29.022383400198365 ], [ -71.58139375436339, -29.022361806616921 ], [ -71.581316391779225, -29.022344374918248 ], [ -71.58123093155406, -29.02231148880119 ], [ -71.581159246274225, -29.02229675612579 ], [ -71.581126936091167, -29.022311054050537 ], [ -71.581074703930696, -29.022317172130204 ], [ -71.581004968089147, -29.022327863837344 ], [ -71.58079587588162, -29.022353604646323 ], [ -71.580612649752553, -29.022309411107969 ], [ -71.58051043691178, -29.022274025602101 ], [ -71.580404743845307, -29.0222754469725 ], [ -71.580319612488509, -29.022336680597395 ], [ -71.580291391137322, -29.022399540413531 ], [ -71.580238142516123, -29.022438946477603 ], [ -71.580210592978915, -29.022483635776371 ], [ -71.580087543127277, -29.022565738329337 ], [ -71.580033344164704, -29.022514949249246 ], [ -71.579899333612602, -29.022497475757003 ], [ -71.579752454563234, -29.022547848706839 ], [ -71.57962711048151, -29.022576098587631 ], [ -71.579511104778661, -29.022631901511122 ], [ -71.579436992545197, -29.022675258773148 ], [ -71.579351524752198, -29.022745577081537 ], [ -71.579262562912305, -29.022770318574835 ], [ -71.57917776698531, -29.022822466273823 ], [ -71.579073452861664, -29.022842221608389 ], [ -71.57893843331297, -29.022852003852542 ], [ -71.578780773010081, -29.02287363063806 ], [ -71.578689156094242, -29.02287770406835 ], [ -71.578587635787912, -29.022874801286967 ], [ -71.578480873237751, -29.022876210131724 ], [ -71.578364040979224, -29.022875099620133 ], [ -71.578254905756154, -29.022871978360055 ], [ -71.578163949012676, -29.022858223046171 ], [ -71.578046126918409, -29.02288385527849 ], [ -71.577977353584615, -29.022888581171387 ], [ -71.577815369358675, -29.022900728416676 ], [ -71.577757076994246, -29.022836925585789 ], [ -71.57766003779173, -29.0227666569223 ], [ -71.577565380140413, -29.022708954824985 ], [ -71.577448342137913, -29.022640614308052 ], [ -71.57730864502139, -29.022569125443692 ], [ -71.577140787699861, -29.022489330847929 ], [ -71.577011626059516, -29.022417035032834 ], [ -71.57692577791579, -29.022352085442677 ], [ -71.576843236581922, -29.022274731501462 ], [ -71.576772717976496, -29.02218022324675 ], [ -71.576719262564453, -29.022086203915723 ], [ -71.576631957980283, -29.021983715597774 ], [ -71.576617329750405, -29.021912084794348 ], [ -71.576637629747452, -29.02182517501759 ], [ -71.576688841901486, -29.021749147762925 ], [ -71.576723638615945, -29.021655153388316 ], [ -71.576770364837529, -29.021546500868219 ], [ -71.576803242823161, -29.021427453881287 ], [ -71.576839196488024, -29.021299472929833 ], [ -71.576837578805112, -29.021189437827474 ], [ -71.576830826765118, -29.021064257439221 ], [ -71.576803244564701, -29.020963478256999 ], [ -71.576769325874608, -29.020880016637502 ], [ -71.57673906151021, -29.020851653275901 ], [ -71.576640083107748, -29.02083382259114 ], [ -71.576541103707839, -29.020815991850874 ], [ -71.57645303853711, -29.020810972644597 ], [ -71.576363507730207, -29.020837567001532 ], [ -71.576254804052212, -29.020782802690537 ], [ -71.576172171561637, -29.020707945224878 ], [ -71.576060841816826, -29.020609746817801 ], [ -71.575974413181285, -29.020483968584738 ], [ -71.575917375797275, -29.020409843188681 ], [ -71.57585335612977, -29.020370515205375 ], [ -71.575712368646776, -29.020333983365887 ], [ -71.575548630584862, -29.020296800700894 ], [ -71.575449098034383, -29.020293952021856 ], [ -71.575380384146058, -29.02030448404825 ], [ -71.575312133116157, -29.020302530103621 ], [ -71.575256366636637, -29.020270936983934 ], [ -71.575160232932589, -29.020253186831408 ], [ -71.57505216852617, -29.020250093721657 ], [ -71.574935387261704, -29.020251750388432 ], [ -71.574852824501733, -29.020251887492851 ], [ -71.574769799777698, -29.020264508662454 ], [ -71.574710794817477, -29.020320314135379 ], [ -71.57463266882904, -29.020395838237238 ] ] ] ] } }
]
}
