{
"type": "FeatureCollection",
"name": "turismo_atractivos_turisticos",
"crs": { "type": "name", "properties": { "name": "urn:ogc:def:crs:OGC:1.3:CRS84" } },
"features": [
{ "type": "Feature", "properties": { "fid": 832, "CODATRAC": "R040015", "JERARQUIA": "LOCAL", "CATEGORIA": "SITIOS NATURALES", "TIPO": "COSTA", "SUBTIPO": "BAHÍA O CALETA", "NOMBRE": "BAHÍA CHOROS", "REGION": "REGIÓN DE COQUIMBO", "PROVINCIA": "ELQUI", "COMUNA": "LA HIGUERA", "LOCALIDAD": "PUNTA DE CHOROS", "DIRECCION": null, "TELEFONO": null, "PROPIEDAD": "PÚBLICA", "ADMINISTRA": "PÚBLICA", "DISTCR": "0", "CR": "LA SERENA", "DISTCC": "0", "CC": "LA HIGUERA", "LOC_URBANA": null, "ESTACIONAL": "TODO EL AÑO", "USO_TUR": "ACTUAL", "DEMANDA": "LOCAL", "SERVICIOS": null, "COD_REG": 4, "COD_PROV": 41, "COD_COM": 4104, "DESCRIPCIO": "La Bahía de los Choros, alberga una caleta del mismo nombre en donde sus habitantes viven de la pesca y extracción de mariscos.  Esta bahía esta provista de una serie de hermosos playas, las que resguardan restos de antiguos asentamientos indígenas.", "ESTADO_1": "BUENA", "POINT_X": -71.467344827999995, "POINT_Y": -29.222451617800001, "Descripcion": "El Servicio Nacional de Turismo (Sernatur) cuenta con un catastro de atractivos turísticos a nivel nacional, el cual se elabora y actualiza en conjunto con las Direcciones Regionales de Sernatur, tomando como base la metodología diseñada para elaborar inventarios turísticos, desarrollada en la década del 70 por el Centro Interamericano de Capacitación Turística (CICATUR) con el apoyo de la Organización de Estados Americanos (OEA). Los atractivos turísticos son elementos determinantes para motivar, por sí solos o en combinación con otros la elección del destino de la actividad turística. Éstos se encuentran jerarquizados según el perfil del visitante y clasificados para establecer su interés turístico. El catastro se encuentra a nivel nacional, provincial, regional y comunal. Actualizacion al 2024", "Origen Data": "Portal de area de Destinos de Sernatur, disponible en: https://www.sernatur.cl/destinos/" }, "geometry": { "type": "Point", "coordinates": [ -71.467344827999966, -29.222451617804406, 0.0 ] } },
{ "type": "Feature", "properties": { "fid": 845, "CODATRAC": "R040033", "JERARQUIA": "LOCAL", "CATEGORIA": "SITIOS NATURALES", "TIPO": "COSTA", "SUBTIPO": "BAHÍA O CALETA", "NOMBRE": "CALETA HORNOS", "REGION": "REGIÓN DE COQUIMBO", "PROVINCIA": "ELQUI", "COMUNA": "LA HIGUERA", "LOCALIDAD": "CALETA  HORNOS", "DIRECCION": null, "TELEFONO": null, "PROPIEDAD": "PÚBLICA", "ADMINISTRA": "PÚBLICA", "DISTCR": "0", "CR": "LA SERENA", "DISTCC": "0", "CC": "LA HIGUERA", "LOC_URBANA": null, "ESTACIONAL": "TODO EL AÑO", "USO_TUR": "ACTUAL", "DEMANDA": "LOCAL", "SERVICIOS": null, "COD_REG": 4, "COD_PROV": 41, "COD_COM": 4104, "DESCRIPCIO": "Este pueblo ofrece una amplia oferta gastronomica en bases de Pescados y Mariscos sus dos playas , Caleta Los Hornos, y La Despensa.", "ESTADO_1": "BUENA", "POINT_X": -71.285108215999998, "POINT_Y": -29.6238100958, "Descripcion": "El Servicio Nacional de Turismo (Sernatur) cuenta con un catastro de atractivos turísticos a nivel nacional, el cual se elabora y actualiza en conjunto con las Direcciones Regionales de Sernatur, tomando como base la metodología diseñada para elaborar inventarios turísticos, desarrollada en la década del 70 por el Centro Interamericano de Capacitación Turística (CICATUR) con el apoyo de la Organización de Estados Americanos (OEA). Los atractivos turísticos son elementos determinantes para motivar, por sí solos o en combinación con otros la elección del destino de la actividad turística. Éstos se encuentran jerarquizados según el perfil del visitante y clasificados para establecer su interés turístico. El catastro se encuentra a nivel nacional, provincial, regional y comunal. Actualizacion al 2024", "Origen Data": "Portal de area de Destinos de Sernatur, disponible en: https://www.sernatur.cl/destinos/" }, "geometry": { "type": "Point", "coordinates": [ -71.285108215999969, -29.623810095811251, 0.0 ] } },
{ "type": "Feature", "properties": { "fid": 848, "CODATRAC": "R040030", "JERARQUIA": "LOCAL", "CATEGORIA": "SITIOS NATURALES", "TIPO": "COSTA", "SUBTIPO": "BAHÍA O CALETA", "NOMBRE": "CALETA CRUZ GRANDE", "REGION": "REGIÓN DE COQUIMBO", "PROVINCIA": "ELQUI", "COMUNA": "LA HIGUERA", "LOCALIDAD": "PLAYA CHUNGUNGO", "DIRECCION": null, "TELEFONO": null, "PROPIEDAD": "PÚBLICA", "ADMINISTRA": "PÚBLICA", "DISTCR": "0", "CR": "LA SERENA", "DISTCC": "0", "CC": "LA HIGUERA", "LOC_URBANA": null, "ESTACIONAL": "TODO EL AÑO", "USO_TUR": "ACTUAL", "DEMANDA": "LOCAL", "SERVICIOS": null, "COD_REG": 4, "COD_PROV": 41, "COD_COM": 4104, "DESCRIPCIO": "Actual playa de Chungungo, antiguamente era un puerto de embarque de la mina del Tofo. El puerto se llamaba \"Caleta Cruz Grande\". Los trenes llegaban de la mina y vaciaban su contenido en los silos.", "ESTADO_1": "BUENA", "POINT_X": -71.314685948999994, "POINT_Y": -29.450526634799999, "Descripcion": "El Servicio Nacional de Turismo (Sernatur) cuenta con un catastro de atractivos turísticos a nivel nacional, el cual se elabora y actualiza en conjunto con las Direcciones Regionales de Sernatur, tomando como base la metodología diseñada para elaborar inventarios turísticos, desarrollada en la década del 70 por el Centro Interamericano de Capacitación Turística (CICATUR) con el apoyo de la Organización de Estados Americanos (OEA). Los atractivos turísticos son elementos determinantes para motivar, por sí solos o en combinación con otros la elección del destino de la actividad turística. Éstos se encuentran jerarquizados según el perfil del visitante y clasificados para establecer su interés turístico. El catastro se encuentra a nivel nacional, provincial, regional y comunal. Actualizacion al 2024", "Origen Data": "Portal de area de Destinos de Sernatur, disponible en: https://www.sernatur.cl/destinos/" }, "geometry": { "type": "Point", "coordinates": [ -71.314685948999966, -29.450526634808348, 0.0 ] } },
{ "type": "Feature", "properties": { "fid": 857, "CODATRAC": "R040040", "JERARQUIA": "LOCAL", "CATEGORIA": "SITIOS NATURALES", "TIPO": "COSTA", "SUBTIPO": "BAHÍA O CALETA", "NOMBRE": "CALETA TOTORALILLO NORTE", "REGION": "REGIÓN DE COQUIMBO", "PROVINCIA": "ELQUI", "COMUNA": "LA HIGUERA", "LOCALIDAD": "CALETA TOTORALILLO NORTE", "DIRECCION": null, "TELEFONO": null, "PROPIEDAD": "PÚBLICA", "ADMINISTRA": "PÚBLICA", "DISTCR": "0", "CR": "LA SERENA", "DISTCC": "0", "CC": "LA HIGUERA", "LOC_URBANA": null, "ESTACIONAL": "TODO EL AÑO", "USO_TUR": "ACTUAL", "DEMANDA": "LOCAL", "SERVICIOS": null, "COD_REG": 4, "COD_PROV": 41, "COD_COM": 4104, "DESCRIPCIO": "Totoralillo Norte es una caleta pesquera que se encuentra ubicada en la comuna de La Higuera. Su principal actividad es la pesca artesanal y la acuicultura, la calidad de su costa es óptima y libre de todo foco de contaminación.", "ESTADO_1": "BUENA", "POINT_X": -71.32993269000001, "POINT_Y": -29.491006365800001, "Descripcion": "El Servicio Nacional de Turismo (Sernatur) cuenta con un catastro de atractivos turísticos a nivel nacional, el cual se elabora y actualiza en conjunto con las Direcciones Regionales de Sernatur, tomando como base la metodología diseñada para elaborar inventarios turísticos, desarrollada en la década del 70 por el Centro Interamericano de Capacitación Turística (CICATUR) con el apoyo de la Organización de Estados Americanos (OEA). Los atractivos turísticos son elementos determinantes para motivar, por sí solos o en combinación con otros la elección del destino de la actividad turística. Éstos se encuentran jerarquizados según el perfil del visitante y clasificados para establecer su interés turístico. El catastro se encuentra a nivel nacional, provincial, regional y comunal. Actualizacion al 2024", "Origen Data": "Portal de area de Destinos de Sernatur, disponible en: https://www.sernatur.cl/destinos/" }, "geometry": { "type": "Point", "coordinates": [ -71.329932689999964, -29.491006365809035, 0.0 ] } },
{ "type": "Feature", "properties": { "fid": 878, "CODATRAC": "R040064", "JERARQUIA": "LOCAL", "CATEGORIA": "SITIOS NATURALES", "TIPO": "MONTAÑA", "SUBTIPO": "CERRO", "NOMBRE": "CERRO EL TOFO", "REGION": "REGIÓN DE COQUIMBO", "PROVINCIA": "ELQUI", "COMUNA": "LA HIGUERA", "LOCALIDAD": "EL TOFO", "DIRECCION": "A 15 KM AL NOROESTE DE LA HIGUERA", "TELEFONO": "(51) 213088", "PROPIEDAD": "PRIVADA", "ADMINISTRA": "PRIVADA", "DISTCR": "69", "CR": "LA SERENA", "DISTCC": "15", "CC": "LA HIGUERA", "LOC_URBANA": "LA HIGUERA", "ESTACIONAL": "TODO EL AÑO", "USO_TUR": "ACTUAL CON RESTRICCIÓN", "DEMANDA": "LOCAL", "SERVICIOS": "SIN SERVICIOS", "COD_REG": 4, "COD_PROV": 41, "COD_COM": 4104, "DESCRIPCIO": "Cerro de 800 metros de altura donde se instalaron los primeros \"atrapanieblas\", gigantescas mallas colectoras que atrapaban gotas de niebla provenientes de la costa. Esas gotas reunían un promedio de 15.000 litros de agua al día.", "ESTADO_1": "BUENA", "POINT_X": -71.256212399000006, "POINT_Y": -29.430398174800001, "Descripcion": "El Servicio Nacional de Turismo (Sernatur) cuenta con un catastro de atractivos turísticos a nivel nacional, el cual se elabora y actualiza en conjunto con las Direcciones Regionales de Sernatur, tomando como base la metodología diseñada para elaborar inventarios turísticos, desarrollada en la década del 70 por el Centro Interamericano de Capacitación Turística (CICATUR) con el apoyo de la Organización de Estados Americanos (OEA). Los atractivos turísticos son elementos determinantes para motivar, por sí solos o en combinación con otros la elección del destino de la actividad turística. Éstos se encuentran jerarquizados según el perfil del visitante y clasificados para establecer su interés turístico. El catastro se encuentra a nivel nacional, provincial, regional y comunal. Actualizacion al 2024", "Origen Data": "Portal de area de Destinos de Sernatur, disponible en: https://www.sernatur.cl/destinos/" }, "geometry": { "type": "Point", "coordinates": [ -71.256212398999935, -29.430398174807976, 0.0 ] } },
{ "type": "Feature", "properties": { "fid": 886, "CODATRAC": "R040072", "JERARQUIA": "LOCAL", "CATEGORIA": "FOLKLORE", "TIPO": "ARQUITECTURA POPULAR ESPONTÁNEA", "SUBTIPO": "PUEBLO O ALDEA TRADICIONAL", "NOMBRE": "CHUNGUNGO VIEJO", "REGION": "REGIÓN DE COQUIMBO", "PROVINCIA": "ELQUI", "COMUNA": "LA HIGUERA", "LOCALIDAD": "CHUNGUNGO VIEJO", "DIRECCION": "A 18 KM AL NOROESTE DE LA HIGUERA", "TELEFONO": "(51) 213088", "PROPIEDAD": "PÚBLICA", "ADMINISTRA": "PÚBLICA", "DISTCR": "72", "CR": "LA SERENA", "DISTCC": "18", "CC": "LA HIGUERA", "LOC_URBANA": "LA HIGUERA", "ESTACIONAL": "TODO EL AÑO", "USO_TUR": "ACTUAL", "DEMANDA": "LOCAL", "SERVICIOS": "AGUA POTABLE, ELECTRICIDAD", "COD_REG": 4, "COD_PROV": 41, "COD_COM": 4104, "DESCRIPCIO": "Pueblo de pescadores con una atractiva caleta. Fue puerto de embarque de la mina de hierro El Tofo. (El mayor atractivo es su sistema recolector de agua \"atrapanieblas\" ubicados en el cerro El Tofo.)", "ESTADO_1": "BUENA", "POINT_X": -71.298488358, "POINT_Y": -29.447801821799999, "Descripcion": "El Servicio Nacional de Turismo (Sernatur) cuenta con un catastro de atractivos turísticos a nivel nacional, el cual se elabora y actualiza en conjunto con las Direcciones Regionales de Sernatur, tomando como base la metodología diseñada para elaborar inventarios turísticos, desarrollada en la década del 70 por el Centro Interamericano de Capacitación Turística (CICATUR) con el apoyo de la Organización de Estados Americanos (OEA). Los atractivos turísticos son elementos determinantes para motivar, por sí solos o en combinación con otros la elección del destino de la actividad turística. Éstos se encuentran jerarquizados según el perfil del visitante y clasificados para establecer su interés turístico. El catastro se encuentra a nivel nacional, provincial, regional y comunal. Actualizacion al 2024", "Origen Data": "Portal de area de Destinos de Sernatur, disponible en: https://www.sernatur.cl/destinos/" }, "geometry": { "type": "Point", "coordinates": [ -71.298488357999986, -29.447801821808245, 0.0 ] } },
{ "type": "Feature", "properties": { "fid": 938, "CODATRAC": "R040125", "JERARQUIA": "LOCAL", "CATEGORIA": "ACONTECIMIENTOS PROGRAMADOS", "TIPO": "EVENTOS MISCELÁNEOS", "SUBTIPO": "FIESTA RELIGIOSA", "NOMBRE": "FIESTA DE LA VIRGEN DE LA MERCED DE LA HIGUERA", "REGION": "REGIÓN DE COQUIMBO", "PROVINCIA": "ELQUI", "COMUNA": "LA HIGUERA", "LOCALIDAD": "LA HIGUERA", "DIRECCION": null, "TELEFONO": "(51) 2213088", "PROPIEDAD": "PRIVADA", "ADMINISTRA": "PRIVADA", "DISTCR": "60", "CR": "LA SERENA", "DISTCC": "20", "CC": "LA HIGUERA", "LOC_URBANA": "LA HIGUERA", "ESTACIONAL": "SEPTIEMBRE", "USO_TUR": "ACTUAL", "DEMANDA": "LOCAL", "SERVICIOS": "SERVICIOS COMPLETOS", "COD_REG": 4, "COD_PROV": 41, "COD_COM": 4104, "DESCRIPCIO": "Liturgia oficial y procesión de la virgen, participación de Bailes Religiosos, celebrada el día 24 de Septiembre o Domingo más próximo.", "ESTADO_1": "BUENA", "POINT_X": -71.200855977000003, "POINT_Y": -29.511766254800001, "Descripcion": "El Servicio Nacional de Turismo (Sernatur) cuenta con un catastro de atractivos turísticos a nivel nacional, el cual se elabora y actualiza en conjunto con las Direcciones Regionales de Sernatur, tomando como base la metodología diseñada para elaborar inventarios turísticos, desarrollada en la década del 70 por el Centro Interamericano de Capacitación Turística (CICATUR) con el apoyo de la Organización de Estados Americanos (OEA). Los atractivos turísticos son elementos determinantes para motivar, por sí solos o en combinación con otros la elección del destino de la actividad turística. Éstos se encuentran jerarquizados según el perfil del visitante y clasificados para establecer su interés turístico. El catastro se encuentra a nivel nacional, provincial, regional y comunal. Actualizacion al 2024", "Origen Data": "Portal de area de Destinos de Sernatur, disponible en: https://www.sernatur.cl/destinos/" }, "geometry": { "type": "Point", "coordinates": [ -71.200855976999947, -29.511766254809356, 0.0 ] } },
{ "type": "Feature", "properties": { "fid": 944, "CODATRAC": "R040131", "JERARQUIA": "LOCAL", "CATEGORIA": "ACONTECIMIENTOS PROGRAMADOS", "TIPO": "EVENTOS MISCELÁNEOS", "SUBTIPO": "FIESTA RELIGIOSA", "NOMBRE": "FIESTA DE SAN JOSÉ OBRERO EN LOS CHOROS", "REGION": "REGIÓN DE COQUIMBO", "PROVINCIA": "ELQUI", "COMUNA": "LA HIGUERA", "LOCALIDAD": "LOS CHOROS", "DIRECCION": null, "TELEFONO": "(51) 2213088", "PROPIEDAD": "PRIVADA", "ADMINISTRA": "PRIVADA", "DISTCR": "98", "CR": "LA SERENA", "DISTCC": "38", "CC": "LA HIGUERA", "LOC_URBANA": "LA HIGUERA", "ESTACIONAL": "MARZO", "USO_TUR": "ACTUAL", "DEMANDA": "LOCAL", "SERVICIOS": "SERVICIOS COMPLETOS", "COD_REG": 4, "COD_PROV": 41, "COD_COM": 4104, "DESCRIPCIO": "Actividad religiosa iniciada con una Santa Misa en honor a San José Obrero, continuada de una procesión en el sector de Chepiquilla.", "ESTADO_1": "BUENA", "POINT_X": -71.466509118000005, "POINT_Y": -29.247185988799998, "Descripcion": "El Servicio Nacional de Turismo (Sernatur) cuenta con un catastro de atractivos turísticos a nivel nacional, el cual se elabora y actualiza en conjunto con las Direcciones Regionales de Sernatur, tomando como base la metodología diseñada para elaborar inventarios turísticos, desarrollada en la década del 70 por el Centro Interamericano de Capacitación Turística (CICATUR) con el apoyo de la Organización de Estados Americanos (OEA). Los atractivos turísticos son elementos determinantes para motivar, por sí solos o en combinación con otros la elección del destino de la actividad turística. Éstos se encuentran jerarquizados según el perfil del visitante y clasificados para establecer su interés turístico. El catastro se encuentra a nivel nacional, provincial, regional y comunal. Actualizacion al 2024", "Origen Data": "Portal de area de Destinos de Sernatur, disponible en: https://www.sernatur.cl/destinos/" }, "geometry": { "type": "Point", "coordinates": [ -71.466509117999976, -29.247185988804858, 0.0 ] } },
{ "type": "Feature", "properties": { "fid": 946, "CODATRAC": "R040133", "JERARQUIA": "LOCAL", "CATEGORIA": "ACONTECIMIENTOS PROGRAMADOS", "TIPO": "EVENTOS MISCELÁNEOS", "SUBTIPO": "FIESTA RELIGIOSA", "NOMBRE": "FIESTA DE SAN PEDRO DE CALETA HORNOS", "REGION": "REGIÓN DE COQUIMBO", "PROVINCIA": "ELQUI", "COMUNA": "LA HIGUERA", "LOCALIDAD": "CALETA HORNOS", "DIRECCION": null, "TELEFONO": "(51) 2213088", "PROPIEDAD": "PRIVADA", "ADMINISTRA": "PRIVADA", "DISTCR": "36", "CR": "LA SERENA", "DISTCC": "24", "CC": "LA HIGUERA", "LOC_URBANA": "LA HIGUERA", "ESTACIONAL": "JUNIO", "USO_TUR": "ACTUAL", "DEMANDA": "LOCAL", "SERVICIOS": "SERVICIOS COMPLETOS", "COD_REG": 4, "COD_PROV": 41, "COD_COM": 4104, "DESCRIPCIO": "Este pueblo ofrece una amplia oferta gastronómica en base a pescados y mariscos. Sus dos playas, Caleta Los Hornos y La Despensa, situada a unos 200 mts de distancia puede ser la delicia del visitante.", "ESTADO_1": "BUENA", "POINT_X": -71.285746246000002, "POINT_Y": -29.622849478799999, "Descripcion": "El Servicio Nacional de Turismo (Sernatur) cuenta con un catastro de atractivos turísticos a nivel nacional, el cual se elabora y actualiza en conjunto con las Direcciones Regionales de Sernatur, tomando como base la metodología diseñada para elaborar inventarios turísticos, desarrollada en la década del 70 por el Centro Interamericano de Capacitación Turística (CICATUR) con el apoyo de la Organización de Estados Americanos (OEA). Los atractivos turísticos son elementos determinantes para motivar, por sí solos o en combinación con otros la elección del destino de la actividad turística. Éstos se encuentran jerarquizados según el perfil del visitante y clasificados para establecer su interés turístico. El catastro se encuentra a nivel nacional, provincial, regional y comunal. Actualizacion al 2024", "Origen Data": "Portal de area de Destinos de Sernatur, disponible en: https://www.sernatur.cl/destinos/" }, "geometry": { "type": "Point", "coordinates": [ -71.285746245999974, -29.622849478811258, 0.0 ] } },
{ "type": "Feature", "properties": { "fid": 988, "CODATRAC": "R040176", "JERARQUIA": "NACIONAL", "CATEGORIA": "SITIOS NATURALES", "TIPO": "COSTA", "SUBTIPO": "ISLA O ARCHIPIÉLAGO", "NOMBRE": "ISLA CHOROS", "REGION": "REGIÓN DE COQUIMBO", "PROVINCIA": "ELQUI", "COMUNA": "LA HIGUERA", "LOCALIDAD": "R.N. PINGÜINO DE HUMBOLDT", "DIRECCION": null, "TELEFONO": "(51) 313565", "PROPIEDAD": "PÚBLICA", "ADMINISTRA": "PÚBLICA", "DISTCR": "114", "CR": "LA SERENA", "DISTCC": "55", "CC": "LA HIGUERA", "LOC_URBANA": "PUNTA DE CHOROS", "ESTACIONAL": "TODO EL AÑO", "USO_TUR": "ACTUAL CON RESTRICCIÓN", "DEMANDA": "LOCAL, REGIONAL, NACIONAL", "SERVICIOS": "SIN SERVICIOS", "COD_REG": 4, "COD_PROV": 41, "COD_COM": 4104, "DESCRIPCIO": "Es una de las islas que componen la Reserva Nacional Pingüino de Humboldt, junto a Isla Damas e Isla Chañaral. Posee 291,7 ha y cuenta con una variada fauna, compuesta por pingüinos de Humboldt y de Magallanes, lobos de mar, pelícanos y chungungos.", "ESTADO_1": "BUENA", "POINT_X": -71.540031068000005, "POINT_Y": -29.254892867799999, "Descripcion": "El Servicio Nacional de Turismo (Sernatur) cuenta con un catastro de atractivos turísticos a nivel nacional, el cual se elabora y actualiza en conjunto con las Direcciones Regionales de Sernatur, tomando como base la metodología diseñada para elaborar inventarios turísticos, desarrollada en la década del 70 por el Centro Interamericano de Capacitación Turística (CICATUR) con el apoyo de la Organización de Estados Americanos (OEA). Los atractivos turísticos son elementos determinantes para motivar, por sí solos o en combinación con otros la elección del destino de la actividad turística. Éstos se encuentran jerarquizados según el perfil del visitante y clasificados para establecer su interés turístico. El catastro se encuentra a nivel nacional, provincial, regional y comunal. Actualizacion al 2024", "Origen Data": "Portal de area de Destinos de Sernatur, disponible en: https://www.sernatur.cl/destinos/" }, "geometry": { "type": "Point", "coordinates": [ -71.540031067999962, -29.254892867804998, 0.0 ] } },
{ "type": "Feature", "properties": { "fid": 989, "CODATRAC": "R040177", "JERARQUIA": "NACIONAL", "CATEGORIA": "SITIOS NATURALES", "TIPO": "COSTA", "SUBTIPO": "ISLA O ARCHIPIÉLAGO", "NOMBRE": "ISLA DAMAS", "REGION": "REGIÓN DE COQUIMBO", "PROVINCIA": "ELQUI", "COMUNA": "LA HIGUERA", "LOCALIDAD": "R.N. PINGÜINO DE HUMBOLDT", "DIRECCION": null, "TELEFONO": "(51) 313565", "PROPIEDAD": "PÚBLICA", "ADMINISTRA": "PÚBLICA", "DISTCR": "114", "CR": "LA SERENA", "DISTCC": "55", "CC": "LA HIGUERA", "LOC_URBANA": "PUNTA DE CHOROS", "ESTACIONAL": "TODO EL AÑO", "USO_TUR": "ACTUAL CON RESTRICCIÓN", "DEMANDA": "LOCAL, REGIONAL, NACIONAL", "SERVICIOS": "AGUA POTABLE", "COD_REG": 4, "COD_PROV": 41, "COD_COM": 4104, "DESCRIPCIO": "Es una de las tres islas que forman parte de la Reserva Nacional Pingüino de Humboldt. Posee dos playas, La Poza y Las Tijeras, con arena blanca y aguas verde esmeralda, utilizadas para la práctica de buceo.", "ESTADO_1": "BUENA", "POINT_X": -71.526831756000007, "POINT_Y": -29.2347646658, "Descripcion": "El Servicio Nacional de Turismo (Sernatur) cuenta con un catastro de atractivos turísticos a nivel nacional, el cual se elabora y actualiza en conjunto con las Direcciones Regionales de Sernatur, tomando como base la metodología diseñada para elaborar inventarios turísticos, desarrollada en la década del 70 por el Centro Interamericano de Capacitación Turística (CICATUR) con el apoyo de la Organización de Estados Americanos (OEA). Los atractivos turísticos son elementos determinantes para motivar, por sí solos o en combinación con otros la elección del destino de la actividad turística. Éstos se encuentran jerarquizados según el perfil del visitante y clasificados para establecer su interés turístico. El catastro se encuentra a nivel nacional, provincial, regional y comunal. Actualizacion al 2024", "Origen Data": "Portal de area de Destinos de Sernatur, disponible en: https://www.sernatur.cl/destinos/" }, "geometry": { "type": "Point", "coordinates": [ -71.526831755999979, -29.234764665804629, 0.0 ] } },
{ "type": "Feature", "properties": { "fid": 992, "CODATRAC": "R040180", "JERARQUIA": "REGIONAL", "CATEGORIA": "SITIOS NATURALES", "TIPO": "COSTA", "SUBTIPO": "ISLA O ARCHIPIÉLAGO", "NOMBRE": "ISLA GAVIOTA", "REGION": "REGIÓN DE COQUIMBO", "PROVINCIA": "ELQUI", "COMUNA": "LA HIGUERA", "LOCALIDAD": "PUNTA DE CHOROS", "DIRECCION": null, "TELEFONO": "(51) 213088", "PROPIEDAD": "PÚBLICA", "ADMINISTRA": "PÚBLICA", "DISTCR": "114", "CR": "LA SERENA", "DISTCC": "55", "CC": "LA HIGUERA", "LOC_URBANA": "PUNTA DE CHOROS", "ESTACIONAL": "TODO EL AÑO", "USO_TUR": "ACTUAL CON RESTRICCIÓN", "DEMANDA": "LOCAL, REGIONAL", "SERVICIOS": "SIN SERVICIOS", "COD_REG": 4, "COD_PROV": 41, "COD_COM": 4104, "DESCRIPCIO": "Es la isla más cercana al continente, con 182 hectáreas. Hábitat natural de aves marinas.", "ESTADO_1": "BUENA", "POINT_X": -71.481607514000004, "POINT_Y": -29.260726901799998, "Descripcion": "El Servicio Nacional de Turismo (Sernatur) cuenta con un catastro de atractivos turísticos a nivel nacional, el cual se elabora y actualiza en conjunto con las Direcciones Regionales de Sernatur, tomando como base la metodología diseñada para elaborar inventarios turísticos, desarrollada en la década del 70 por el Centro Interamericano de Capacitación Turística (CICATUR) con el apoyo de la Organización de Estados Americanos (OEA). Los atractivos turísticos son elementos determinantes para motivar, por sí solos o en combinación con otros la elección del destino de la actividad turística. Éstos se encuentran jerarquizados según el perfil del visitante y clasificados para establecer su interés turístico. El catastro se encuentra a nivel nacional, provincial, regional y comunal. Actualizacion al 2024", "Origen Data": "Portal de area de Destinos de Sernatur, disponible en: https://www.sernatur.cl/destinos/" }, "geometry": { "type": "Point", "coordinates": [ -71.481607513999961, -29.260726901805075, 0.0 ] } },
{ "type": "Feature", "properties": { "fid": 994, "CODATRAC": "R040182", "JERARQUIA": "LOCAL", "CATEGORIA": "SITIOS NATURALES", "TIPO": "COSTA", "SUBTIPO": "ISLA O ARCHIPIÉLAGO", "NOMBRE": "ISLOTE PÁJAROS", "REGION": "REGIÓN DE COQUIMBO", "PROVINCIA": "ELQUI", "COMUNA": "LA HIGUERA", "LOCALIDAD": "ISLOTE PÁJAROS", "DIRECCION": null, "TELEFONO": null, "PROPIEDAD": "PÚBLICA", "ADMINISTRA": "PÚBLICA", "DISTCR": "0", "CR": "LA SERENA", "DISTCC": "0", "CC": "LA HIGUERA", "LOC_URBANA": "LA HIGUERA", "ESTACIONAL": "TODO EL AÑO", "USO_TUR": "ACTUAL", "DEMANDA": "LOCAL", "SERVICIOS": null, "COD_REG": 4, "COD_PROV": 41, "COD_COM": 4104, "DESCRIPCIO": "Paseos en embarcaciones menores que ofrecen los pescadores hacia el islote pájaros donde se encuentra una colonia de lobos de mar y aves marinas.", "ESTADO_1": "BUENA", "POINT_X": -71.536754314000007, "POINT_Y": -29.586763644800001, "Descripcion": "El Servicio Nacional de Turismo (Sernatur) cuenta con un catastro de atractivos turísticos a nivel nacional, el cual se elabora y actualiza en conjunto con las Direcciones Regionales de Sernatur, tomando como base la metodología diseñada para elaborar inventarios turísticos, desarrollada en la década del 70 por el Centro Interamericano de Capacitación Turística (CICATUR) con el apoyo de la Organización de Estados Americanos (OEA). Los atractivos turísticos son elementos determinantes para motivar, por sí solos o en combinación con otros la elección del destino de la actividad turística. Éstos se encuentran jerarquizados según el perfil del visitante y clasificados para establecer su interés turístico. El catastro se encuentra a nivel nacional, provincial, regional y comunal. Actualizacion al 2024", "Origen Data": "Portal de area de Destinos de Sernatur, disponible en: https://www.sernatur.cl/destinos/" }, "geometry": { "type": "Point", "coordinates": [ -71.53675431399995, -29.586763644810649, 0.0 ] } },
{ "type": "Feature", "properties": { "fid": 996, "CODATRAC": "R040184", "JERARQUIA": "LOCAL", "CATEGORIA": "REALIZACIONES TÉCNICAS Y CIENTÍFICAS CONTEMPORÁNEAS Y CULTURALES HISTÓRICAS", "TIPO": "DESARROLLO URBANO", "SUBTIPO": "CIUDAD", "NOMBRE": "LA HIGUERA", "REGION": "REGIÓN DE COQUIMBO", "PROVINCIA": "ELQUI", "COMUNA": "LA HIGUERA", "LOCALIDAD": "LA HIGUERA", "DIRECCION": "A 60 KM AL NORTE DE LA SERENA", "TELEFONO": "(51) 213088", "PROPIEDAD": "PÚBLICA", "ADMINISTRA": "PÚBLICA", "DISTCR": "60", "CR": "LA SERENA", "DISTCC": "0", "CC": "LA HIGUERA", "LOC_URBANA": "LA HIGUERA", "ESTACIONAL": "TODO EL AÑO", "USO_TUR": "ACTUAL", "DEMANDA": "LOCAL", "SERVICIOS": "AGUA POTABLE, ELECTRICIDAD", "COD_REG": 4, "COD_PROV": 41, "COD_COM": 4104, "DESCRIPCIO": "La Higuera, fue fundada un 22 de Diciembre de 1842. Antes de su fundación, este territorio fue antiguo asentamiento humano, es el caso de su costa donde se revela por testimonios dejados, la presencia de hombres de la cultura del anzuelo de concha.", "ESTADO_1": "BUENA", "POINT_X": -71.201351274000004, "POINT_Y": -29.511776095799998, "Descripcion": "El Servicio Nacional de Turismo (Sernatur) cuenta con un catastro de atractivos turísticos a nivel nacional, el cual se elabora y actualiza en conjunto con las Direcciones Regionales de Sernatur, tomando como base la metodología diseñada para elaborar inventarios turísticos, desarrollada en la década del 70 por el Centro Interamericano de Capacitación Turística (CICATUR) con el apoyo de la Organización de Estados Americanos (OEA). Los atractivos turísticos son elementos determinantes para motivar, por sí solos o en combinación con otros la elección del destino de la actividad turística. Éstos se encuentran jerarquizados según el perfil del visitante y clasificados para establecer su interés turístico. El catastro se encuentra a nivel nacional, provincial, regional y comunal. Actualizacion al 2024", "Origen Data": "Portal de area de Destinos de Sernatur, disponible en: https://www.sernatur.cl/destinos/" }, "geometry": { "type": "Point", "coordinates": [ -71.201351273999933, -29.511776095809363, 0.0 ] } },
{ "type": "Feature", "properties": { "fid": 1031, "CODATRAC": "R040222", "JERARQUIA": "NACIONAL", "CATEGORIA": "REALIZACIONES TÉCNICAS Y CIENTÍFICAS CONTEMPORÁNEAS Y CULTURALES HISTÓRICAS", "TIPO": "CENTRO CIENTÍFICO", "SUBTIPO": "OBSERVATORIO ASTRONÓMICO", "NOMBRE": "OBSERVATORIO ASTRONÓMICO LA SILLA", "REGION": "REGIÓN DE COQUIMBO", "PROVINCIA": "ELQUI", "COMUNA": "LA HIGUERA", "LOCALIDAD": "CERRO LA SILLA", "DIRECCION": "160 kilómetros al norte de La Serena, cercano al extremo sur del Desierto de Atacama", "TELEFONO": "(02) 4633000", "PROPIEDAD": "PRIVADA", "ADMINISTRA": "PRIVADA", "DISTCR": "159", "CR": "LA SERENA", "DISTCC": "102", "CC": "LA HIGUERA", "LOC_URBANA": "LA HIGUERA", "ESTACIONAL": "TODO EL AÑO - SÁBADOS DE 14:00 A 17:00 HRS", "USO_TUR": "ACTUAL", "DEMANDA": "LOCAL, REGIONAL, NACIONAL", "SERVICIOS": "AGUA POTABLE, ELECTRICIDAD", "COD_REG": 4, "COD_PROV": 41, "COD_COM": 4104, "DESCRIPCIO": "Observatorio científico emblemático de ESO (European Southern Observatory), ofrece visitas guiadas los días sábados, exceptuando los meses de julio y agosto que el recinto cierra sus puertas debido a los riesgos de tormentas de nieve que azotan el lu", "ESTADO_1": "BUENA", "POINT_X": -70.731778907000006, "POINT_Y": -29.261090928800002, "Descripcion": "El Servicio Nacional de Turismo (Sernatur) cuenta con un catastro de atractivos turísticos a nivel nacional, el cual se elabora y actualiza en conjunto con las Direcciones Regionales de Sernatur, tomando como base la metodología diseñada para elaborar inventarios turísticos, desarrollada en la década del 70 por el Centro Interamericano de Capacitación Turística (CICATUR) con el apoyo de la Organización de Estados Americanos (OEA). Los atractivos turísticos son elementos determinantes para motivar, por sí solos o en combinación con otros la elección del destino de la actividad turística. Éstos se encuentran jerarquizados según el perfil del visitante y clasificados para establecer su interés turístico. El catastro se encuentra a nivel nacional, provincial, regional y comunal. Actualizacion al 2024", "Origen Data": "Portal de area de Destinos de Sernatur, disponible en: https://www.sernatur.cl/destinos/" }, "geometry": { "type": "Point", "coordinates": [ -70.731778906999978, -29.261090928805071, 0.0 ] } },
{ "type": "Feature", "properties": { "fid": 1055, "CODATRAC": "R040251", "JERARQUIA": "LOCAL", "CATEGORIA": "SITIOS NATURALES", "TIPO": "COSTA", "SUBTIPO": "PLAYA O BALNEARIO", "NOMBRE": "PLAYA CALETA LOS HORNOS", "REGION": "REGIÓN DE COQUIMBO", "PROVINCIA": "ELQUI", "COMUNA": "LA HIGUERA", "LOCALIDAD": "LOS  HORNOS", "DIRECCION": "A 22 KM AL SUROESTE DE LA HIGUERA", "TELEFONO": "(51) 213088", "PROPIEDAD": "PÚBLICA", "ADMINISTRA": "PÚBLICA", "DISTCR": "36", "CR": "LA SERENA", "DISTCC": "22", "CC": "LA HIGUERA", "LOC_URBANA": "LA HIGUERA", "ESTACIONAL": "TODO EL AÑO", "USO_TUR": "ACTUAL", "DEMANDA": "LOCAL", "SERVICIOS": "AGUA POTABLE, ELECTRICIDAD", "COD_REG": 4, "COD_PROV": 41, "COD_COM": 4104, "DESCRIPCIO": "Es pequeña y algo pedregosa, con arenas oscuras y rica fauna marina. Existen algunas formaciones de roca, por lo que reúne condiciones para la pesca deportiva de escollera. También se puede realizar pesca deportiva en embarcaciones.", "ESTADO_1": "REGULAR", "POINT_X": -71.286079522999998, "POINT_Y": -29.621147704799998, "Descripcion": "El Servicio Nacional de Turismo (Sernatur) cuenta con un catastro de atractivos turísticos a nivel nacional, el cual se elabora y actualiza en conjunto con las Direcciones Regionales de Sernatur, tomando como base la metodología diseñada para elaborar inventarios turísticos, desarrollada en la década del 70 por el Centro Interamericano de Capacitación Turística (CICATUR) con el apoyo de la Organización de Estados Americanos (OEA). Los atractivos turísticos son elementos determinantes para motivar, por sí solos o en combinación con otros la elección del destino de la actividad turística. Éstos se encuentran jerarquizados según el perfil del visitante y clasificados para establecer su interés turístico. El catastro se encuentra a nivel nacional, provincial, regional y comunal. Actualizacion al 2024", "Origen Data": "Portal de area de Destinos de Sernatur, disponible en: https://www.sernatur.cl/destinos/" }, "geometry": { "type": "Point", "coordinates": [ -71.286079522999955, -29.621147704811207, 0.0 ] } },
{ "type": "Feature", "properties": { "fid": 1060, "CODATRAC": "R040256", "JERARQUIA": "LOCAL", "CATEGORIA": "SITIOS NATURALES", "TIPO": "COSTA", "SUBTIPO": "PLAYA O BALNEARIO", "NOMBRE": "PLAYA CRUZ GRANDE", "REGION": "REGIÓN DE COQUIMBO", "PROVINCIA": "ELQUI", "COMUNA": "LA HIGUERA", "LOCALIDAD": "CHUNGUNGO", "DIRECCION": "A 28 KM DE LA HIGUERA", "TELEFONO": "(51) 213088", "PROPIEDAD": "PÚBLICA", "ADMINISTRA": "PRIVADA", "DISTCR": "81", "CR": "LA SERENA", "DISTCC": "28", "CC": "LA HIGUERA", "LOC_URBANA": "LA HIGUERA", "ESTACIONAL": "TODO EL AÑO", "USO_TUR": "ACTUAL CON RESTRICCIÓN", "DEMANDA": "LOCAL", "SERVICIOS": "AGUA POTABLE, ELECTRICIDAD", "COD_REG": 4, "COD_PROV": 41, "COD_COM": 4104, "DESCRIPCIO": "Es una pequeña playa pedregosa de unos 300 metros. Reúne buenas condiciones para el baño y los deportes náuticos.", "ESTADO_1": "BUENA", "POINT_X": -71.309311703000006, "POINT_Y": -29.461931634799999, "Descripcion": "El Servicio Nacional de Turismo (Sernatur) cuenta con un catastro de atractivos turísticos a nivel nacional, el cual se elabora y actualiza en conjunto con las Direcciones Regionales de Sernatur, tomando como base la metodología diseñada para elaborar inventarios turísticos, desarrollada en la década del 70 por el Centro Interamericano de Capacitación Turística (CICATUR) con el apoyo de la Organización de Estados Americanos (OEA). Los atractivos turísticos son elementos determinantes para motivar, por sí solos o en combinación con otros la elección del destino de la actividad turística. Éstos se encuentran jerarquizados según el perfil del visitante y clasificados para establecer su interés turístico. El catastro se encuentra a nivel nacional, provincial, regional y comunal. Actualizacion al 2024", "Origen Data": "Portal de area de Destinos de Sernatur, disponible en: https://www.sernatur.cl/destinos/" }, "geometry": { "type": "Point", "coordinates": [ -71.309311702999935, -29.461931634808494, 0.0 ] } },
{ "type": "Feature", "properties": { "fid": 1063, "CODATRAC": "R040259", "JERARQUIA": "LOCAL", "CATEGORIA": "SITIOS NATURALES", "TIPO": "COSTA", "SUBTIPO": "PLAYA O BALNEARIO", "NOMBRE": "PLAYA LA BARRANCA", "REGION": "REGIÓN DE COQUIMBO", "PROVINCIA": "ELQUI", "COMUNA": "LA HIGUERA", "LOCALIDAD": "PUNTA DE CHOROS", "DIRECCION": "A 65 KM AL NOROESTE DE LA HIGUERA", "TELEFONO": "(51) 213088", "PROPIEDAD": "PÚBLICA", "ADMINISTRA": "PÚBLICA", "DISTCR": "120", "CR": "LA SERENA", "DISTCC": "65", "CC": "LA HIGUERA", "LOC_URBANA": "LA HIGUERA", "ESTACIONAL": "TODO EL AÑO", "USO_TUR": "ACTUAL", "DEMANDA": "LOCAL", "SERVICIOS": "SIN SERVICIOS", "COD_REG": 4, "COD_PROV": 41, "COD_COM": 4104, "DESCRIPCIO": "Ubicada a los pies de Punta de Choros, presenta una dimensión de 250 metros. Esta playa protegida del viento y oleaje, presenta condiciones favorables para la pesca deportiva y baño. Las especies que se extraen son Lenguado, Corvina, Canque o Pichihué", "ESTADO_1": "BUENA", "POINT_X": -71.325633531999998, "POINT_Y": -29.401942934800001, "Descripcion": "El Servicio Nacional de Turismo (Sernatur) cuenta con un catastro de atractivos turísticos a nivel nacional, el cual se elabora y actualiza en conjunto con las Direcciones Regionales de Sernatur, tomando como base la metodología diseñada para elaborar inventarios turísticos, desarrollada en la década del 70 por el Centro Interamericano de Capacitación Turística (CICATUR) con el apoyo de la Organización de Estados Americanos (OEA). Los atractivos turísticos son elementos determinantes para motivar, por sí solos o en combinación con otros la elección del destino de la actividad turística. Éstos se encuentran jerarquizados según el perfil del visitante y clasificados para establecer su interés turístico. El catastro se encuentra a nivel nacional, provincial, regional y comunal. Actualizacion al 2024", "Origen Data": "Portal de area de Destinos de Sernatur, disponible en: https://www.sernatur.cl/destinos/" }, "geometry": { "type": "Point", "coordinates": [ -71.325633531999983, -29.401942934807522, 0.0 ] } },
{ "type": "Feature", "properties": { "fid": 1065, "CODATRAC": "R040261", "JERARQUIA": "LOCAL", "CATEGORIA": "SITIOS NATURALES", "TIPO": "COSTA", "SUBTIPO": "PLAYA O BALNEARIO", "NOMBRE": "PLAYA LA DESPENSA", "REGION": "REGIÓN DE COQUIMBO", "PROVINCIA": "ELQUI", "COMUNA": "LA HIGUERA", "LOCALIDAD": "CALETA LOS HORNOS", "DIRECCION": "A 22 KM DE LA HIGUERA", "TELEFONO": "(51) 213088", "PROPIEDAD": "PÚBLICA", "ADMINISTRA": "PÚBLICA", "DISTCR": "36", "CR": "LA SERENA", "DISTCC": "22", "CC": "LA HIGUERA", "LOC_URBANA": "LA HIGUERA", "ESTACIONAL": "TODO EL AÑO", "USO_TUR": "ACTUAL", "DEMANDA": "LOCAL", "SERVICIOS": "SIN SERVICIOS", "COD_REG": 4, "COD_PROV": 41, "COD_COM": 4104, "DESCRIPCIO": "Playa localizada al costado norte de Caleta Los Hornos. Posee 2 km de longitud, de suaves arenas de color amarillo, rica en fauna marina y de fuerte oleaje. Presenta óptimas condiciones para la pesca deportiva de orilla.", "ESTADO_1": "REGULAR", "POINT_X": -71.290725225000003, "POINT_Y": -29.603322389799999, "Descripcion": "El Servicio Nacional de Turismo (Sernatur) cuenta con un catastro de atractivos turísticos a nivel nacional, el cual se elabora y actualiza en conjunto con las Direcciones Regionales de Sernatur, tomando como base la metodología diseñada para elaborar inventarios turísticos, desarrollada en la década del 70 por el Centro Interamericano de Capacitación Turística (CICATUR) con el apoyo de la Organización de Estados Americanos (OEA). Los atractivos turísticos son elementos determinantes para motivar, por sí solos o en combinación con otros la elección del destino de la actividad turística. Éstos se encuentran jerarquizados según el perfil del visitante y clasificados para establecer su interés turístico. El catastro se encuentra a nivel nacional, provincial, regional y comunal. Actualizacion al 2024", "Origen Data": "Portal de area de Destinos de Sernatur, disponible en: https://www.sernatur.cl/destinos/" }, "geometry": { "type": "Point", "coordinates": [ -71.29072522499996, -29.603322389810927, 0.0 ] } },
{ "type": "Feature", "properties": { "fid": 1069, "CODATRAC": "R040265", "JERARQUIA": "REGIONAL", "CATEGORIA": "SITIOS NATURALES", "TIPO": "COSTA", "SUBTIPO": "PLAYA O BALNEARIO", "NOMBRE": "PLAYA LOS CHOROS", "REGION": "REGIÓN DE COQUIMBO", "PROVINCIA": "ELQUI", "COMUNA": "LA HIGUERA", "LOCALIDAD": "LOS CHOROS", "DIRECCION": "A 44 KM DE LA HIGUERA", "TELEFONO": "(51) 213088", "PROPIEDAD": "PÚBLICA", "ADMINISTRA": "PÚBLICA", "DISTCR": "94", "CR": "LA SERENA", "DISTCC": "44", "CC": "LA HIGUERA", "LOC_URBANA": "LA HIGUERA", "ESTACIONAL": "TODO EL AÑO", "USO_TUR": "ACTUAL", "DEMANDA": "LOCAL, REGIONAL", "SERVICIOS": "SIN SERVICIOS", "COD_REG": 4, "COD_PROV": 41, "COD_COM": 4104, "DESCRIPCIO": "La playa que comprende 16 km de extensión, casi recta y expuesta a los vientos del suroeste. Se caracteriza por sus piedras en grandes extensiones, por ser ventosa y con fuerte oleaje, por lo que no es apta para baños.", "ESTADO_1": "BUENA", "POINT_X": -71.365170313999997, "POINT_Y": -29.305059881799998, "Descripcion": "El Servicio Nacional de Turismo (Sernatur) cuenta con un catastro de atractivos turísticos a nivel nacional, el cual se elabora y actualiza en conjunto con las Direcciones Regionales de Sernatur, tomando como base la metodología diseñada para elaborar inventarios turísticos, desarrollada en la década del 70 por el Centro Interamericano de Capacitación Turística (CICATUR) con el apoyo de la Organización de Estados Americanos (OEA). Los atractivos turísticos son elementos determinantes para motivar, por sí solos o en combinación con otros la elección del destino de la actividad turística. Éstos se encuentran jerarquizados según el perfil del visitante y clasificados para establecer su interés turístico. El catastro se encuentra a nivel nacional, provincial, regional y comunal. Actualizacion al 2024", "Origen Data": "Portal de area de Destinos de Sernatur, disponible en: https://www.sernatur.cl/destinos/" }, "geometry": { "type": "Point", "coordinates": [ -71.365170313999954, -29.30505988180586, 0.0 ] } },
{ "type": "Feature", "properties": { "fid": 1077, "CODATRAC": "R040273", "JERARQUIA": "REGIONAL", "CATEGORIA": "SITIOS NATURALES", "TIPO": "COSTA", "SUBTIPO": "PLAYA O BALNEARIO", "NOMBRE": "PLAYA TEMBLADOR", "REGION": "REGIÓN DE COQUIMBO", "PROVINCIA": "ELQUI", "COMUNA": "LA HIGUERA", "LOCALIDAD": "TEMBLADOR", "DIRECCION": "A 33 KM DE LA HIGUERA", "TELEFONO": "(51) 213088", "PROPIEDAD": "PÚBLICA", "ADMINISTRA": "PRIVADA", "DISTCR": "65", "CR": "LA SERENA", "DISTCC": "33", "CC": "LA HIGUERA", "LOC_URBANA": "LA HIGUERA", "ESTACIONAL": "TODO EL AÑO", "USO_TUR": "ACTUAL CON RESTRICCIÓN", "DEMANDA": "LOCAL, REGIONAL", "SERVICIOS": "SIN SERVICIOS", "COD_REG": 4, "COD_PROV": 41, "COD_COM": 4104, "DESCRIPCIO": "Posee finas arenas, color gris, con regular oleaje y de 1 km. de longitud. Lugar alternativo para el baño que más bien presenta condiciones más apropiadas para la pesca y caza submarina.", "ESTADO_1": "BUENA", "POINT_X": -71.309302923000004, "POINT_Y": -29.478369006800001, "Descripcion": "El Servicio Nacional de Turismo (Sernatur) cuenta con un catastro de atractivos turísticos a nivel nacional, el cual se elabora y actualiza en conjunto con las Direcciones Regionales de Sernatur, tomando como base la metodología diseñada para elaborar inventarios turísticos, desarrollada en la década del 70 por el Centro Interamericano de Capacitación Turística (CICATUR) con el apoyo de la Organización de Estados Americanos (OEA). Los atractivos turísticos son elementos determinantes para motivar, por sí solos o en combinación con otros la elección del destino de la actividad turística. Éstos se encuentran jerarquizados según el perfil del visitante y clasificados para establecer su interés turístico. El catastro se encuentra a nivel nacional, provincial, regional y comunal. Actualizacion al 2024", "Origen Data": "Portal de area de Destinos de Sernatur, disponible en: https://www.sernatur.cl/destinos/" }, "geometry": { "type": "Point", "coordinates": [ -71.309302922999962, -29.478369006808823, 0.0 ] } },
{ "type": "Feature", "properties": { "fid": 1079, "CODATRAC": "R040275", "JERARQUIA": "LOCAL", "CATEGORIA": "SITIOS NATURALES", "TIPO": "COSTA", "SUBTIPO": "PLAYA O BALNEARIO", "NOMBRE": "PLAYA TOTORALILLO NORTE", "REGION": "REGIÓN DE COQUIMBO", "PROVINCIA": "ELQUI", "COMUNA": "LA HIGUERA", "LOCALIDAD": "TOTORALILLO NORTE", "DIRECCION": "A 32 KM DE LA HIGUERA", "TELEFONO": null, "PROPIEDAD": "PÚBLICA", "ADMINISTRA": "PÚBLICA", "DISTCR": "65", "CR": "LA SERENA", "DISTCC": "32", "CC": "LA HIGUERA", "LOC_URBANA": "LA HIGUERA", "ESTACIONAL": "TODO EL AÑO", "USO_TUR": "ACTUAL", "DEMANDA": "LOCAL", "SERVICIOS": null, "COD_REG": 4, "COD_PROV": 41, "COD_COM": 4104, "DESCRIPCIO": "Esta playa posee un frente de 2 km, es pedregosa en sus orillas, presenta bolones y rocas en los costados por lo que es apta para realizar la pesca de escollera y la pesca de orilla.", "ESTADO_1": "BUENA", "POINT_X": -71.316727728000004, "POINT_Y": -29.488815884800001, "Descripcion": "El Servicio Nacional de Turismo (Sernatur) cuenta con un catastro de atractivos turísticos a nivel nacional, el cual se elabora y actualiza en conjunto con las Direcciones Regionales de Sernatur, tomando como base la metodología diseñada para elaborar inventarios turísticos, desarrollada en la década del 70 por el Centro Interamericano de Capacitación Turística (CICATUR) con el apoyo de la Organización de Estados Americanos (OEA). Los atractivos turísticos son elementos determinantes para motivar, por sí solos o en combinación con otros la elección del destino de la actividad turística. Éstos se encuentran jerarquizados según el perfil del visitante y clasificados para establecer su interés turístico. El catastro se encuentra a nivel nacional, provincial, regional y comunal. Actualizacion al 2024", "Origen Data": "Portal de area de Destinos de Sernatur, disponible en: https://www.sernatur.cl/destinos/" }, "geometry": { "type": "Point", "coordinates": [ -71.316727727999933, -29.488815884808989, 0.0 ] } },
{ "type": "Feature", "properties": { "fid": 1081, "CODATRAC": "R040277", "JERARQUIA": "LOCAL", "CATEGORIA": "SITIOS NATURALES", "TIPO": "COSTA", "SUBTIPO": "PLAYA O BALNEARIO", "NOMBRE": "PLAYA VENTANA", "REGION": "REGIÓN DE COQUIMBO", "PROVINCIA": "ELQUI", "COMUNA": "LA HIGUERA", "LOCALIDAD": "PUNTA DE CHOROS", "DIRECCION": null, "TELEFONO": null, "PROPIEDAD": "PÚBLICA", "ADMINISTRA": "PÚBLICA", "DISTCR": "0", "CR": "LA SERENA", "DISTCC": "0", "CC": "LA HIGUERA", "LOC_URBANA": null, "ESTACIONAL": "TODO EL AÑO", "USO_TUR": "ACTUAL", "DEMANDA": "LOCAL", "SERVICIOS": null, "COD_REG": 4, "COD_PROV": 41, "COD_COM": 4104, "DESCRIPCIO": "Está inserta en un sector rocoso y un acantilado de término abrupto, para luego dar paso a una hermosa playa blanca, de suaves pendientes, aguas cristalinas de color verde claro.  La playa termina con una formación rocosa.", "ESTADO_1": "BUENA", "POINT_X": -71.481120954999994, "POINT_Y": -29.208898391799998, "Descripcion": "El Servicio Nacional de Turismo (Sernatur) cuenta con un catastro de atractivos turísticos a nivel nacional, el cual se elabora y actualiza en conjunto con las Direcciones Regionales de Sernatur, tomando como base la metodología diseñada para elaborar inventarios turísticos, desarrollada en la década del 70 por el Centro Interamericano de Capacitación Turística (CICATUR) con el apoyo de la Organización de Estados Americanos (OEA). Los atractivos turísticos son elementos determinantes para motivar, por sí solos o en combinación con otros la elección del destino de la actividad turística. Éstos se encuentran jerarquizados según el perfil del visitante y clasificados para establecer su interés turístico. El catastro se encuentra a nivel nacional, provincial, regional y comunal. Actualizacion al 2024", "Origen Data": "Portal de area de Destinos de Sernatur, disponible en: https://www.sernatur.cl/destinos/" }, "geometry": { "type": "Point", "coordinates": [ -71.481120954999938, -29.208898391804176, 0.0 ] } },
{ "type": "Feature", "properties": { "fid": 1092, "CODATRAC": "R040289", "JERARQUIA": "NACIONAL", "CATEGORIA": "FOLKLORE", "TIPO": "ARQUITECTURA POPULAR ESPONTÁNEA", "SUBTIPO": "PUEBLO O ALDEA TRADICIONAL", "NOMBRE": "PUNTA CHOROS", "REGION": "REGIÓN DE COQUIMBO", "PROVINCIA": "ELQUI", "COMUNA": "LA HIGUERA", "LOCALIDAD": "PUNTA CHOROS", "DIRECCION": "A 60 KM AL NOROESTE DE LA HIGUERA", "TELEFONO": null, "PROPIEDAD": "PÚBLICA", "ADMINISTRA": "PÚBLICA", "DISTCR": "118", "CR": "LA SERENA", "DISTCC": "60", "CC": "LA HIGUERA", "LOC_URBANA": "LA HIGUERA", "ESTACIONAL": "TODO EL AÑO", "USO_TUR": "ACTUAL", "DEMANDA": "LOCAL, REGIONAL, NACIONAL", "SERVICIOS": null, "COD_REG": 4, "COD_PROV": 41, "COD_COM": 4104, "DESCRIPCIO": "Punta Choros es un poblado que ofrece a los turistas una maravillosa biodiversidad. La fauna es lo más característico, dentro de las que destacan el Delfín Nariz de Botella, el Chungungo y el Pingüino de Humboldt.", "ESTADO_1": "BUENA", "POINT_X": -71.460923221000002, "POINT_Y": -29.2450246368, "Descripcion": "El Servicio Nacional de Turismo (Sernatur) cuenta con un catastro de atractivos turísticos a nivel nacional, el cual se elabora y actualiza en conjunto con las Direcciones Regionales de Sernatur, tomando como base la metodología diseñada para elaborar inventarios turísticos, desarrollada en la década del 70 por el Centro Interamericano de Capacitación Turística (CICATUR) con el apoyo de la Organización de Estados Americanos (OEA). Los atractivos turísticos son elementos determinantes para motivar, por sí solos o en combinación con otros la elección del destino de la actividad turística. Éstos se encuentran jerarquizados según el perfil del visitante y clasificados para establecer su interés turístico. El catastro se encuentra a nivel nacional, provincial, regional y comunal. Actualizacion al 2024", "Origen Data": "Portal de area de Destinos de Sernatur, disponible en: https://www.sernatur.cl/destinos/" }, "geometry": { "type": "Point", "coordinates": [ -71.460923220999973, -29.245024636804839, 0.0 ] } },
{ "type": "Feature", "properties": { "fid": 1093, "CODATRAC": "R040290", "JERARQUIA": "LOCAL", "CATEGORIA": "SITIOS NATURALES", "TIPO": "COSTA", "SUBTIPO": "PENÍNSULA, CABO O PUNTA", "NOMBRE": "PUNTA CHUNGUNGO", "REGION": "REGIÓN DE COQUIMBO", "PROVINCIA": "ELQUI", "COMUNA": "LA HIGUERA", "LOCALIDAD": "CHUNGUNGO", "DIRECCION": "A 24 KM DE LA HIGUERA.", "TELEFONO": null, "PROPIEDAD": "PÚBLICA", "ADMINISTRA": "PÚBLICA", "DISTCR": "81", "CR": "LA SERENA", "DISTCC": "28", "CC": "LA HIGUERA", "LOC_URBANA": null, "ESTACIONAL": "TODO EL AÑO", "USO_TUR": "ACTUAL", "DEMANDA": "LOCAL", "SERVICIOS": null, "COD_REG": 4, "COD_PROV": 41, "COD_COM": 4104, "DESCRIPCIO": "Ubicada en la comuna de La Higurea, cerca de la reserva nacional Pingüinos de Humbold, lugar donde se pueden apreciar defiles, pingüinos y lobos marinos, además de una gran variedad de aves.", "ESTADO_1": "BUENA", "POINT_X": -71.31625973, "POINT_Y": -29.448774754799999, "Descripcion": "El Servicio Nacional de Turismo (Sernatur) cuenta con un catastro de atractivos turísticos a nivel nacional, el cual se elabora y actualiza en conjunto con las Direcciones Regionales de Sernatur, tomando como base la metodología diseñada para elaborar inventarios turísticos, desarrollada en la década del 70 por el Centro Interamericano de Capacitación Turística (CICATUR) con el apoyo de la Organización de Estados Americanos (OEA). Los atractivos turísticos son elementos determinantes para motivar, por sí solos o en combinación con otros la elección del destino de la actividad turística. Éstos se encuentran jerarquizados según el perfil del visitante y clasificados para establecer su interés turístico. El catastro se encuentra a nivel nacional, provincial, regional y comunal. Actualizacion al 2024", "Origen Data": "Portal de area de Destinos de Sernatur, disponible en: https://www.sernatur.cl/destinos/" }, "geometry": { "type": "Point", "coordinates": [ -71.316259729999956, -29.448774754808277, 0.0 ] } },
{ "type": "Feature", "properties": { "fid": 1102, "CODATRAC": "R040299", "JERARQUIA": "NACIONAL", "CATEGORIA": "SITIOS NATURALES", "TIPO": "ÁREA PROTEGIDA Y LUGARES DE OBSERVACIÓN DE FLORA Y FAUNA", "SUBTIPO": "ÁREA SILVESTRE PROTEGIDA DEL ESTADO (ASPE)", "NOMBRE": "RESERVA NACIONAL PINGÜINO DE HUMBOLDT", "REGION": "REGIÓN DE COQUIMBO", "PROVINCIA": "ELQUI", "COMUNA": "LA HIGUERA", "LOCALIDAD": "PUNTA DE CHOROS", "DIRECCION": "A 20 KM AL ESTE DE LOS CHOROS", "TELEFONO": "(51) 213565", "PROPIEDAD": "PÚBLICA", "ADMINISTRA": "PÚBLICA", "DISTCR": "118", "CR": "LA SERENA", "DISTCC": "60", "CC": "LA HIGUERA", "LOC_URBANA": "LA HIGUERA", "ESTACIONAL": "TODO EL AÑO", "USO_TUR": "ACTUAL", "DEMANDA": "LOCAL, REGIONAL, NACIONAL", "SERVICIOS": "AGUA POTABLE", "COD_REG": 4, "COD_PROV": 41, "COD_COM": 4104, "DESCRIPCIO": "La Reserva Nacional Pingüino de Humboldt está compuesta por tres islas: Chañaral, Choros y Damas, ubicadas en el límite entre las regiones de Atacama y Coquimbo. En Punta de Choros es posible embarcarse hacia la Isla Damas.", "ESTADO_1": "BUENA", "POINT_X": -71.540863432999998, "POINT_Y": -29.267749937800001, "Descripcion": "El Servicio Nacional de Turismo (Sernatur) cuenta con un catastro de atractivos turísticos a nivel nacional, el cual se elabora y actualiza en conjunto con las Direcciones Regionales de Sernatur, tomando como base la metodología diseñada para elaborar inventarios turísticos, desarrollada en la década del 70 por el Centro Interamericano de Capacitación Turística (CICATUR) con el apoyo de la Organización de Estados Americanos (OEA). Los atractivos turísticos son elementos determinantes para motivar, por sí solos o en combinación con otros la elección del destino de la actividad turística. Éstos se encuentran jerarquizados según el perfil del visitante y clasificados para establecer su interés turístico. El catastro se encuentra a nivel nacional, provincial, regional y comunal. Actualizacion al 2024", "Origen Data": "Portal de area de Destinos de Sernatur, disponible en: https://www.sernatur.cl/destinos/" }, "geometry": { "type": "Point", "coordinates": [ -71.54086343299997, -29.267749937805203, 0.0 ] } },
{ "type": "Feature", "properties": { "fid": 1142, "CODATRAC": "R040341", "JERARQUIA": "REGIONAL", "CATEGORIA": "SITIOS NATURALES", "TIPO": "MONTAÑA", "SUBTIPO": "VALLE Y QUEBRADA", "NOMBRE": "VALLE QUEBRADA HONDA", "REGION": "REGIÓN DE COQUIMBO", "PROVINCIA": "ELQUI", "COMUNA": "LA HIGUERA", "LOCALIDAD": "QUEBRADA HONDA", "DIRECCION": "A 40 KM AL NORTE DE LA SERENA", "TELEFONO": "(51) 213088", "PROPIEDAD": "PÚBLICA", "ADMINISTRA": "PÚBLICA", "DISTCR": "40", "CR": "LA SERENA", "DISTCC": "18", "CC": "LA HIGUERA", "LOC_URBANA": "LA HIGUERA", "ESTACIONAL": "TODO EL AÑO", "USO_TUR": "POTENCIAL", "DEMANDA": "LOCAL, REGIONAL", "SERVICIOS": "AGUA POTABLE, ELECTRICIDAD", "COD_REG": 4, "COD_PROV": 41, "COD_COM": 4104, "DESCRIPCIO": "Con actividad principalmente agrícola, y en menor escala crianza de ganado caprino. Destaca la Estancia El Maray, con crianza de ganado y cultivos frutales. Destacan sus recursos naturales para ecoturismo.", "ESTADO_1": "BUENA", "POINT_X": -71.252084845, "POINT_Y": -29.609811960799998, "Descripcion": "El Servicio Nacional de Turismo (Sernatur) cuenta con un catastro de atractivos turísticos a nivel nacional, el cual se elabora y actualiza en conjunto con las Direcciones Regionales de Sernatur, tomando como base la metodología diseñada para elaborar inventarios turísticos, desarrollada en la década del 70 por el Centro Interamericano de Capacitación Turística (CICATUR) con el apoyo de la Organización de Estados Americanos (OEA). Los atractivos turísticos son elementos determinantes para motivar, por sí solos o en combinación con otros la elección del destino de la actividad turística. Éstos se encuentran jerarquizados según el perfil del visitante y clasificados para establecer su interés turístico. El catastro se encuentra a nivel nacional, provincial, regional y comunal. Actualizacion al 2024", "Origen Data": "Portal de area de Destinos de Sernatur, disponible en: https://www.sernatur.cl/destinos/" }, "geometry": { "type": "Point", "coordinates": [ -71.252084844999956, -29.609811960811001, 0.0 ] } },
{ "type": "Feature", "properties": { "fid": 1154, "CODATRAC": "R040322", "JERARQUIA": "INTERNACIONAL", "CATEGORIA": "REALIZACIONES TÉCNICAS Y CIENTÍFICAS CONTEMPORÁNEAS Y CULTURALES HISTÓRICAS", "TIPO": "CENTRO CIENTÍFICO", "SUBTIPO": "OBSERVATORIO ASTRONÓMICO", "NOMBRE": "TELESCOPIO GIGANTE DE MAGALLANES (GMT)", "REGION": "REGIÓN DE COQUIMBO", "PROVINCIA": "ELQUI", "COMUNA": "LA HIGUERA", "LOCALIDAD": "CERRO LAS CAMPANAS", "DIRECCION": "CERRO LAS CAMPANAS", "TELEFONO": null, "PROPIEDAD": "PRIVADA", "ADMINISTRA": "PRIVADA", "DISTCR": "116", "CR": "LA SERENA", "DISTCC": "85", "CC": "LA HIGUERA", "LOC_URBANA": "LA HIGUERA", "ESTACIONAL": "-", "USO_TUR": "-", "DEMANDA": "LOCAL, REGIONAL, NACIONAL, INTERNACIONAL", "SERVICIOS": "AGUA POTABLE, ELECTRICIDAD", "COD_REG": 4, "COD_PROV": 41, "COD_COM": 4104, "DESCRIPCIO": "Observatorio científico en construcción (2020). Es un proyecto de telescopio terrestre de grandes dimensiones, su cupula de 22 pisos de altura contendrá el telescopio optico mas grande del mundo.", "ESTADO_1": "-", "POINT_X": -70.683476057199996, "POINT_Y": -29.048113621199999, "Descripcion": "El Servicio Nacional de Turismo (Sernatur) cuenta con un catastro de atractivos turísticos a nivel nacional, el cual se elabora y actualiza en conjunto con las Direcciones Regionales de Sernatur, tomando como base la metodología diseñada para elaborar inventarios turísticos, desarrollada en la década del 70 por el Centro Interamericano de Capacitación Turística (CICATUR) con el apoyo de la Organización de Estados Americanos (OEA). Los atractivos turísticos son elementos determinantes para motivar, por sí solos o en combinación con otros la elección del destino de la actividad turística. Éstos se encuentran jerarquizados según el perfil del visitante y clasificados para establecer su interés turístico. El catastro se encuentra a nivel nacional, provincial, regional y comunal. Actualizacion al 2024", "Origen Data": "Portal de area de Destinos de Sernatur, disponible en: https://www.sernatur.cl/destinos/" }, "geometry": { "type": "Point", "coordinates": [ -70.68347605723433, -29.048113621169055, 0.0 ] } },
{ "type": "Feature", "properties": { "fid": 4861, "CODATRAC": "R040354", "JERARQUIA": "NACIONAL", "CATEGORIA": "SITIOS NATURALES", "TIPO": "ÁREA PROTEGIDA Y LUGARES DE OBSERVACIÓN DE FLORA Y FAUNA", "SUBTIPO": "ÁREA MARINA PROTEGIDA (AMP)", "NOMBRE": "RESERVA MARINA ISLAS CHOROS - DAMAS", "REGION": "REGIÓN DE COQUIMBO", "PROVINCIA": "ELQUI", "COMUNA": "LA HIGUERA", "LOCALIDAD": "LA HIGUERA", "DIRECCION": null, "TELEFONO": null, "PROPIEDAD": null, "ADMINISTRA": null, "DISTCR": null, "CR": null, "DISTCC": null, "CC": null, "LOC_URBANA": null, "ESTACIONAL": null, "USO_TUR": null, "DEMANDA": "LOCAL, REGIONAL, NACIONAL", "SERVICIOS": null, "COD_REG": 4, "COD_PROV": 41, "COD_COM": 4104, "DESCRIPCIO": "Su importancia radica en la necesidad de conservar la estructura de las comunidades marinas costeras de las Islas Choros y Damas, su valor ambiental, y las poblaciones de recursos hidrobiológicos de interés para la pesca artesanal.", "ESTADO_1": null, "POINT_X": -71.534243245499994, "POINT_Y": -29.243819127599998, "Descripcion": "El Servicio Nacional de Turismo (Sernatur) cuenta con un catastro de atractivos turísticos a nivel nacional, el cual se elabora y actualiza en conjunto con las Direcciones Regionales de Sernatur, tomando como base la metodología diseñada para elaborar inventarios turísticos, desarrollada en la década del 70 por el Centro Interamericano de Capacitación Turística (CICATUR) con el apoyo de la Organización de Estados Americanos (OEA). Los atractivos turísticos son elementos determinantes para motivar, por sí solos o en combinación con otros la elección del destino de la actividad turística. Éstos se encuentran jerarquizados según el perfil del visitante y clasificados para establecer su interés turístico. El catastro se encuentra a nivel nacional, provincial, regional y comunal. Actualizacion al 2024", "Origen Data": "Portal de area de Destinos de Sernatur, disponible en: https://www.sernatur.cl/destinos/" }, "geometry": { "type": "Point", "coordinates": [ -71.534243245508733, -29.243819127633156, 0.0 ] } }
]
}
