{
"type": "FeatureCollection",
"name": "turismo_bienes_nacionales_protegidos",
"crs": { "type": "name", "properties": { "name": "urn:ogc:def:crs:OGC:1.3:CRS84" } },
"features": [
{ "type": "Feature", "properties": { "fid": 21, "COMUNA": "LA HIGUERA", "BNP": "ISLA GAVIOTA", "REGION": "Coquimbo", "DECRETO": "DEX 234/30.06.06; DEX 1312/24.12.12", "SUPERFICIE": 132.15, "ACT_ADM": null, "ADMINISTRA": null, "Descripcion": "Cobertura shapefile de Bienes Nacionales Protegidos (BNP). Cuenta con información relativa a ubicación, superficie, acto administrativo que crea la unidad, plano e información del administrador si es que corresponde. La cobertura es a nivel nacional, de carácter referencial, y no debe ser utilizado para realizar trabajos que requieran precisión geodésica.", "Origen Dato": "Portal de Datos Geoespaciales IDE Bienes Nacionales, disponible en: https://idembn.bienes.cl/idembn/catalog/3/Bienes%20Nacionales%20Protegidos" }, "geometry": { "type": "MultiPolygon", "coordinates": [ [ [ [ -71.478516920700002, -29.254480665200003 ], [ -71.478467812100007, -29.254480340299992 ], [ -71.478458023399995, -29.254479499199999 ], [ -71.478439488800021, -29.254473924699997 ], [ -71.478387853200005, -29.254444232200004 ], [ -71.478339911700004, -29.254418084900003 ], [ -71.4782935259, -29.254388192099999 ], [ -71.478227140200005, -29.254348422100005 ], [ -71.478184003299987, -29.254230584599991 ], [ -71.478224888099987, -29.254197891300006 ], [ -71.478234418199989, -29.254100394 ], [ -71.478245983199983, -29.2540684971 ], [ -71.478284959299998, -29.254033015500006 ], [ -71.478302282200005, -29.253984791699999 ], [ -71.478278734900002, -29.2539442723 ], [ -71.478239918, -29.253913418100002 ], [ -71.478251130299981, -29.253867752399998 ], [ -71.478201295899993, -29.253855235100001 ], [ -71.478149589899999, -29.253872179700004 ], [ -71.478108138099998, -29.253905668300003 ], [ -71.478094616599989, -29.254000190499998 ], [ -71.47803776710002, -29.2540849614 ], [ -71.477982981300002, -29.254077434399996 ], [ -71.477971413, -29.254029854699997 ], [ -71.477929793200005, -29.253996237800003 ], [ -71.477810719700003, -29.253901540400005 ], [ -71.477756182399986, -29.253896209900006 ], [ -71.477713852099996, -29.253983715499999 ], [ -71.477551533199986, -29.253982521600001 ], [ -71.4774430274, -29.253955340900003 ], [ -71.477352920300007, -29.253899790200006 ], [ -71.4772368645, -29.253895248299994 ], [ -71.477135327999989, -29.253931420299985 ], [ -71.477101137700004, -29.253974264299991 ], [ -71.476985310399982, -29.253983899199994 ], [ -71.476910208099994, -29.25406217 ], [ -71.476789947699999, -29.254094457900003 ], [ -71.476663193699991, -29.254089518299995 ], [ -71.476490615900005, -29.254052798299998 ], [ -71.47644283, -29.254023688600004 ], [ -71.476384059599994, -29.254013447199984 ], [ -71.476345331899992, -29.253978161400006 ], [ -71.476243905600001, -29.253950199 ], [ -71.4761399267, -29.253911927600001 ], [ -71.476089644499993, -29.253927780400005 ], [ -71.476035086099998, -29.253909188400002 ], [ -71.475977299899995, -29.253916736500013 ], [ -71.475887964499989, -29.253973015200003 ], [ -71.475738452200005, -29.253912438799997 ], [ -71.475682640499997, -29.253914835099991 ], [ -71.475531863200004, -29.25398919380001 ], [ -71.475473304399998, -29.2539928588 ], [ -71.475235415599997, -29.254053567299994 ], [ -71.47502883129998, -29.254114317899983 ], [ -71.474868123699991, -29.2541381787 ], [ -71.474694551399992, -29.254124641199997 ], [ -71.474483553799999, -29.2540593925 ], [ -71.474236117499998, -29.253991931400005 ], [ -71.474062236500004, -29.253959156499999 ], [ -71.474011864, -29.253934956199988 ], [ -71.473889340200003, -29.253883954599996 ], [ -71.473821859300003, -29.253877662299999 ], [ -71.473627871100007, -29.253779666 ], [ -71.473449438700001, -29.253646252799999 ], [ -71.473277177300005, -29.253505075200003 ], [ -71.473110327599997, -29.253372024600001 ], [ -71.47295942129999, -29.253221366899993 ], [ -71.472802588999983, -29.253067670299995 ], [ -71.472732642400004, -29.252989668399998 ], [ -71.472751857099993, -29.252892993300005 ], [ -71.472740504599983, -29.252843586800001 ], [ -71.47276940350001, -29.252659019399996 ], [ -71.472783867199993, -29.252558995199994 ], [ -71.472850967599996, -29.252468578800002 ], [ -71.472850761499998, -29.252463240100003 ], [ -71.472850241499998, -29.252458599200001 ], [ -71.472849441, -29.252454594599993 ], [ -71.4728483934, -29.252451165100002 ], [ -71.472847131799995, -29.252448249099999 ], [ -71.472845689500005, -29.252445785299997 ], [ -71.472844099900001, -29.252443712400005 ], [ -71.472842396100006, -29.252441968900015 ], [ -71.472840611599992, -29.252440493599998 ], [ -71.472838779599982, -29.252439224900005 ], [ -71.472836931100005, -29.252438106700005 ], [ -71.472835088500005, -29.252437104 ], [ -71.472833271899987, -29.252436186600001 ], [ -71.472831501300021, -29.252435324800004 ], [ -71.472829796900015, -29.252434488499979 ], [ -71.4728281788, -29.252433647799997 ], [ -71.472826667, -29.252432772799999 ], [ -71.472825281699983, -29.252431833500001 ], [ -71.472824043, -29.252430799900001 ], [ -71.472822970999985, -29.252429642300001 ], [ -71.4728220792, -29.252428336599998 ], [ -71.472821355400001, -29.252426883799998 ], [ -71.472820780499987, -29.252425290699996 ], [ -71.472820335799994, -29.252423564300006 ], [ -71.472820002299997, -29.252421711499998 ], [ -71.4728197612, -29.2524197392 ], [ -71.472819593500006, -29.252417654300011 ], [ -71.472819480499993, -29.252415463799991 ], [ -71.472819403199992, -29.252413174599983 ], [ -71.472819342700006, -29.252410793599999 ], [ -71.472819280500005, -29.252408331699996 ], [ -71.472819198899998, -29.2524058156 ], [ -71.472819080799979, -29.252403275899987 ], [ -71.472818908799979, -29.252400743300004 ], [ -71.472818665800006, -29.252398248400002 ], [ -71.472818334400003, -29.252395821799993 ], [ -71.47281789729999, -29.25239349420001 ], [ -71.472817337400016, -29.252391296200003 ], [ -71.472816637299985, -29.252389258500003 ], [ -71.472815779799987, -29.252387411600001 ], [ -71.4728147541, -29.252385777600008 ], [ -71.472813576199982, -29.252384343500001 ], [ -71.472812268200002, -29.2523830877 ], [ -71.472810852500004, -29.252381988499994 ], [ -71.472809351400002, -29.252381024200002 ], [ -71.472807787299985, -29.252380173399995 ], [ -71.472806182400006, -29.252379414200004 ], [ -71.4728045592, -29.252378725100002 ], [ -71.472802939900006, -29.252378084499981 ], [ -71.472801346899999, -29.252377470700004 ], [ -71.472799799900002, -29.252376864399992 ], [ -71.472798309, -29.2523762559 ], [ -71.47279688159999, -29.252375637700002 ], [ -71.472795524999981, -29.252375002399983 ], [ -71.472794246800007, -29.252374342600003 ], [ -71.472793054399986, -29.252373650900001 ], [ -71.47279195519998, -29.25237292 ], [ -71.472790956599994, -29.252372142200002 ], [ -71.472790066199991, -29.252371310399997 ], [ -71.472789291200002, -29.252370416900003 ], [ -71.472788637199997, -29.252369456499991 ], [ -71.472788101399999, -29.252368431400004 ], [ -71.472787679099994, -29.252367345899991 ], [ -71.472787365499997, -29.252366204500003 ], [ -71.472787155899994, -29.2523650115 ], [ -71.472787045599986, -29.252363771099994 ], [ -71.472787029799989, -29.252362487799999 ], [ -71.472787103799988, -29.252361165699977 ], [ -71.472787262799983, -29.252359809400005 ], [ -71.472787502100005, -29.252358423100002 ], [ -71.472787815299995, -29.252357010899978 ], [ -71.472788189699983, -29.25235557640001 ], [ -71.472788610599991, -29.252354122800003 ], [ -71.472789063699992, -29.252352653500008 ], [ -71.472789534599997, -29.252351171700006 ], [ -71.472790008600001, -29.252349680800002 ], [ -71.472790471500005, -29.252348184 ], [ -71.472790908700006, -29.252346684600013 ], [ -71.472791305699999, -29.252345186 ], [ -71.472791648200015, -29.252343691400004 ], [ -71.472791923700001, -29.252342204599998 ], [ -71.472792129, -29.252340730499988 ], [ -71.472792262700011, -29.252339274799994 ], [ -71.472792323500016, -29.252337842799992 ], [ -71.472792310299994, -29.252336440200008 ], [ -71.472792221800006, -29.252335072200005 ], [ -71.472792056699987, -29.252333744499992 ], [ -71.472791813699999, -29.252332462499993 ], [ -71.472791491700008, -29.252331231700005 ], [ -71.472791089299989, -29.252330057599998 ], [ -71.472790606499984, -29.252328943799998 ], [ -71.472790047399997, -29.252327886500005 ], [ -71.472789417599998, -29.2523268803 ], [ -71.472788722399997, -29.252325919599986 ], [ -71.472787967299993, -29.252324998799995 ], [ -71.472787157499994, -29.252324112399993 ], [ -71.472786298700001, -29.252323254699988 ], [ -71.472785396099979, -29.252322420299997 ], [ -71.472784455099998, -29.252321603600006 ], [ -71.472783481199997, -29.252320799 ], [ -71.472782479, -29.252320003199994 ], [ -71.472781450099987, -29.252319221100002 ], [ -71.472780395499996, -29.252318460199998 ], [ -71.472779315899999, -29.252317727599994 ], [ -71.472778212199998, -29.252317030599983 ], [ -71.472777085299981, -29.252316376500001 ], [ -71.472775936099993, -29.252315772599999 ], [ -71.472774765500006, -29.252315226 ], [ -71.472773574200005, -29.252314744100005 ], [ -71.472772363199994, -29.252314334200005 ], [ -71.472771132700004, -29.252314001099997 ], [ -71.472769880399994, -29.252313740500004 ], [ -71.472768603399999, -29.252313546 ], [ -71.472767298699992, -29.252313410699994 ], [ -71.472765963399993, -29.252313328199993 ], [ -71.472764594599994, -29.2523132918 ], [ -71.472763189399998, -29.252313294799993 ], [ -71.472761744799996, -29.2523133308 ], [ -71.472760258, -29.252313392899985 ], [ -71.472758725899993, -29.252313474799994 ], [ -71.472757146099994, -29.252313570500004 ], [ -71.472755518100001, -29.252313678 ], [ -71.472753842, -29.252313796199999 ], [ -71.472752117599995, -29.252313923700008 ], [ -71.472750344900007, -29.252314059400003 ], [ -71.47274852389998, -29.252314202 ], [ -71.472746654599987, -29.252314350399999 ], [ -71.472744737, -29.252314503400004 ], [ -71.472742770899998, -29.252314659599996 ], [ -71.472740756500002, -29.252314818 ], [ -71.472738695199993, -29.252314977200001 ], [ -71.472736595100002, -29.252315135899995 ], [ -71.472734465900004, -29.252315292799995 ], [ -71.472732317199998, -29.252315446299999 ], [ -71.472730158800005, -29.252315595200002 ], [ -71.472728000199993, -29.252315738099995 ], [ -71.472725851099995, -29.252315873499999 ], [ -71.472723721099996, -29.252316 ], [ -71.472721620100003, -29.252316116300008 ], [ -71.4727195575, -29.252316221 ], [ -71.4727175389, -29.252316312399994 ], [ -71.472715553099988, -29.252316388 ], [ -71.472713584900006, -29.252316445200002 ], [ -71.472711619, -29.252316481099999 ], [ -71.47270964, -29.252316492900004 ], [ -71.472707632600006, -29.252316478 ], [ -71.472705581699984, -29.252316433599997 ], [ -71.472703471800003, -29.252316356899993 ], [ -71.472701287600003, -29.252316245300005 ], [ -71.472699013899984, -29.252316095800001 ], [ -71.472696640099997, -29.252315906900002 ], [ -71.472694173899995, -29.252315680900004 ], [ -71.472691628, -29.252315421199992 ], [ -71.472689014899984, -29.2523151312 ], [ -71.47268634709998, -29.2523148143 ], [ -71.472683637299994, -29.252314473900004 ], [ -71.472680897800004, -29.252314113499999 ], [ -71.472678141399996, -29.252313736400001 ], [ -71.472675380400005, -29.252313346099999 ], [ -71.472672627599991, -29.2523129458 ], [ -71.472669893499983, -29.252312538799995 ], [ -71.4726671815, -29.252312126499998 ], [ -71.47266449289998, -29.252311710200001 ], [ -71.472661829100005, -29.252311290900003 ], [ -71.472659191599988, -29.252310869900001 ], [ -71.472656581799995, -29.252310448500001 ], [ -71.472654001099997, -29.252310027699991 ], [ -71.472651450900003, -29.252309608700006 ], [ -71.472648932599995, -29.252309192899993 ], [ -71.472646447600013, -29.2523087812 ], [ -71.47264399609999, -29.2523083751 ], [ -71.472641573100006, -29.252307976299999 ], [ -71.472639172599997, -29.252307586799986 ], [ -71.472636788200006, -29.252307208599998 ], [ -71.472634413799994, -29.252306843500005 ], [ -71.472632043199994, -29.252306493500001 ], [ -71.472629670299995, -29.252306160500002 ], [ -71.472627288899986, -29.252305846499997 ], [ -71.472624892699997, -29.252305553300001 ], [ -71.472622475700007, -29.252305283 ], [ -71.472620031899979, -29.252305037099998 ], [ -71.472617556800003, -29.252304815399995 ], [ -71.472615046399994, -29.252304617299998 ], [ -71.472612496299988, -29.252304442500009 ], [ -71.472609902499997, -29.25230429030001 ], [ -71.472607260700002, -29.252304160200005 ], [ -71.472604566800001, -29.252304051700001 ], [ -71.472601816700006, -29.252303964199996 ], [ -71.472599006099998, -29.252303897299999 ], [ -71.472596130900001, -29.252303850400004 ], [ -71.472593188299996, -29.252303822699993 ], [ -71.472590181, -29.252303812499999 ], [ -71.472587113200007, -29.252303818100007 ], [ -71.472583988899999, -29.2523038374 ], [ -71.472580812199993, -29.252303868599988 ], [ -71.472577587399996, -29.252303909799998 ], [ -71.472574318400007, -29.252303959 ], [ -71.472571009399985, -29.252304014499998 ], [ -71.472567664599993, -29.252304074299992 ], [ -71.472564287899985, -29.252304136399996 ], [ -71.472560879999989, -29.252304198900003 ], [ -71.4725574271, -29.252304258599999 ], [ -71.472553911700004, -29.252304312100001 ], [ -71.472550316500005, -29.2523043562 ], [ -71.472546623999989, -29.252304387499997 ], [ -71.472542816899988, -29.252304402799993 ], [ -71.472538877800005, -29.2523043986 ], [ -71.472534789199997, -29.252304371799998 ], [ -71.472530533900013, -29.252304318899988 ], [ -71.472526094399996, -29.252304236699999 ], [ -71.472521463600003, -29.252304123700004 ], [ -71.472516675599991, -29.252303985600008 ], [ -71.472511775099989, -29.252303830299997 ], [ -71.472506806499993, -29.252303665300001 ], [ -71.47250181439999, -29.252303498300005 ], [ -71.472496843100004, -29.252303337 ], [ -71.47249193719999, -29.252303189 ], [ -71.472487141200006, -29.252303062 ], [ -71.472482499600005, -29.252302963699996 ], [ -71.472478057, -29.252302901800007 ], [ -71.472473848399986, -29.252302881700004 ], [ -71.472469872, -29.252302900399997 ], [ -71.472466116700005, -29.252302952600001 ], [ -71.472462571099996, -29.252303033 ], [ -71.472459224100007, -29.252303136500004 ], [ -71.472456064400006, -29.2523032577 ], [ -71.472453081, -29.252303391499993 ], [ -71.472450262500004, -29.252303532500001 ], [ -71.472447597699997, -29.252303675499977 ], [ -71.472445075500005, -29.252303815200005 ], [ -71.472442685299995, -29.252303946500007 ], [ -71.472440418599987, -29.252304064 ], [ -71.472438267800001, -29.252304162299996 ], [ -71.472436225099997, -29.252304236200001 ], [ -71.472434282799995, -29.252304280299995 ], [ -71.472432433099996, -29.252304289399994 ], [ -71.472430668299992, -29.252304258100008 ], [ -71.472428980599986, -29.252304181100001 ], [ -71.472427362299996, -29.252304053100005 ], [ -71.472425805599997, -29.2523038687 ], [ -71.472424304399993, -29.2523036238 ], [ -71.47242285839998, -29.252303318400003 ], [ -71.472421469299988, -29.252302953800005 ], [ -71.472420138199979, -29.252302531099993 ], [ -71.472418866699982, -29.252302051499999 ], [ -71.472417656199994, -29.252301516199999 ], [ -71.472416508099997, -29.252300926399993 ], [ -71.472415423800001, -29.252300283200004 ], [ -71.472414404700004, -29.252299587899998 ], [ -71.472413452299989, -29.252298841699997 ], [ -71.472412567100008, -29.252298045100009 ], [ -71.472411746399999, -29.252297196400001 ], [ -71.4724109868, -29.252296293099999 ], [ -71.472410284600016, -29.252295333 ], [ -71.472409636399988, -29.2522943138 ], [ -71.472409038700007, -29.252293232900005 ], [ -71.472408487899997, -29.252292088099995 ], [ -71.472407980399993, -29.252290877 ], [ -71.472407512900006, -29.252289597199997 ], [ -71.4724070818, -29.252288246499997 ], [ -71.472406682900001, -29.252286825900004 ], [ -71.472406310099998, -29.252285351400005 ], [ -71.472405956499998, -29.25228384239999 ], [ -71.472405615300005, -29.252282318100011 ], [ -71.4724052798, -29.252280798200008 ], [ -71.472404943, -29.252279301800005 ], [ -71.472404598299988, -29.252277848599991 ], [ -71.472404238899998, -29.252276457699995 ], [ -71.472403857799989, -29.252275148800006 ], [ -71.4724034483, -29.252273941200002 ], [ -71.472403000599996, -29.252272849500006 ], [ -71.472402492699999, -29.252271870099978 ], [ -71.472401899499999, -29.252270994300005 ], [ -71.472401195900005, -29.252270213700001 ], [ -71.472400357, -29.252269519699997 ], [ -71.472399357800001, -29.252268903800005 ], [ -71.472398173, -29.2522683575 ], [ -71.4723967778, -29.252267872300003 ], [ -71.472395147100002, -29.252267439699999 ], [ -71.4723932558, -29.252267051100002 ], [ -71.472391084600005, -29.252266699099998 ], [ -71.472388636900007, -29.252266380399998 ], [ -71.472385921899999, -29.252266092499998 ], [ -71.472382948700016, -29.252265833100001 ], [ -71.472379726400007, -29.252265599900003 ], [ -71.472376264199994, -29.252265390499993 ], [ -71.472372571199983, -29.252265202600011 ], [ -71.472368656599997, -29.252265033899999 ], [ -71.472364529399997, -29.252264882 ], [ -71.472360198800004, -29.2522647445 ], [ -71.47235568089998, -29.252264619599984 ], [ -71.472351019900003, -29.252264507100001 ], [ -71.472346266799988, -29.252264407399998 ], [ -71.472341472599993, -29.252264320899993 ], [ -71.472336688499993, -29.252264247700008 ], [ -71.472331965599992, -29.252264188399998 ], [ -71.472327354800001, -29.2522641431 ], [ -71.472322907299997, -29.252264112299994 ], [ -71.472318674299999, -29.252264096299989 ], [ -71.472314706600002, -29.252264095400001 ], [ -71.472311042099989, -29.252264109600002 ], [ -71.472307664899986, -29.252264137600001 ], [ -71.4723045458, -29.252264177900003 ], [ -71.472301655600006, -29.252264228899985 ], [ -71.472298964899991, -29.252264289 ], [ -71.472296444700007, -29.252264356599994 ], [ -71.472294065699998, -29.25226443 ], [ -71.472291798699985, -29.252264507800003 ], [ -71.472289614399998, -29.252264588399992 ], [ -71.472287483599985, -29.25226467 ], [ -71.472285380499983, -29.252264751499979 ], [ -71.472283292399993, -29.252264832200016 ], [ -71.472281210099993, -29.252264912 ], [ -71.472279124300002, -29.252264990600011 ], [ -71.472277025899999, -29.252265067700002 ], [ -71.472274905599988, -29.252265143099997 ], [ -71.47227275409999, -29.252265216499993 ], [ -71.472270562099993, -29.252265287699991 ], [ -71.472268320499992, -29.252265356399999 ], [ -71.47226602, -29.252265422299992 ], [ -71.472263654299979, -29.252265485400009 ], [ -71.472261229200001, -29.252265545599997 ], [ -71.472258753399998, -29.252265603500003 ], [ -71.472256235800003, -29.252265659099997 ], [ -71.472253684999984, -29.252265712699995 ], [ -71.4722511099, -29.252265764699992 ], [ -71.472248519199979, -29.252265815300003 ], [ -71.472245921600006, -29.252265864700004 ], [ -71.472243326, -29.252265913200002 ], [ -71.472240741, -29.252265961100001 ], [ -71.472238174799998, -29.252266008599999 ], [ -71.472235632899995, -29.2522660556 ], [ -71.472233120200002, -29.252266102099995 ], [ -71.472230641500005, -29.252266148 ], [ -71.472228201700005, -29.252266193099995 ], [ -71.472225805600019, -29.252266237399994 ], [ -71.472223458200006, -29.252266280900002 ], [ -71.472221164200008, -29.252266323300002 ], [ -71.4722189286, -29.252266364699999 ], [ -71.472216756199998, -29.252266404900002 ], [ -71.47221464479999, -29.252266444 ], [ -71.472212564100005, -29.252266483 ], [ -71.472210476599997, -29.252266523 ], [ -71.472208344799981, -29.252266565 ], [ -71.472206131500002, -29.25226661029998 ], [ -71.472203799099987, -29.252266659899998 ], [ -71.472201310200006, -29.252266715 ], [ -71.472198627500006, -29.252266776600003 ], [ -71.472195713299982, -29.252266845900007 ], [ -71.472192530499996, -29.252266924100002 ], [ -71.472189059499996, -29.252267011599997 ], [ -71.472185353299992, -29.252267106799998 ], [ -71.472181482799982, -29.252267207699997 ], [ -71.472177519099986, -29.252267311900003 ], [ -71.472173532899987, -29.252267417500001 ], [ -71.472169595500006, -29.252267522100006 ], [ -71.472165777599997, -29.2522676237 ], [ -71.472162150200006, -29.252267720100004 ], [ -71.472158784299992, -29.252267809 ], [ -71.472155750900001, -29.252267888399995 ], [ -71.47215309969998, -29.252267956299999 ], [ -71.472150795399983, -29.252268011899986 ], [ -71.472148781699985, -29.252268054400002 ], [ -71.472147002199989, -29.25226808319999 ], [ -71.472145400200006, -29.252268097600002 ], [ -71.472143919499985, -29.2522680971 ], [ -71.472142503599983, -29.252268080799993 ], [ -71.472141096099989, -29.252268048200001 ], [ -71.472139640500004, -29.252267998600001 ], [ -71.472138080299999, -29.252267931299993 ], [ -71.472136371399998, -29.252267846599995 ], [ -71.472134518199994, -29.252267748399994 ], [ -71.472132537299998, -29.252267641499998 ], [ -71.472130445399998, -29.252267530700003 ], [ -71.472128259200005, -29.252267420799999 ], [ -71.472125995300004, -29.252267316499999 ], [ -71.472123670399995, -29.252267222800008 ], [ -71.472121301099989, -29.252267144400008 ], [ -71.4721189041, -29.252267086 ], [ -71.472116496099986, -29.252267052599993 ], [ -71.472114091700007, -29.252267048599997 ], [ -71.472111698399999, -29.252267077199996 ], [ -71.472109321499985, -29.252267141299999 ], [ -71.472106966499993, -29.252267243700004 ], [ -71.472104638700003, -29.252267387400003 ], [ -71.4721023436, -29.252267575200001 ], [ -71.472100086599994, -29.25226781 ], [ -71.472097873099983, -29.252268094700003 ], [ -71.472095708500007, -29.252268432200001 ], [ -71.472093598299992, -29.252268825299996 ], [ -71.4720915467, -29.252269275 ], [ -71.472089553300009, -29.252269774299997 ], [ -71.472087616599993, -29.252270314399993 ], [ -71.472085735, -29.252270886199998 ], [ -71.472083907, -29.252271480899992 ], [ -71.472082131, -29.252272089700003 ], [ -71.472080405499995, -29.252272703499997 ], [ -71.472078728999989, -29.252273313499991 ], [ -71.472077099800003, -29.2522739108 ], [ -71.472075516499984, -29.252274486400005 ], [ -71.472073978500006, -29.252275034299998 ], [ -71.47207248849999, -29.252275559699992 ], [ -71.472071050500006, -29.252276070599997 ], [ -71.472069668299994, -29.252276574899994 ], [ -71.472068345799997, -29.252277080599992 ], [ -71.47206708669998, -29.252277595899994 ], [ -71.472065894899998, -29.252278128600004 ], [ -71.472064774200007, -29.25227868679999 ], [ -71.472063728400002, -29.252279278499994 ], [ -71.472062761499984, -29.252279911699997 ], [ -71.472061874399984, -29.252280592199991 ], [ -71.472061057199994, -29.252281316800001 ], [ -71.472060297399992, -29.252282080400004 ], [ -71.472059582199989, -29.252282877599999 ], [ -71.47205889910002, -29.252283703 ], [ -71.472058235299997, -29.252284551500001 ], [ -71.472057578299996, -29.252285417799992 ], [ -71.472056915399989, -29.252286296500003 ], [ -71.472056233900005, -29.252287182300009 ], [ -71.472055521200005, -29.252288069999988 ], [ -71.472054766100001, -29.252288954699999 ], [ -71.472053963199997, -29.252289834 ], [ -71.472053108599994, -29.252290705699995 ], [ -71.472052198299991, -29.2522915678 ], [ -71.472051228399991, -29.252292418199996 ], [ -71.472050194899992, -29.252293254899996 ], [ -71.472049093899997, -29.252294075799995 ], [ -71.472047921500007, -29.252294878800001 ], [ -71.472046673699992, -29.252295662 ], [ -71.472045346599998, -29.252296423199994 ], [ -71.472043938499979, -29.252297160099992 ], [ -71.472042457300006, -29.252297869300001 ], [ -71.472040913100003, -29.252298547399995 ], [ -71.472039316, -29.252299190700004 ], [ -71.472037676100001, -29.252299795500001 ], [ -71.472036003599996, -29.252300358399999 ], [ -71.472034308600001, -29.252300875699987 ], [ -71.4720326013, -29.252301343700001 ], [ -71.472030891699987, -29.252301759099996 ], [ -71.472029189899985, -29.252302118 ], [ -71.4720275034, -29.252302418700005 ], [ -71.472025827699994, -29.252302666399999 ], [ -71.472024155699998, -29.252302868 ], [ -71.4720224804, -29.252303030499988 ], [ -71.472020794599999, -29.252303160800011 ], [ -71.472019091099995, -29.252303265799988 ], [ -71.472017362900004, -29.252303352599998 ], [ -71.472015602699997, -29.252303428099992 ], [ -71.472013803600007, -29.252303499099998 ], [ -71.472011958300001, -29.252303572800002 ], [ -71.472010061899994, -29.252303654400002 ], [ -71.472008118499986, -29.252303743199999 ], [ -71.472006134400004, -29.252303837099987 ], [ -71.472004115800004, -29.252303933699995 ], [ -71.472002069, -29.2523040309 ], [ -71.4720000003, -29.252304126299993 ], [ -71.471997915900005, -29.252304217799988 ], [ -71.471995822200014, -29.252304303 ], [ -71.471993725299981, -29.252304379800002 ], [ -71.471991631600005, -29.2523044458 ], [ -71.471989546, -29.252304499899999 ], [ -71.471987468, -29.252304544399987 ], [ -71.471985395700003, -29.252304582899988 ], [ -71.471983327199993, -29.252304618700002 ], [ -71.471981260700005, -29.252304655400003 ], [ -71.471979194300005, -29.252304696300001 ], [ -71.471977126100001, -29.252304744900009 ], [ -71.471975054300003, -29.252304804600001 ], [ -71.471972977099995, -29.252304878999983 ], [ -71.471970892399995, -29.252304971399994 ], [ -71.471968800499994, -29.252305084500001 ], [ -71.471966709100002, -29.252305218 ], [ -71.471964627799991, -29.252305371 ], [ -71.471962566499997, -29.252305542299986 ], [ -71.471960534700003, -29.252305731 ], [ -71.471958542300001, -29.252305936 ], [ -71.471956598799991, -29.252306156299998 ], [ -71.471954714099994, -29.252306390800012 ], [ -71.471952897700007, -29.252306638499999 ], [ -71.47195115949998, -29.252306898500002 ], [ -71.471949505400005, -29.2523071713 ], [ -71.471947926699997, -29.252307464899999 ], [ -71.471946411, -29.252307788899998 ], [ -71.471944945900006, -29.252308152799994 ], [ -71.471943518900005, -29.2523085662 ], [ -71.471942117599994, -29.252309038899998 ], [ -71.47194072969998, -29.2523095803 ], [ -71.471939342699983, -29.2523102 ], [ -71.471937944199993, -29.252310907799998 ], [ -71.471936521700002, -29.252311713099999 ], [ -71.471935066399979, -29.252312622 ], [ -71.4719335833, -29.252313626399989 ], [ -71.471932080699986, -29.252314714700002 ], [ -71.471930567300006, -29.252315875200001 ], [ -71.471929051400011, -29.252317096300004 ], [ -71.471927541499994, -29.252318366200001 ], [ -71.471926046199997, -29.252319673300001 ], [ -71.471924573799981, -29.252321006 ], [ -71.471923132899988, -29.252322352599997 ], [ -71.471921732, -29.252323701499996 ], [ -71.471920379099998, -29.252325040799985 ], [ -71.471919081099983, -29.2523263587 ], [ -71.4719178446, -29.252327643099992 ], [ -71.471916676099994, -29.252328881899992 ], [ -71.471915582099982, -29.252330063100001 ], [ -71.471914569, -29.2523311747 ], [ -71.471913643500002, -29.252332204499993 ], [ -71.471912812099987, -29.252333140600001 ], [ -71.471912081200003, -29.252333970900011 ], [ -71.471911457399997, -29.252334683299992 ], [ -71.471910938700006, -29.252335270699987 ], [ -71.471910489, -29.252335745399996 ], [ -71.471910063799982, -29.252336124399999 ], [ -71.471909618300003, -29.252336424799999 ], [ -71.471909108099993, -29.252336663900003 ], [ -71.471908488499992, -29.252336858699994 ], [ -71.471907715, -29.252337026399999 ], [ -71.471906742900003, -29.2523371841 ], [ -71.471905527600001, -29.252337348900003 ], [ -71.471904024499992, -29.252337538 ], [ -71.471902201700004, -29.2523377646 ], [ -71.471900077300006, -29.252338026500002 ], [ -71.471897682199995, -29.252338317500005 ], [ -71.471895047099991, -29.252338631699992 ], [ -71.471892202899994, -29.252338962899998 ], [ -71.471889180299996, -29.252339305 ], [ -71.471886010199981, -29.252339652 ], [ -71.4718827234, -29.252339997699998 ], [ -71.471879350699993, -29.252340336099998 ], [ -71.471875922899997, -29.252340661 ], [ -71.471872468300006, -29.252340970700001 ], [ -71.471869005299979, -29.252341280100001 ], [ -71.471865549899988, -29.252341608399991 ], [ -71.471862117899988, -29.252341975 ], [ -71.471858725199979, -29.252342399100002 ], [ -71.471855387799991, -29.252342899900007 ], [ -71.471852121599994, -29.2523434967 ], [ -71.471848942499989, -29.2523442088 ], [ -71.471845866400002, -29.252345055300001 ], [ -71.471842909200006, -29.252346055599997 ], [ -71.471840083700002, -29.252347221299999 ], [ -71.471837389800001, -29.252348534100005 ], [ -71.471834824300004, -29.252349968199994 ], [ -71.471832383899994, -29.252351497599989 ], [ -71.471830065399985, -29.252353096499981 ], [ -71.471827865500003, -29.252354739 ], [ -71.47182578109998, -29.252356399199996 ], [ -71.471823808899998, -29.252358051200002 ], [ -71.4718219457, -29.252359669100002 ], [ -71.471820188099997, -29.252361227099993 ], [ -71.471818529199993, -29.252362704 ], [ -71.471816946800004, -29.252364097900003 ], [ -71.471815414700004, -29.252365411499998 ], [ -71.471813906799994, -29.252366647600002 ], [ -71.471812397199983, -29.252367809 ], [ -71.4718108597, -29.252368898399997 ], [ -71.471809268200005, -29.252369918600003 ], [ -71.471807596800005, -29.2523708724 ], [ -71.4718058192, -29.252371762500015 ], [ -71.471803909500011, -29.252372591700002 ], [ -71.471801848700011, -29.252373363499991 ], [ -71.471799646400001, -29.252374083700001 ], [ -71.471797319299981, -29.252374758900007 ], [ -71.471794884, -29.252375395699996 ], [ -71.471792357499993, -29.2523760005 ], [ -71.471789756199996, -29.252376580099998 ], [ -71.471787096999989, -29.252377140900002 ], [ -71.4717843966, -29.252377689499998 ], [ -71.471781671599985, -29.252378232400002 ], [ -71.471778938899988, -29.252378776299992 ], [ -71.471776213799984, -29.252379327 ], [ -71.471773507400002, -29.252379888 ], [ -71.471770829099981, -29.2523804623 ], [ -71.471768188699997, -29.252381052600001 ], [ -71.471765595799994, -29.252381661899999 ], [ -71.471763060100002, -29.252382293100002 ], [ -71.471760591100008, -29.252382948900003 ], [ -71.471758198699987, -29.252383632299995 ], [ -71.471755892299996, -29.252384346199999 ], [ -71.471753681799981, -29.252385093300003 ], [ -71.47175157209999, -29.252385874600005 ], [ -71.4717495501, -29.252386682499996 ], [ -71.471747598299999, -29.252387507500003 ], [ -71.471745698899994, -29.2523883398 ], [ -71.4717438343, -29.25238917 ], [ -71.471741986799998, -29.252389988400001 ], [ -71.471740138899989, -29.252390785399999 ], [ -71.47173827269998, -29.252391551500004 ], [ -71.471736370800002, -29.2523922771 ], [ -71.471734415300006, -29.252392952500003 ], [ -71.4717323908, -29.252393571 ], [ -71.471730290099998, -29.252394136699998 ], [ -71.471728108199997, -29.252394656599993 ], [ -71.471725839900003, -29.25239513759999 ], [ -71.4717234803, -29.252395586799977 ], [ -71.471721024199994, -29.252396011 ], [ -71.471718466599995, -29.252396417300009 ], [ -71.471715802500015, -29.252396812600001 ], [ -71.471713026699987, -29.252397203899992 ], [ -71.471710134299997, -29.2523975981 ], [ -71.471707129, -29.252398000100005 ], [ -71.471704049699994, -29.252398406499999 ], [ -71.471700944199981, -29.252398811900001 ], [ -71.471697860399999, -29.252399210699995 ], [ -71.471694845900004, -29.2523995976 ], [ -71.471691948699998, -29.252399967100004 ], [ -71.47168921639998, -29.252400313699997 ], [ -71.47168669689998, -29.252400631900002 ], [ -71.471684437899995, -29.252400916399996 ], [ -71.471682487300001, -29.2524011615 ], [ -71.471680876400001, -29.252401364800001 ], [ -71.471679571400003, -29.252401534899995 ], [ -71.471678522, -29.252401683500008 ], [ -71.471677677900004, -29.252401822200003 ], [ -71.471676989, -29.252401962600004 ], [ -71.471676404899981, -29.252402116399995 ], [ -71.471675875500011, -29.25240229509998 ], [ -71.471675350400005, -29.252402510299998 ], [ -71.471674779400018, -29.2524027736 ], [ -71.471674112299979, -29.252403096799995 ], [ -71.471673310900002, -29.252403488400002 ], [ -71.471672385600002, -29.252403945600005 ], [ -71.471671359, -29.252404462699999 ], [ -71.471670253599981, -29.252405033900004 ], [ -71.471669091799995, -29.252405653500002 ], [ -71.471667896199989, -29.252406315599995 ], [ -71.471666689200006, -29.252407014599999 ], [ -71.471665493499998, -29.252407744700005 ], [ -71.471664331499994, -29.252408500099996 ], [ -71.4716632258, -29.252409275 ], [ -71.471662192499991, -29.252410064500001 ], [ -71.471661223199987, -29.252410866600002 ], [ -71.471660302899991, -29.252411679900003 ], [ -71.471659416899982, -29.252412503299993 ], [ -71.471658550200004, -29.252413335499988 ], [ -71.471657688, -29.252414175299997 ], [ -71.471656815599999, -29.252415021299996 ], [ -71.471655918, -29.2524158724 ], [ -71.471654980400004, -29.252416727199979 ], [ -71.471653988, -29.252417584599993 ], [ -71.471652928300003, -29.252418442599989 ], [ -71.471651797800007, -29.252419296599992 ], [ -71.471650595699998, -29.252420141200002 ], [ -71.471649320899985, -29.252420971100005 ], [ -71.471647972499994, -29.252421781100001 ], [ -71.471646549400006, -29.252422565700005 ], [ -71.471645050700005, -29.252423319599998 ], [ -71.471643475299999, -29.252424037600001 ], [ -71.471641822300001, -29.252424714299991 ], [ -71.471640090600019, -29.252425344399999 ], [ -71.471638278499995, -29.252425923899999 ], [ -71.471636380699991, -29.252426454699997 ], [ -71.471634391199999, -29.252426939899987 ], [ -71.471632304, -29.252427382599993 ], [ -71.471630113100005, -29.25242778609999 ], [ -71.471627812399987, -29.252428153399986 ], [ -71.471625395899991, -29.2524284878 ], [ -71.47162285749998, -29.252428792400003 ], [ -71.471620191400007, -29.252429070400012 ], [ -71.471617391400002, -29.252429324899996 ], [ -71.471614428600006, -29.252429559199996 ], [ -71.471611182899991, -29.252429777399996 ], [ -71.471607511199991, -29.252429983500004 ], [ -71.471603270399996, -29.252430181700003 ], [ -71.471598317499996, -29.252430376100001 ], [ -71.471592509399983, -29.252430570699996 ], [ -71.471585703100004, -29.252430769899991 ], [ -71.471577755599981, -29.252430977500001 ], [ -71.471568523599984, -29.252431197799993 ], [ -71.47155786430001, -29.252431435 ], [ -71.471545700900009, -29.2524316911 ], [ -71.471532222099995, -29.252431960599999 ], [ -71.471517682699996, -29.252432236 ], [ -71.47150233779999, -29.252432509699986 ], [ -71.471486442300019, -29.252432774300011 ], [ -71.471470251299991, -29.252433022300004 ], [ -71.471454019600003, -29.252433246099987 ], [ -71.47143800229999, -29.252433438199994 ], [ -71.471422454299997, -29.25243359109999 ], [ -71.471407630599984, -29.252433697299995 ], [ -71.471393738499998, -29.252433751399995 ], [ -71.471380794699982, -29.252433756700004 ], [ -71.471368768100007, -29.252433718599992 ], [ -71.4713576276, -29.252433642500005 ], [ -71.471347342200005, -29.252433533699996 ], [ -71.471337880899995, -29.252433397799997 ], [ -71.471329212599997, -29.2524332401 ], [ -71.471321306299984, -29.252433066 ], [ -71.471314130899998, -29.252432880899992 ], [ -71.471307655499984, -29.252432690299997 ], [ -71.471301835800006, -29.252432498899999 ], [ -71.471296574799993, -29.2524323094 ], [ -71.471291762700019, -29.2524321237 ], [ -71.471287289399996, -29.2524319441 ], [ -71.471283044700002, -29.252431772399994 ], [ -71.471278918799996, -29.252431610700011 ], [ -71.471274801500002, -29.252431461 ], [ -71.471270582800003, -29.252431325500002 ], [ -71.471266152799998, -29.252431206 ], [ -71.471261401199996, -29.252431104699994 ], [ -71.4712562486, -29.252431022799996 ], [ -71.471250736900004, -29.252430958599998 ], [ -71.471244938500007, -29.252430909400019 ], [ -71.471238925899982, -29.252430872800002 ], [ -71.471232771299995, -29.252430846 ], [ -71.471226547200004, -29.252430826699999 ], [ -71.471220326099981, -29.2524308122 ], [ -71.471214180199993, -29.2524308 ], [ -71.471208181999984, -29.252430787500003 ], [ -71.471202403899994, -29.252430772100002 ], [ -71.471196903299997, -29.252430753399992 ], [ -71.471191677299998, -29.252430739400001 ], [ -71.471186708, -29.252430740199991 ], [ -71.471181977599983, -29.252430765900005 ], [ -71.471177468199997, -29.252430826500003 ], [ -71.471173161899983, -29.252430932200006 ], [ -71.471169040899994, -29.252431093 ], [ -71.471165087200006, -29.252431319100001 ], [ -71.471161283100002, -29.252431620600007 ], [ -71.471157610700004, -29.252432007399996 ], [ -71.471154052100005, -29.252432484900005 ], [ -71.471150590099995, -29.252433038800003 ], [ -71.471147207599998, -29.252433649699999 ], [ -71.4711438872, -29.252434298600001 ], [ -71.471140611899997, -29.252434966100004 ], [ -71.471137364399979, -29.252435633099999 ], [ -71.471134127599996, -29.252436280400005 ], [ -71.471130884299996, -29.252436888799984 ], [ -71.471127617299985, -29.252437439 ], [ -71.471124309399997, -29.252437911800008 ], [ -71.471120948, -29.252438291900003 ], [ -71.471117538299993, -29.252438578899998 ], [ -71.471114090200004, -29.252438776299993 ], [ -71.47111061359999, -29.252438887499995 ], [ -71.471107118299983, -29.252438916199999 ], [ -71.471103614099988, -29.252438865600002 ], [ -71.471100110899997, -29.252438739399992 ], [ -71.471096618499999, -29.252438541 ], [ -71.471093146699999, -29.252438273799999 ], [ -71.471089705400004, -29.2524379414 ], [ -71.471086305599997, -29.252437544599996 ], [ -71.471082962500006, -29.252437073500001 ], [ -71.4710796926, -29.252436515599992 ], [ -71.471076512300002, -29.252435858500004 ], [ -71.471073437900003, -29.252435089499993 ], [ -71.471070485999988, -29.252434196199996 ], [ -71.471067673, -29.252433166200003 ], [ -71.471065015199997, -29.252431986799998 ], [ -71.471062529099996, -29.252430645499999 ], [ -71.471060231099997, -29.252429129899991 ], [ -71.471058127500001, -29.252427435599994 ], [ -71.471056184799991, -29.252425590600001 ], [ -71.471054359199996, -29.252423631200003 ], [ -71.471052606899988, -29.252421593600005 ], [ -71.471050884299999, -29.252419513900001 ], [ -71.471049147599985, -29.252417428299989 ], [ -71.471047353100005, -29.252415373099993 ], [ -71.471045457100004, -29.252413384499992 ], [ -71.471043415799997, -29.252411498600001 ], [ -71.471041185600001, -29.2524097517 ], [ -71.4710387346, -29.252408172199999 ], [ -71.47103607859998, -29.252406757599999 ], [ -71.471033245100003, -29.252405497599998 ], [ -71.471030261799996, -29.252404382 ], [ -71.471027156299996, -29.252403400400009 ], [ -71.471023956299987, -29.252402542600002 ], [ -71.471020689300005, -29.252401798400001 ], [ -71.471017382900001, -29.252401157300003 ], [ -71.471014064900004, -29.252400609300004 ], [ -71.471010762700004, -29.252400143899997 ], [ -71.471007503900012, -29.252399751600002 ], [ -71.471004314899986, -29.252399425100002 ], [ -71.4710012221, -29.252399157800003 ], [ -71.470998251799998, -29.252398943200003 ], [ -71.470995430299979, -29.252398774699998 ], [ -71.470992784, -29.252398645599996 ], [ -71.470990338999982, -29.252398549399992 ], [ -71.470988121899993, -29.252398479500002 ], [ -71.470986158800002, -29.252398429400007 ], [ -71.470984476199988, -29.252398392300005 ], [ -71.470983085100002, -29.252398359300003 ], [ -71.470981936200005, -29.252398310699999 ], [ -71.470980964700004, -29.252398224699991 ], [ -71.470980105999985, -29.252398079300004 ], [ -71.470979295599989, -29.252397852400009 ], [ -71.470978468799984, -29.252397522100004 ], [ -71.470977560899982, -29.252397066399993 ], [ -71.470976507399982, -29.252396463299998 ], [ -71.470975243499993, -29.252395690700002 ], [ -71.470973704800002, -29.252394726700018 ], [ -71.470971840399997, -29.2523935577 ], [ -71.470969655199994, -29.252392202899994 ], [ -71.470967168, -29.252390690199995 ], [ -71.4709643976, -29.252389047299999 ], [ -71.470961362799997, -29.252387301800002 ], [ -71.470958082399989, -29.252385481600001 ], [ -71.470954575, -29.25238361429999 ], [ -71.470950859599995, -29.252381727699991 ], [ -71.470946954799999, -29.2523798494 ], [ -71.470942879500001, -29.252378007299995 ], [ -71.47093865, -29.252376225799999 ], [ -71.470934273099999, -29.2523745168 ], [ -71.470929753, -29.252372888899998 ], [ -71.470925094099996, -29.252371350699999 ], [ -71.4709203006, -29.252369910899979 ], [ -71.470915377, -29.252368578199999 ], [ -71.470910327400006, -29.252367361100003 ], [ -71.470905156300006, -29.252366268300008 ], [ -71.4708998678, -29.252365308400009 ], [ -71.470894466299995, -29.252364490200002 ], [ -71.470888964799997, -29.252363818300008 ], [ -71.470883410400006, -29.252363282499996 ], [ -71.470877858899996, -29.252362868400002 ], [ -71.470872366199998, -29.252362562 ], [ -71.470866987999983, -29.2523623489 ], [ -71.470861780299998, -29.252362215 ], [ -71.470856798699984, -29.252362146100001 ], [ -71.470852099200002, -29.25236212790001 ], [ -71.470847737400007, -29.252362146299994 ], [ -71.470843769299989, -29.252362187 ], [ -71.470840231, -29.252362238700002 ], [ -71.470837080199985, -29.252362300899996 ], [ -71.470834254799982, -29.252362376400004 ], [ -71.470831692899992, -29.252362467499996 ], [ -71.470829332400001, -29.252362576700001 ], [ -71.470827111399998, -29.252362706599992 ], [ -71.470824967799985, -29.252362859600005 ], [ -71.470822839700006, -29.252363038300004 ], [ -71.470820665, -29.2523632451 ], [ -71.470818381800001, -29.2523634826 ], [ -71.470815941699996, -29.252363752699992 ], [ -71.470813351, -29.252364055100003 ], [ -71.470810629400006, -29.2523643886 ], [ -71.470807796799988, -29.252364752399988 ], [ -71.470804873099993, -29.252365145500008 ], [ -71.470801878100005, -29.252365566899993 ], [ -71.470798831699994, -29.252366015699998 ], [ -71.470795753700003, -29.252366490799997 ], [ -71.470792664, -29.252366991399985 ], [ -71.470789582499989, -29.2523675164 ], [ -71.470786523799987, -29.252368065800002 ], [ -71.470783482200005, -29.2523686424 ], [ -71.47078044689998, -29.252369250099999 ], [ -71.470777406899998, -29.252369892699988 ], [ -71.470774351399996, -29.252370574 ], [ -71.470771269500005, -29.252371297799996 ], [ -71.470768150400005, -29.252372067900005 ], [ -71.470764983099997, -29.252372888100002 ], [ -71.470761756799988, -29.252373762200001 ], [ -71.470758460599981, -29.252374694 ], [ -71.470755091399994, -29.252375685799986 ], [ -71.470751676899994, -29.252376733700004 ], [ -71.470748252699991, -29.252377832100002 ], [ -71.470744854200007, -29.252378975699987 ], [ -71.470741517, -29.252380158999983 ], [ -71.470738276500001, -29.252381376499997 ], [ -71.470735168299996, -29.252382622699997 ], [ -71.470732227900001, -29.252383892299999 ], [ -71.470729490699995, -29.252385179700006 ], [ -71.470726992300001, -29.252386479499997 ], [ -71.470724755500001, -29.2523877856 ], [ -71.470722752299991, -29.252389089100003 ], [ -71.470720942100002, -29.252390380700007 ], [ -71.470719284200001, -29.252391650900002 ], [ -71.470717738, -29.252392890199978 ], [ -71.470716262699995, -29.252394089100001 ], [ -71.470714817799987, -29.252395238299997 ], [ -71.470713362500007, -29.252396328199996 ], [ -71.470711856299999, -29.252397349500004 ], [ -71.470710258400004, -29.252398292599999 ], [ -71.470708537099981, -29.252399150700001 ], [ -71.470706695999979, -29.252399927 ], [ -71.470704747499994, -29.252400627299998 ], [ -71.470702704100006, -29.252401257300001 ], [ -71.470700578299997, -29.252401822799996 ], [ -71.47069838249999, -29.252402329500001 ], [ -71.470696129299995, -29.252402783299996 ], [ -71.470693831099993, -29.252403189899997 ], [ -71.47069150039998, -29.252403555099999 ], [ -71.470689149500004, -29.252403884699998 ], [ -71.470686789499993, -29.252404184899998 ], [ -71.470684424899986, -29.252404464199998 ], [ -71.470682058599991, -29.252404731499997 ], [ -71.470679693600005, -29.252404995799999 ], [ -71.470677332899982, -29.252405266 ], [ -71.470674979299986, -29.252405551100001 ], [ -71.470672636, -29.252405859999989 ], [ -71.470670305699997, -29.252406201699998 ], [ -71.470667991599996, -29.252406585100001 ], [ -71.470665696499992, -29.252407019100009 ], [ -71.470663424699993, -29.252407511200001 ], [ -71.470661185899999, -29.252408062 ], [ -71.470658991, -29.2524086709 ], [ -71.470656850899985, -29.252409337 ], [ -71.470654776599986, -29.252410059399995 ], [ -71.470652779100007, -29.252410837499994 ], [ -71.470650869199986, -29.252411670399987 ], [ -71.470649057900005, -29.252412557299998 ], [ -71.470647356100002, -29.252413497300005 ], [ -71.470645774799991, -29.252414489799992 ], [ -71.470644318099986, -29.252415532899999 ], [ -71.470642962599996, -29.252416621700014 ], [ -71.470641677800003, -29.252417749900001 ], [ -71.470640433699984, -29.252418911500001 ], [ -71.470639199700003, -29.252420100599991 ], [ -71.470637945699991, -29.252421311100001 ], [ -71.470636641400006, -29.252422536899985 ], [ -71.470635256400001, -29.252423772 ], [ -71.470633760499993, -29.252425010400003 ], [ -71.470632123299993, -29.252426246 ], [ -71.47063032379998, -29.252427472600004 ], [ -71.470628377200001, -29.252428684 ], [ -71.470626308099995, -29.252429873700006 ], [ -71.470624141, -29.252431035099999 ], [ -71.470621900500007, -29.252432161900003 ], [ -71.470619611, -29.252433247600003 ], [ -71.470617297100006, -29.252434285699998 ], [ -71.470614983200008, -29.252435269800007 ], [ -71.470612694, -29.252436193400001 ], [ -71.470610453799992, -29.252437050099996 ], [ -71.470608283, -29.252437836199999 ], [ -71.470606184700003, -29.252438559100003 ], [ -71.470604157699981, -29.252439229 ], [ -71.470602201, -29.252439856300001 ], [ -71.470600313399999, -29.252440451100004 ], [ -71.470598493799983, -29.252441023599996 ], [ -71.470596741099996, -29.252441584 ], [ -71.470595054200004, -29.252442142700001 ], [ -71.470593431799998, -29.252442709700009 ], [ -71.470591872999989, -29.252443295399999 ], [ -71.470590377500002, -29.252443908799986 ], [ -71.470588949299994, -29.252444554599993 ], [ -71.470587593199994, -29.252445236300002 ], [ -71.470586314200006, -29.252445957399996 ], [ -71.470585117, -29.252446721400005 ], [ -71.470584006600006, -29.252447531800016 ], [ -71.470582987900016, -29.2524483921 ], [ -71.4705820657, -29.252449305799985 ], [ -71.470581244900004, -29.252450276499992 ], [ -71.470580530399985, -29.252451307699999 ], [ -71.470579923900004, -29.252452401199989 ], [ -71.470579413899983, -29.252453552299997 ], [ -71.47057898609998, -29.2524547547 ], [ -71.470578625900004, -29.252456002100004 ], [ -71.470578318600005, -29.2524572881 ], [ -71.470578049799983, -29.252458606399994 ], [ -71.470577804899989, -29.252459950700004 ], [ -71.470577569400007, -29.252461314600005 ], [ -71.470577328700003, -29.252462691800002 ], [ -71.47057706839999, -29.252464075900004 ], [ -71.470576777000019, -29.252465460900002 ], [ -71.470576456499998, -29.252466841 ], [ -71.470576112099991, -29.252468210999989 ], [ -71.470575748899989, -29.252469565299986 ], [ -71.470575371999985, -29.252470898599999 ], [ -71.470574986599999, -29.252472205399997 ], [ -71.470574597799995, -29.252473480299997 ], [ -71.470574210699994, -29.252474717899986 ], [ -71.470573830600003, -29.252475912800012 ], [ -71.470573462600001, -29.252477059599993 ], [ -71.470573108400004, -29.252478153799998 ], [ -71.470572756300001, -29.252479195 ], [ -71.470572391199994, -29.252480184099998 ], [ -71.470571997799993, -29.252481121500008 ], [ -71.470571561199989, -29.252482007900007 ], [ -71.470571066199994, -29.252482844 ], [ -71.470570497500006, -29.252483630500002 ], [ -71.470569840300001, -29.252484367900006 ], [ -71.470569079100002, -29.252485056899999 ], [ -71.470568199099986, -29.252485698199994 ], [ -71.470567192399997, -29.252486294199986 ], [ -71.470566081499996, -29.252486853800001 ], [ -71.470564896100015, -29.252487387900004 ], [ -71.470563666, -29.252487907300001 ], [ -71.470562420999983, -29.252488422700001 ], [ -71.4705611909, -29.252488945 ], [ -71.470560005500005, -29.252489484899996 ], [ -71.470558894600003, -29.252490053199985 ], [ -71.470557888, -29.252490660699976 ], [ -71.47055701539999, -29.252491318200001 ], [ -71.4705562993, -29.252492044400007 ], [ -71.470555732199998, -29.252492890499994 ], [ -71.470555299400004, -29.252493915299997 ], [ -71.470554985999982, -29.252495178 ], [ -71.470554777199979, -29.252496737499992 ], [ -71.470554658099999, -29.252498653 ], [ -71.470554614, -29.252500983300006 ], [ -71.47055463, -29.2525037875 ], [ -71.470554691199993, -29.252507124699989 ], [ -71.470555145199995, -29.252511047199995 ], [ -71.47055865119998, -29.252582843399999 ], [ -71.470556526699994, -29.252660259600006 ], [ -71.470561193, -29.252788455 ], [ -71.470548586, -29.252935418100002 ], [ -71.470533230200004, -29.2530416472 ], [ -71.470520461700005, -29.253205852899999 ], [ -71.470476343900003, -29.253375013500008 ], [ -71.470473207699996, -29.253396036800002 ], [ -71.470441630899998, -29.253531866600003 ], [ -71.470404410900002, -29.253643497699994 ], [ -71.470398803799995, -29.253684548699994 ], [ -71.470405396800004, -29.253908288200002 ], [ -71.4704155031, -29.254112134100001 ], [ -71.470450597199985, -29.254256943299985 ], [ -71.470444083900006, -29.254365128900002 ], [ -71.470415030599995, -29.254416383299997 ], [ -71.470371189, -29.254449435700003 ], [ -71.470397057899987, -29.254492078799998 ], [ -71.470435062299998, -29.254683473799993 ], [ -71.470413234099993, -29.254895749600003 ], [ -71.470396759400003, -29.2550448772 ], [ -71.470337937799997, -29.255154029900005 ], [ -71.470288600700002, -29.255336340600003 ], [ -71.470252203200005, -29.255528849600001 ], [ -71.470221123899989, -29.255676415899998 ], [ -71.470228835599983, -29.255822597400005 ], [ -71.470192338499999, -29.2560225237 ], [ -71.470176608499983, -29.256184240100001 ], [ -71.470198702100006, -29.256228585799995 ], [ -71.470253216200007, -29.256366838400002 ], [ -71.470244921100004, -29.2564116197 ], [ -71.470265344099985, -29.256458359900005 ], [ -71.470263250900004, -29.256505651700003 ], [ -71.470293671600004, -29.256658431799995 ], [ -71.470340980399996, -29.256763123300008 ], [ -71.470372267399981, -29.256800894 ], [ -71.470485558300012, -29.256898664 ], [ -71.470589942499984, -29.256929778499991 ], [ -71.470725342400002, -29.257018172399995 ], [ -71.470829155299981, -29.257037073499998 ], [ -71.470874119699999, -29.257015168399992 ], [ -71.470932533699994, -29.2570083958 ], [ -71.471096083, -29.25698183459998 ], [ -71.471147363399979, -29.256987282200001 ], [ -71.471379577700006, -29.257014453 ], [ -71.471497879199987, -29.257022819500001 ], [ -71.471541473399995, -29.257054290900005 ], [ -71.471717959000017, -29.257110899799997 ], [ -71.471859286699996, -29.257180093900001 ], [ -71.472036297399995, -29.257324351699996 ], [ -71.472170130399988, -29.257436480799999 ], [ -71.472308483299983, -29.257616726299997 ], [ -71.472387211, -29.257755540200002 ], [ -71.472435040999983, -29.257925381299998 ], [ -71.472430842099996, -29.258029193799999 ], [ -71.472496310699995, -29.258119321900008 ], [ -71.47254086, -29.258288763600003 ], [ -71.472650574799999, -29.258468609599998 ], [ -71.472804261699991, -29.258675480899996 ], [ -71.472931271299984, -29.258854059300003 ], [ -71.473048605200006, -29.259022568499997 ], [ -71.4731165643, -29.259162681699994 ], [ -71.473125141899999, -29.259311300499999 ], [ -71.473095988, -29.259445119399999 ], [ -71.473119401899993, -29.259504478499991 ], [ -71.473141874800007, -29.259573038499994 ], [ -71.473165378899992, -29.259668192 ], [ -71.473142640500001, -29.259715523199997 ], [ -71.473151003599995, -29.259818047700005 ], [ -71.473199038800004, -29.259982634200007 ], [ -71.473195264599994, -29.260093367100001 ], [ -71.473235399899991, -29.260310973199999 ], [ -71.473271118100001, -29.260405792299998 ], [ -71.473238683099993, -29.260566131099999 ], [ -71.473255124600001, -29.260721731 ], [ -71.473216696199998, -29.260880123900002 ], [ -71.473224134099993, -29.260936089099999 ], [ -71.473185561799994, -29.261091498599999 ], [ -71.4731076833, -29.26122912429998 ], [ -71.473090323799994, -29.261284944100005 ], [ -71.473062279699988, -29.2614371005 ], [ -71.472961563599981, -29.261644891799993 ], [ -71.472919076799997, -29.261777892899993 ], [ -71.47291529589998, -29.261888355299995 ], [ -71.472845698, -29.261987081500003 ], [ -71.472839553599997, -29.262047231300002 ], [ -71.472806906800002, -29.262091552299992 ], [ -71.472754291399994, -29.262102124799981 ], [ -71.472707181899992, -29.262083285399999 ], [ -71.472680591899987, -29.2621249233 ], [ -71.472685639699989, -29.262179480299999 ], [ -71.472778732599991, -29.262222511299999 ], [ -71.4727881516, -29.262327442899995 ], [ -71.472793604499998, -29.262495830899997 ], [ -71.472842301699984, -29.262654965500008 ], [ -71.472834917100002, -29.2627089046 ], [ -71.472833157500006, -29.262816578099994 ], [ -71.472776441, -29.262906387399997 ], [ -71.472774788799981, -29.2629539958 ], [ -71.472720870800003, -29.2630502216 ], [ -71.4726297303, -29.263127217500003 ], [ -71.47261159289998, -29.263179804 ], [ -71.47251675619998, -29.263347296699997 ], [ -71.472489106799998, -29.263389387100002 ], [ -71.4724290164, -29.263392908 ], [ -71.472447392500001, -29.263590429800004 ], [ -71.472464049899997, -29.26376912 ], [ -71.472442541299984, -29.263912459 ], [ -71.472458466599988, -29.2639645683 ], [ -71.472472024599995, -29.264127754399997 ], [ -71.472415943599984, -29.264276911400003 ], [ -71.47239880479998, -29.264433394499989 ], [ -71.472474288499981, -29.264579945 ], [ -71.472542858099999, -29.264662365499984 ], [ -71.472662672399991, -29.26469431100001 ], [ -71.472832926199999, -29.264749598800009 ], [ -71.472929321899983, -29.264812198599998 ], [ -71.472989680400005, -29.264823196700004 ], [ -71.473027340800002, -29.264867000999981 ], [ -71.473120214, -29.264989241799995 ], [ -71.47312729399998, -29.265035028600003 ], [ -71.473173422299993, -29.265068175499994 ], [ -71.473226588300008, -29.265062464100001 ], [ -71.473278107, -29.265026796699999 ], [ -71.473333239799999, -29.265041662200005 ], [ -71.473363033200002, -29.265083041 ], [ -71.473410972299988, -29.265105933299999 ], [ -71.47345944289998, -29.265086813 ], [ -71.473512297400006, -29.265083975900001 ], [ -71.473556511699996, -29.265119233 ], [ -71.473658469599997, -29.265172247900001 ], [ -71.4736897744, -29.265222123799997 ], [ -71.473765029999981, -29.265292466699997 ], [ -71.47382088019998, -29.265306353399993 ], [ -71.473881421, -29.265299278299988 ], [ -71.473980953199984, -29.265337849899993 ], [ -71.474088674900003, -29.265437920500002 ], [ -71.474191388999984, -29.265465499299999 ], [ -71.474274477799995, -29.265547081599998 ], [ -71.474297041599996, -29.265589424099989 ], [ -71.474339831799995, -29.265624057699991 ], [ -71.474403103899988, -29.265628280299982 ], [ -71.474493769600002, -29.265693817700001 ], [ -71.474637232199996, -29.265768201 ], [ -71.4746939395, -29.265736947599997 ], [ -71.474701064699985, -29.265687226099988 ], [ -71.474735699199982, -29.265645547100014 ], [ -71.4747855982, -29.265620806699999 ], [ -71.474797424200005, -29.265528779 ], [ -71.474839121200006, -29.265497974999978 ], [ -71.474904106500006, -29.2654093467 ], [ -71.474959495, -29.265401509500002 ], [ -71.475010020799999, -29.265370767399997 ], [ -71.475140530800005, -29.265371741200003 ], [ -71.475195687300001, -29.265387146800006 ], [ -71.475251397899996, -29.265376452800002 ], [ -71.475348064599999, -29.265419478799998 ], [ -71.475460629799983, -29.265563788600002 ], [ -71.475606513599999, -29.265717683799998 ], [ -71.475688705799982, -29.265793598400009 ], [ -71.475745518099998, -29.265820493100001 ], [ -71.475902774399998, -29.265961709800006 ], [ -71.47597222349998, -29.266043760300008 ], [ -71.476060555299995, -29.266160940899997 ], [ -71.47610592929999, -29.2662421114 ], [ -71.476120431400005, -29.266348608299982 ], [ -71.476228599, -29.266478989 ], [ -71.476299256800004, -29.266528360100001 ], [ -71.476351662300004, -29.2665256475 ], [ -71.476430289099994, -29.266559895700002 ], [ -71.476446707199997, -29.266558950799993 ], [ -71.476527998099982, -29.266620050699999 ], [ -71.476543011399983, -29.266623994300001 ], [ -71.476565860700006, -29.266620530499999 ], [ -71.476593825699979, -29.266640625400001 ], [ -71.476609858700002, -29.266645894199993 ], [ -71.476694715899995, -29.266654785499991 ], [ -71.4767681246, -29.266712837799979 ], [ -71.476807954200012, -29.266695049300001 ], [ -71.476874373599983, -29.266592554999988 ], [ -71.476879952800005, -29.266588834100002 ], [ -71.47688336589998, -29.266578486599993 ], [ -71.476883574200002, -29.266527828899999 ], [ -71.476889847899983, -29.266525177599991 ], [ -71.476914568299989, -29.266499468899994 ], [ -71.476944117900004, -29.266495258399999 ], [ -71.477149461399989, -29.266454193100003 ], [ -71.477172768399996, -29.266447951300002 ], [ -71.4772160877, -29.266413616200005 ], [ -71.477248413899986, -29.266411059100005 ], [ -71.477322393199998, -29.266436462 ], [ -71.4773997116, -29.266479583599981 ], [ -71.477402695199999, -29.266479582400002 ], [ -71.4774612601, -29.266514265199998 ], [ -71.477547706799982, -29.266574971099995 ], [ -71.477636491499979, -29.266547072700003 ], [ -71.477710865899979, -29.2665884175 ], [ -71.477798215299998, -29.266655827300003 ], [ -71.477836319900007, -29.266714091899999 ], [ -71.477818834899992, -29.266803861100001 ], [ -71.47794134439998, -29.266949905700002 ], [ -71.478023318400005, -29.267058452299977 ], [ -71.478069851699999, -29.267135568099995 ], [ -71.478098453100003, -29.267226791800002 ], [ -71.478090294599994, -29.267239166800007 ], [ -71.478091432999989, -29.267276538499996 ], [ -71.478142555600002, -29.267319992299992 ], [ -71.478143040399999, -29.267334967400004 ], [ -71.478254127300005, -29.267385788599999 ], [ -71.478312092400003, -29.267413490699994 ], [ -71.47834441549999, -29.267393739000013 ], [ -71.478363177099993, -29.267387581300003 ], [ -71.478498119899996, -29.267374748300007 ], [ -71.47869602759998, -29.2674479995 ], [ -71.478862553400006, -29.2675164652 ], [ -71.478999988799998, -29.2675399767 ], [ -71.479067998199994, -29.267575024800003 ], [ -71.479133249799986, -29.267567002700002 ], [ -71.479220091299993, -29.267606906399998 ], [ -71.479323833300001, -29.267650925600012 ], [ -71.479341962899994, -29.267647143 ], [ -71.479430097800019, -29.267636206300004 ], [ -71.479443290500001, -29.267633769300001 ], [ -71.479458674699998, -29.267614286699992 ], [ -71.479534397099982, -29.267549047300001 ], [ -71.479583158599993, -29.267545814700004 ], [ -71.479607685899992, -29.267534290399997 ], [ -71.479733711699993, -29.267575703499997 ], [ -71.4798989807, -29.26757803 ], [ -71.479972760799981, -29.267587882500003 ], [ -71.480122567699993, -29.267635430200006 ], [ -71.480177646, -29.267667118300004 ], [ -71.480218594, -29.267669235700005 ], [ -71.480238310299981, -29.267673217799999 ], [ -71.480343235299998, -29.267721039299996 ], [ -71.480409794899998, -29.267730971500001 ], [ -71.480476776299994, -29.267771991899998 ], [ -71.480508244800006, -29.267834438400001 ], [ -71.480589715899995, -29.267910525400005 ], [ -71.480796135299997, -29.267937805899997 ], [ -71.480912956300003, -29.267945676799986 ], [ -71.481081661600001, -29.268033575800008 ], [ -71.481161595700016, -29.268095419599987 ], [ -71.481162222500004, -29.268095389900004 ], [ -71.481211773499979, -29.268158465599999 ], [ -71.481216607600004, -29.268175010799997 ], [ -71.481226036899997, -29.268185011500005 ], [ -71.481228351400006, -29.268240773399999 ], [ -71.481226138, -29.268255194200005 ], [ -71.481235036699999, -29.268269210200003 ], [ -71.481271113800005, -29.268335007899999 ], [ -71.481354499800005, -29.268384708100001 ], [ -71.481364261899984, -29.268385059 ], [ -71.481439959100001, -29.2684201434 ], [ -71.481588543, -29.268428930100004 ], [ -71.481598104699984, -29.268431206199988 ], [ -71.481711219199994, -29.268476835600005 ], [ -71.481761129599988, -29.268476855499991 ], [ -71.4818437351, -29.268494671100001 ], [ -71.4818509065, -29.268496387099997 ], [ -71.482026161099995, -29.268558913 ], [ -71.482087410099979, -29.268571721600001 ], [ -71.482210691199981, -29.268663368 ], [ -71.482297820900001, -29.268705320900004 ], [ -71.482300772, -29.268707377099997 ], [ -71.482336295599993, -29.268708106099993 ], [ -71.482371766999989, -29.2687007171 ], [ -71.482427335799997, -29.268742426599999 ], [ -71.482434821699997, -29.268837163 ], [ -71.482451864500007, -29.268848429399995 ], [ -71.482499191800002, -29.268881613700007 ], [ -71.482537962900011, -29.268886441100005 ], [ -71.482543526900002, -29.268885074800004 ], [ -71.482555991200002, -29.268876336200005 ], [ -71.482566043900007, -29.268849555 ], [ -71.482571301600004, -29.268835943499994 ], [ -71.482622243099996, -29.268817748299981 ], [ -71.482631461300002, -29.268812200399996 ], [ -71.482840561599986, -29.268788142499996 ], [ -71.482968344299991, -29.268773597599992 ], [ -71.483138851899994, -29.268808686700012 ], [ -71.483264455300002, -29.268850807799993 ], [ -71.483290165599996, -29.268869914799989 ], [ -71.483380852500019, -29.268942788599997 ], [ -71.483524744899995, -29.2689838748 ], [ -71.483545327499996, -29.268984096499988 ], [ -71.483562672899993, -29.268975537699998 ], [ -71.483671716599986, -29.268945535599997 ], [ -71.483723605899982, -29.268895495699994 ], [ -71.483872885899984, -29.268763311400004 ], [ -71.484035361499991, -29.268638603599999 ], [ -71.484192064300004, -29.268529185700007 ], [ -71.484379540800006, -29.268432140499993 ], [ -71.484432416999979, -29.268390174 ], [ -71.484524572599994, -29.268346412300001 ], [ -71.484672138500002, -29.268275702100002 ], [ -71.484845384799982, -29.268179498400006 ], [ -71.484869869399986, -29.268159854899999 ], [ -71.484959917899985, -29.268068572699995 ], [ -71.484966659299999, -29.268053787899987 ], [ -71.485048229100002, -29.2679352661 ], [ -71.485134587099992, -29.267859857500003 ], [ -71.485161347100004, -29.267829229 ], [ -71.485168713399986, -29.267826665200001 ], [ -71.485201480699985, -29.267801518100011 ], [ -71.485224643699993, -29.267780834600003 ], [ -71.485301140600015, -29.267752429100003 ], [ -71.485407470400006, -29.267697090599992 ], [ -71.485560503100004, -29.267643174400003 ], [ -71.485622338699997, -29.2676160428 ], [ -71.485754680699984, -29.267540436600001 ], [ -71.485772157899987, -29.267524162 ], [ -71.485865623600006, -29.267447023900012 ], [ -71.486007038799997, -29.267410057599992 ], [ -71.4862048743, -29.267354756499994 ], [ -71.486260683300003, -29.267334114800015 ], [ -71.486356106800002, -29.267292393 ], [ -71.486394274299997, -29.267302480899993 ], [ -71.486432868700007, -29.267314482300005 ], [ -71.48644561899998, -29.267307803899978 ], [ -71.486476227099985, -29.267307802399984 ], [ -71.486493209900004, -29.267249444299985 ], [ -71.486492693200006, -29.267243824699992 ], [ -71.486480049899981, -29.267230275799992 ], [ -71.486475431700001, -29.267212057800002 ], [ -71.48647564, -29.267198143400009 ], [ -71.486480413, -29.267133093299993 ], [ -71.486497221400001, -29.267088872199984 ], [ -71.486572616099991, -29.267014038900001 ], [ -71.486671286900005, -29.266937335600005 ], [ -71.486774218400001, -29.266885334 ], [ -71.486909206500002, -29.266882956299995 ], [ -71.4870457122, -29.2669237072 ], [ -71.487125277499999, -29.266935811300002 ], [ -71.487160807399988, -29.266924505099993 ], [ -71.487258861100003, -29.266828291199996 ], [ -71.487271462199999, -29.266814181999987 ], [ -71.487269408900005, -29.2667625381 ], [ -71.487270980800005, -29.266757772799998 ], [ -71.487289714799999, -29.266736485900019 ], [ -71.487279787099979, -29.266689354899999 ], [ -71.487280522199981, -29.266637298199992 ], [ -71.487288215299984, -29.266534386099991 ], [ -71.487283112399979, -29.266523349100005 ], [ -71.487283463199986, -29.266423559700009 ], [ -71.487278683999989, -29.2663366759 ], [ -71.487267895599999, -29.266183066300005 ], [ -71.487237916199987, -29.266077743399997 ], [ -71.487240726600007, -29.2660603976 ], [ -71.487238988599998, -29.265959745 ], [ -71.487234219599983, -29.265922134399993 ], [ -71.487258449, -29.265893690699997 ], [ -71.487273690999984, -29.265854814400004 ], [ -71.487276522, -29.2657593 ], [ -71.487300527699986, -29.2657322407 ], [ -71.487323994700006, -29.265628141800001 ], [ -71.487344710399981, -29.2656037237 ], [ -71.487333649399986, -29.265511923099989 ], [ -71.487342087800002, -29.265503935600002 ], [ -71.487347093899999, -29.265491438300003 ], [ -71.487354028, -29.2654846336 ], [ -71.487380486800006, -29.265481127800005 ], [ -71.48739395, -29.265468211399998 ], [ -71.487396086300009, -29.265459989500002 ], [ -71.487394261800006, -29.265443704199985 ], [ -71.487415685399995, -29.265410711899996 ], [ -71.487414130399998, -29.265396207800006 ], [ -71.487420637499994, -29.2653874895 ], [ -71.487421860599994, -29.265377245800003 ], [ -71.48740586129999, -29.265352988100002 ], [ -71.487285516, -29.2653290497 ], [ -71.48721418, -29.265273932599996 ], [ -71.487206614200005, -29.265204944499992 ], [ -71.487168243599996, -29.265033923499981 ], [ -71.487164568199987, -29.265011727699989 ], [ -71.48717286599998, -29.26492571 ], [ -71.487175732599994, -29.2647598661 ], [ -71.487173932, -29.264748812600001 ], [ -71.487177162799995, -29.264713560999983 ], [ -71.487199426900006, -29.264590801699988 ], [ -71.487183785200003, -29.264491237900003 ], [ -71.487205929200002, -29.264305314899993 ], [ -71.48723427169999, -29.2642037233 ], [ -71.487276893800001, -29.264153699199994 ], [ -71.487389991900002, -29.264079209800006 ], [ -71.487457023900006, -29.264047551399994 ], [ -71.487479242, -29.264014670599998 ], [ -71.487483983299995, -29.263989096899998 ], [ -71.487472126799986, -29.263937951899997 ], [ -71.487437245199985, -29.263908010800002 ], [ -71.4874355579, -29.2639012132 ], [ -71.487317206799986, -29.263761577499999 ], [ -71.48724130639998, -29.263696360499992 ], [ -71.487100039799998, -29.263613046199996 ], [ -71.487098482899995, -29.263610783899988 ], [ -71.487023092599998, -29.263526685 ], [ -71.487009184300007, -29.263476173 ], [ -71.486948837999989, -29.263381988100001 ], [ -71.486944894499985, -29.263335115400007 ], [ -71.486919146600002, -29.263205221200003 ], [ -71.486878130600005, -29.263025579900003 ], [ -71.4868288081, -29.262880608099994 ], [ -71.486752167399985, -29.2627499291 ], [ -71.486699716499984, -29.262568362600003 ], [ -71.486662923899999, -29.262452232699996 ], [ -71.486690571000011, -29.262268787199989 ], [ -71.48669542879999, -29.262170700099993 ], [ -71.486584722399996, -29.262054764200006 ], [ -71.486461199499999, -29.261905336600005 ], [ -71.486354064899999, -29.261791156199994 ], [ -71.486293196700004, -29.261686389800008 ], [ -71.486276796300004, -29.261572415099998 ], [ -71.486298752300002, -29.261484077399995 ], [ -71.486243926899988, -29.261412188800001 ], [ -71.486253754299995, -29.261271600700002 ], [ -71.486261249500004, -29.261212327599996 ], [ -71.486269638600007, -29.261071396499997 ], [ -71.486295197700002, -29.261002287899998 ], [ -71.486317128499991, -29.260906111200004 ], [ -71.486389461599998, -29.260839785699996 ], [ -71.486389780100012, -29.260839770699992 ], [ -71.486389629399994, -29.2608399179 ], [ -71.486421902799989, -29.260816989799999 ], [ -71.486417832599983, -29.260775496099996 ], [ -71.486420494200004, -29.260765595500001 ], [ -71.486407448600005, -29.260735815899999 ], [ -71.486414664, -29.260698992599991 ], [ -71.486408376, -29.260669574399994 ], [ -71.486423324599997, -29.260643243100002 ], [ -71.48640758629999, -29.260551944300001 ], [ -71.486403723399988, -29.260454831299999 ], [ -71.486434314799979, -29.260422769199995 ], [ -71.486490163400006, -29.260321892699999 ], [ -71.486490336199992, -29.2603196793 ], [ -71.486549002800004, -29.260282520800011 ], [ -71.486597742499995, -29.260237319800005 ], [ -71.4866681062, -29.260218436900008 ], [ -71.48667994249999, -29.260209736699991 ], [ -71.486773707699996, -29.260169056100004 ], [ -71.486727036399998, -29.2600702051 ], [ -71.4867224658, -29.260057759799995 ], [ -71.486706022800007, -29.259970082599992 ], [ -71.486672143299998, -29.259857795399991 ], [ -71.486656200900001, -29.259836694 ], [ -71.486657176899996, -29.259822611900002 ], [ -71.486656521299992, -29.259819755400002 ], [ -71.486654354599992, -29.259817793 ], [ -71.486651263, -29.259811201900003 ], [ -71.486652965800005, -29.259796123 ], [ -71.486619115899998, -29.259767506399985 ], [ -71.486604625400005, -29.259751980099999 ], [ -71.486580163799999, -29.259747410600003 ], [ -71.486513456999987, -29.259676374700007 ], [ -71.486426844600004, -29.259561595899999 ], [ -71.486345120799996, -29.259493644900004 ], [ -71.486324506299979, -29.259473325 ], [ -71.486344626700003, -29.259446879499997 ], [ -71.486347867199981, -29.259446025300004 ], [ -71.486354828100005, -29.259439490700004 ], [ -71.486355985299994, -29.259435445800001 ], [ -71.486334288600005, -29.259410364799997 ], [ -71.486336709599996, -29.259401578199999 ], [ -71.486333824699997, -29.259393323499996 ], [ -71.486317975599988, -29.259381169199994 ], [ -71.4862442644, -29.259320800200001 ], [ -71.486234482900002, -29.259329813999983 ], [ -71.486226747700002, -29.259351112499999 ], [ -71.486221454, -29.259354269200006 ], [ -71.486210718799995, -29.259355759000012 ], [ -71.486144149, -29.259352848100008 ], [ -71.486108332800001, -29.259315661800002 ], [ -71.486065709599998, -29.259218674699994 ], [ -71.486018590599983, -29.259196078500004 ], [ -71.485913517500009, -29.259192449600008 ], [ -71.485879397199994, -29.259154771600002 ], [ -71.485789012300003, -29.259096192099999 ], [ -71.485770602499983, -29.2590538826 ], [ -71.485684654500005, -29.258988616900002 ], [ -71.485607415399997, -29.258919752100002 ], [ -71.48550129089999, -29.258897315300004 ], [ -71.485456564799989, -29.258863055099994 ], [ -71.485317647399981, -29.258705983 ], [ -71.485244169399991, -29.258575686100002 ], [ -71.485189959499991, -29.258574646699991 ], [ -71.485105507899988, -29.258510814199994 ], [ -71.485039392899992, -29.258429292900001 ], [ -71.48491058, -29.258334350499997 ], [ -71.484880936999986, -29.258287540599994 ], [ -71.484854170199995, -29.258188760799992 ], [ -71.484860556300006, -29.258143996299992 ], [ -71.484776075799985, -29.257969636899983 ], [ -71.484774976400018, -29.2579692694 ], [ -71.484782062199983, -29.257909625100002 ], [ -71.484778190499995, -29.257897139600001 ], [ -71.4847150935, -29.2577506638 ], [ -71.4847440331, -29.257700509199992 ], [ -71.4847358528, -29.257660878 ], [ -71.484673971700005, -29.257495335899993 ], [ -71.484583009199994, -29.257423838899999 ], [ -71.484565817100005, -29.257399097799997 ], [ -71.484525623399989, -29.257332709800004 ], [ -71.484465471299984, -29.257210987200001 ], [ -71.48445861179998, -29.257169815900003 ], [ -71.484441081200004, -29.257147661200001 ], [ -71.484443011, -29.257130467 ], [ -71.484442373899981, -29.257127096 ], [ -71.484429610099994, -29.257116580099982 ], [ -71.484420204199992, -29.257092623400005 ], [ -71.484372223099982, -29.257065802600007 ], [ -71.484300859800001, -29.257091775399999 ], [ -71.484233804400006, -29.257064470200003 ], [ -71.484224972700005, -29.257061278599988 ], [ -71.484210865099982, -29.257061134899995 ], [ -71.484204708099995, -29.257058795700001 ], [ -71.484173471299997, -29.257010544900002 ], [ -71.484183004900004, -29.25696873499998 ], [ -71.484171675499979, -29.256952869899994 ], [ -71.484172100799995, -29.256942803400001 ], [ -71.484178451399984, -29.256924219 ], [ -71.484201061199983, -29.256830961899997 ], [ -71.484202493200002, -29.256772757799997 ], [ -71.484256217200013, -29.256694609899998 ], [ -71.484238149600003, -29.256649388899984 ], [ -71.484142178099987, -29.256588954400005 ], [ -71.484114093299993, -29.256566391400003 ], [ -71.484003144699997, -29.256466857900005 ], [ -71.483956003399996, -29.25647219979999 ], [ -71.483913750899987, -29.25644529940001 ], [ -71.483893153500006, -29.2564175543 ], [ -71.483881781199997, -29.256413101800014 ], [ -71.483852735699998, -29.256421012100002 ], [ -71.4838509458, -29.256419313299993 ], [ -71.483878625499997, -29.256374910799998 ], [ -71.483879087899993, -29.256368506199998 ], [ -71.483876161599994, -29.256362778 ], [ -71.483864189, -29.256352644299994 ], [ -71.4838589907, -29.256350810400008 ], [ -71.483803192799982, -29.256381482199998 ], [ -71.483789521299997, -29.256380644800007 ], [ -71.483775900300003, -29.256384028399996 ], [ -71.483745342199995, -29.256364686800001 ], [ -71.483706690800005, -29.256369293400006 ], [ -71.483687357699992, -29.256357672700002 ], [ -71.483682065599993, -29.256357067400003 ], [ -71.483671598100003, -29.256358552 ], [ -71.483664328199993, -29.256349323199988 ], [ -71.483663518900002, -29.256314570699995 ], [ -71.483689774299989, -29.256269545099993 ], [ -71.483665121300007, -29.256238294 ], [ -71.4836598694, -29.25623849989999 ], [ -71.483590351199993, -29.256298231299997 ], [ -71.483590240599995, -29.256299189599993 ], [ -71.483585632099988, -29.256303028 ], [ -71.483575560299997, -29.256303007799996 ], [ -71.483561100700001, -29.256289573399997 ], [ -71.483560413299998, -29.256281990400005 ], [ -71.483578638299988, -29.256246920100001 ], [ -71.483669557100001, -29.256184328100009 ], [ -71.483715827899999, -29.2561212761 ], [ -71.483714201200002, -29.256101225200002 ], [ -71.483711040499983, -29.256096863600014 ], [ -71.483704501199981, -29.256093178199993 ], [ -71.483695947599998, -29.256092552400002 ], [ -71.483656747999987, -29.256126397799999 ], [ -71.483627260199995, -29.256134731200003 ], [ -71.483542110599998, -29.256213408899995 ], [ -71.483537481799999, -29.256213855799992 ], [ -71.483533080899988, -29.256212665599993 ], [ -71.483516777899993, -29.2561995722 ], [ -71.483512491, -29.256191180999981 ], [ -71.483515054199984, -29.25617422769999 ], [ -71.483546371299994, -29.256143686300003 ], [ -71.48354549279999, -29.256135430199997 ], [ -71.483611756200006, -29.256072556899987 ], [ -71.483618619400005, -29.256042406800002 ], [ -71.483596312300008, -29.256025174500007 ], [ -71.483538463199991, -29.2560165537 ], [ -71.483514070799984, -29.256049275799992 ], [ -71.483470402, -29.256052721699991 ], [ -71.483464684099999, -29.256056201900005 ], [ -71.483401414599996, -29.256148031599999 ], [ -71.483373275, -29.256173840900001 ], [ -71.483370489699993, -29.256173946799997 ], [ -71.483368391499994, -29.2561722628 ], [ -71.483365424799999, -29.256165714400009 ], [ -71.483393979100001, -29.2561076918 ], [ -71.483396328300003, -29.256098906599998 ], [ -71.483397475700002, -29.25609150659999 ], [ -71.483395116799983, -29.256077137499993 ], [ -71.483387568, -29.256063279199978 ], [ -71.483380253700005, -29.256054286200001 ], [ -71.483361773599995, -29.25603678869998 ], [ -71.483352449099982, -29.256033209199998 ], [ -71.483328441300003, -29.256036307599981 ], [ -71.483316562799999, -29.256034318200005 ], [ -71.483303226299995, -29.256027764100001 ], [ -71.483286069499997, -29.256028431299995 ], [ -71.483251228699999, -29.256035198800006 ], [ -71.483234456, -29.256039285100002 ], [ -71.483202220899997, -29.256049713500008 ], [ -71.483201651599984, -29.256056805699991 ], [ -71.483201483799988, -29.256056673499995 ], [ -71.4831953873, -29.256058536899999 ], [ -71.483195544799997, -29.256058669300003 ], [ -71.483166284899994, -29.256065365600001 ], [ -71.483117617799991, -29.256036942299996 ], [ -71.482924782699996, -29.255935663900004 ], [ -71.4828615606, -29.255845571699997 ], [ -71.482818058, -29.255799695499999 ], [ -71.482829497599994, -29.255709451699996 ], [ -71.482840189200004, -29.255693826800002 ], [ -71.482818120399997, -29.255649022799993 ], [ -71.482811912800003, -29.255645863499996 ], [ -71.482707049799998, -29.255661849 ], [ -71.4825403615, -29.255655753700001 ], [ -71.482348608500004, -29.255619650399996 ], [ -71.482142188400005, -29.255565767899999 ], [ -71.481953865, -29.255548553700002 ], [ -71.481736009700001, -29.255516975800003 ], [ -71.481533756299996, -29.255459677200001 ], [ -71.481498445999989, -29.255435218 ], [ -71.481450996600003, -29.255431200800007 ], [ -71.481314881399982, -29.255379908400002 ], [ -71.481198766399999, -29.255341036400004 ], [ -71.481191349, -29.255338467800001 ], [ -71.481105193499999, -29.255257542 ], [ -71.4811013124, -29.255251037700006 ], [ -71.481096482599995, -29.255247419600003 ], [ -71.481015828300002, -29.255245624600001 ], [ -71.481007693799995, -29.2552440346 ], [ -71.48088152679999, -29.255177825400001 ], [ -71.480719563899996, -29.255064901500006 ], [ -71.480685564199987, -29.255010774199999 ], [ -71.480664854400004, -29.254996219600002 ], [ -71.4806568005, -29.254996260899983 ], [ -71.480650291499998, -29.254999358699994 ], [ -71.480625523200004, -29.255036994899999 ], [ -71.480617630099999, -29.255040289799997 ], [ -71.480604917299999, -29.255039957500003 ], [ -71.4805554868, -29.254984122999982 ], [ -71.480536342199997, -29.254976025599998 ], [ -71.480455205499979, -29.254983215199989 ], [ -71.480435085799982, -29.254989696 ], [ -71.480425265400001, -29.254988579299994 ], [ -71.480369151899993, -29.254950793900001 ], [ -71.480258323200005, -29.254965102 ], [ -71.480217644299998, -29.254960282 ], [ -71.480162000299998, -29.254984562499999 ], [ -71.480061202800002, -29.254939252799996 ], [ -71.480035964899983, -29.254930167799998 ], [ -71.480023168200006, -29.254919110799996 ], [ -71.479984761699995, -29.254916377599997 ], [ -71.47994582219998, -29.254874935400004 ], [ -71.479951818499998, -29.254855284200001 ], [ -71.479973382699995, -29.25481871800001 ], [ -71.4799721224, -29.254809124900003 ], [ -71.479924602899999, -29.254788121500003 ], [ -71.479844579100003, -29.254817554399999 ], [ -71.479846318599996, -29.254824414299993 ], [ -71.479845863, -29.254827697399985 ], [ -71.479828611900004, -29.254842216899998 ], [ -71.47982751619999, -29.2548449797 ], [ -71.479790999800002, -29.254867705199995 ], [ -71.479752955199984, -29.254862917399993 ], [ -71.479733381800003, -29.254852392099988 ], [ -71.479726061799994, -29.254851725099996 ], [ -71.479707899199994, -29.254863428799997 ], [ -71.479698082100001, -29.254865433299997 ], [ -71.479668436899999, -29.254864260400009 ], [ -71.479651997199994, -29.254873180799997 ], [ -71.479622489300013, -29.254868748700002 ], [ -71.479600894800001, -29.254855040300001 ], [ -71.479574218999986, -29.254857556099992 ], [ -71.479573934100003, -29.254858111699992 ], [ -71.479573776600006, -29.254857979299999 ], [ -71.479560996799989, -29.254856574599991 ], [ -71.479513225900007, -29.254830695299997 ], [ -71.479499229499979, -29.254829601899996 ], [ -71.479423787499982, -29.254798669899994 ], [ -71.479324911, -29.254742146700004 ], [ -71.47924962, -29.25468634049999 ], [ -71.47917908849999, -29.254611203700012 ], [ -71.479064184799981, -29.254581112 ], [ -71.479007606699994, -29.25455900439999 ], [ -71.478956597500002, -29.254542585 ], [ -71.478895785500001, -29.254522360099994 ], [ -71.478875388700004, -29.254512299799998 ], [ -71.478838787900003, -29.254485420400005 ], [ -71.478812481299997, -29.254467415 ], [ -71.478804541200006, -29.254454265100012 ], [ -71.478801313899979, -29.254436048 ], [ -71.478800549899987, -29.254414609799998 ], [ -71.478793202, -29.254399170599992 ], [ -71.478784865400002, -29.254390380099991 ], [ -71.478762539399995, -29.254376262300003 ], [ -71.478751043399996, -29.254375618600001 ], [ -71.478742382799993, -29.254379081 ], [ -71.478698539800007, -29.254400868599998 ], [ -71.478682572599979, -29.254416158 ], [ -71.478639349399984, -29.254451435899998 ], [ -71.478613742899981, -29.254461864200007 ], [ -71.478516920700002, -29.254480665200003 ] ] ] ] } }
]
}
