{
"type": "FeatureCollection",
"name": "turismo_rutas",
"crs": { "type": "name", "properties": { "name": "urn:ogc:def:crs:OGC:1.3:CRS84" } },
"features": [
{ "type": "Feature", "properties": { "fid": 1, "Nombre Ruta": "Sabores de Humboldt", "Lugar": "El Maray", "Descripcion": "¡Una experiencia única que fusiona naturaleza, gastronomía y cultura local! avistamiento de aves, senderismo entre olivos y una degustación de aceite. Explora el pasado histórico de Totoralillo (Norte) y Chungungo, participa en talleres llenos de gastronomía y creatividad. Descubre los sabores de la corriente de Humboldt y degusta los productos locales del interio de la Comuna de La Higuera junto a mujeres locales. Involúcrate en la reforestación, descubre Los Hornos en circuito por productores locales y concluye con un circuito prehispánico en Caleta los Hornos", "Tour Operador": "Turismo Humboldt, mas informacion en: https://turismohumboldt.cl/", "Origen Data": "Programas turisticos \"Sabores de Humboldt\", una iniciativa de Turismo Humboldt. Programa disponible en: https://turismohumboldt.cl/wp-content/uploads/2024/02/Sabores-de-Humboldt.pdf" }, "geometry": { "type": "Point", "coordinates": [ -71.185171212061533, -29.584054949665909 ] } },
{ "type": "Feature", "properties": { "fid": 2, "Nombre Ruta": "Sabores de Humboldt", "Lugar": "Caleta Los Hornos", "Descripcion": "¡Una experiencia única que fusiona naturaleza, gastronomía y cultura local! avistamiento de aves, senderismo entre olivos y una degustación de aceite. Explora el pasado histórico de Totoralillo (Norte) y Chungungo, participa en talleres llenos de gastronomía y creatividad. Descubre los sabores de la corriente de Humboldt y degusta los productos locales del interio de la Comuna de La Higuera junto a mujeres locales. Involúcrate en la reforestación, descubre Los Hornos en circuito por productores locales y concluye con un circuito prehispánico en Caleta los Hornos", "Tour Operador": "Turismo Humboldt, mas informacion en: https://turismohumboldt.cl/", "Origen Data": "Programas turisticos \"Sabores de Humboldt\", una iniciativa de Turismo Humboldt. Programa disponible en: https://turismohumboldt.cl/wp-content/uploads/2024/02/Sabores-de-Humboldt.pdf" }, "geometry": { "type": "Point", "coordinates": [ -71.286642531228026, -29.623468466299485 ] } },
{ "type": "Feature", "properties": { "fid": 3, "Nombre Ruta": "Sabores de Humboldt", "Lugar": "Yerba Buena", "Descripcion": "¡Una experiencia única que fusiona naturaleza, gastronomía y cultura local! avistamiento de aves, senderismo entre olivos y una degustación de aceite. Explora el pasado histórico de Totoralillo (Norte) y Chungungo, participa en talleres llenos de gastronomía y creatividad. Descubre los sabores de la corriente de Humboldt y degusta los productos locales del interio de la Comuna de La Higuera junto a mujeres locales. Involúcrate en la reforestación, descubre Los Hornos en circuito por productores locales y concluye con un circuito prehispánico en Caleta los Hornos", "Tour Operador": "Turismo Humboldt, mas informacion en: https://turismohumboldt.cl/", "Origen Data": "Programas turisticos \"Sabores de Humboldt\", una iniciativa de Turismo Humboldt. Programa disponible en: https://turismohumboldt.cl/wp-content/uploads/2024/02/Sabores-de-Humboldt.pdf" }, "geometry": { "type": "Point", "coordinates": [ -71.300139963999598, -29.573841976613792 ] } },
{ "type": "Feature", "properties": { "fid": 4, "Nombre Ruta": "Sabores de Humboldt", "Lugar": "Totoralillo Norte", "Descripcion": "¡Una experiencia única que fusiona naturaleza, gastronomía y cultura local! avistamiento de aves, senderismo entre olivos y una degustación de aceite. Explora el pasado histórico de Totoralillo (Norte) y Chungungo, participa en talleres llenos de gastronomía y creatividad. Descubre los sabores de la corriente de Humboldt y degusta los productos locales del interio de la Comuna de La Higuera junto a mujeres locales. Involúcrate en la reforestación, descubre Los Hornos en circuito por productores locales y concluye con un circuito prehispánico en Caleta los Hornos", "Tour Operador": "Turismo Humboldt, mas informacion en: https://turismohumboldt.cl/", "Origen Data": "Programas turisticos \"Sabores de Humboldt\", una iniciativa de Turismo Humboldt. Programa disponible en: https://turismohumboldt.cl/wp-content/uploads/2024/02/Sabores-de-Humboldt.pdf" }, "geometry": { "type": "Point", "coordinates": [ -71.327415920544198, -29.493528453095838 ] } },
{ "type": "Feature", "properties": { "fid": 5, "Nombre Ruta": "Sabores de Humboldt", "Lugar": "Chungungo", "Descripcion": "¡Una experiencia única que fusiona naturaleza, gastronomía y cultura local! avistamiento de aves, senderismo entre olivos y una degustación de aceite. Explora el pasado histórico de Totoralillo (Norte) y Chungungo, participa en talleres llenos de gastronomía y creatividad. Descubre los sabores de la corriente de Humboldt y degusta los productos locales del interio de la Comuna de La Higuera junto a mujeres locales. Involúcrate en la reforestación, descubre Los Hornos en circuito por productores locales y concluye con un circuito prehispánico en Caleta los Hornos", "Tour Operador": "Turismo Humboldt, mas informacion en: https://turismohumboldt.cl/", "Origen Data": "Programas turisticos \"Sabores de Humboldt\", una iniciativa de Turismo Humboldt. Programa disponible en: https://turismohumboldt.cl/wp-content/uploads/2024/02/Sabores-de-Humboldt.pdf" }, "geometry": { "type": "Point", "coordinates": [ -71.299904455322732, -29.447044611453226 ] } },
{ "type": "Feature", "properties": { "fid": 6, "Nombre Ruta": "Sabores de Humboldt", "Lugar": "Los Choros", "Descripcion": "¡Una experiencia única que fusiona naturaleza, gastronomía y cultura local! avistamiento de aves, senderismo entre olivos y una degustación de aceite. Explora el pasado histórico de Totoralillo (Norte) y Chungungo, participa en talleres llenos de gastronomía y creatividad. Descubre los sabores de la corriente de Humboldt y degusta los productos locales del interio de la Comuna de La Higuera junto a mujeres locales. Involúcrate en la reforestación, descubre Los Hornos en circuito por productores locales y concluye con un circuito prehispánico en Caleta los Hornos", "Tour Operador": "Turismo Humboldt, mas informacion en: https://turismohumboldt.cl/", "Origen Data": "Programas turisticos \"Sabores de Humboldt\", una iniciativa de Turismo Humboldt. Programa disponible en: https://turismohumboldt.cl/wp-content/uploads/2024/02/Sabores-de-Humboldt.pdf" }, "geometry": { "type": "Point", "coordinates": [ -71.309390643533277, -29.290692173520185 ] } },
{ "type": "Feature", "properties": { "fid": 7, "Nombre Ruta": "Huellas de Humboldt", "Lugar": "Isla Damas", "Descripcion": "Explora una experiencia única que combina historias, cultura y naturaleza en un emocionante viaje. Desde la cálida bienvenida en la Plaza de Los Choros, el circuito marítimo en busca de pingüinos, ballenas y una variedad de fauna, hasta el reconocimiento de flora nativa de la comuna y la contribución a un proyecto de reforestación del \"Lucumillo\", especie en peligro de extinción. Atractivos que conoceras: Pueblo Los Choros, Olivos centenarios, Santuario de la Naturaleza Humedal La Boca, Reserva Nacional Pingüinos de Humboldt, Asentamiento Minero El Tofo, Patrimonio perdido de Totoralillo (Norte), Estancia de Conservación Yerba Buena. Conecta con nuestras raíces: mar, pesca, minería, pasado prehispánico y tradición. ", "Tour Operador": "Turismo Humboldt, mas informacion en: https://turismohumboldt.cl/", "Origen Data": "Programas turisticos \"Ruta Huellas de Humboltd\", una iniciativa de Turismo Humboldt. Programa disponible en: https://turismohumboldt.cl/wp-content/uploads/2024/02/Huellas-de-Humboldt.pdf" }, "geometry": { "type": "Point", "coordinates": [ -71.522888122352555, -29.238535864821586 ] } },
{ "type": "Feature", "properties": { "fid": 8, "Nombre Ruta": "Huellas de Humboldt", "Lugar": "Punta de Choros", "Descripcion": "Explora una experiencia única que combina historias, cultura y naturaleza en un emocionante viaje. Desde la cálida bienvenida en la Plaza de Los Choros, el circuito marítimo en busca de pingüinos, ballenas y una variedad de fauna, hasta el reconocimiento de flora nativa de la comuna y la contribución a un proyecto de reforestación del \"Lucumillo\", especie en peligro de extinción. Atractivos que conoceras: Pueblo Los Choros, Olivos centenarios, Santuario de la Naturaleza Humedal La Boca, Reserva Nacional Pingüinos de Humboldt, Asentamiento Minero El Tofo, Patrimonio perdido de Totoralillo (Norte), Estancia de Conservación Yerba Buena. Conecta con nuestras raíces: mar, pesca, minería, pasado prehispánico y tradición. ", "Tour Operador": "Turismo Humboldt, mas informacion en: https://turismohumboldt.cl/", "Origen Data": "Programas turisticos \"Ruta Huellas de Humboltd\", una iniciativa de Turismo Humboldt. Programa disponible en: https://turismohumboldt.cl/wp-content/uploads/2024/02/Huellas-de-Humboldt.pdf" }, "geometry": { "type": "Point", "coordinates": [ -71.466264745847369, -29.247449741623843 ] } },
{ "type": "Feature", "properties": { "fid": 9, "Nombre Ruta": "Huellas de Humboldt", "Lugar": "El Tofo", "Descripcion": "Explora una experiencia única que combina historias, cultura y naturaleza en un emocionante viaje. Desde la cálida bienvenida en la Plaza de Los Choros, el circuito marítimo en busca de pingüinos, ballenas y una variedad de fauna, hasta el reconocimiento de flora nativa de la comuna y la contribución a un proyecto de reforestación del \"Lucumillo\", especie en peligro de extinción. Atractivos que conoceras: Pueblo Los Choros, Olivos centenarios, Santuario de la Naturaleza Humedal La Boca, Reserva Nacional Pingüinos de Humboldt, Asentamiento Minero El Tofo, Patrimonio perdido de Totoralillo (Norte), Estancia de Conservación Yerba Buena. Conecta con nuestras raíces: mar, pesca, minería, pasado prehispánico y tradición. ", "Tour Operador": "Turismo Humboldt, mas informacion en: https://turismohumboldt.cl/", "Origen Data": "Programas turisticos \"Ruta Huellas de Humboltd\", una iniciativa de Turismo Humboldt. Programa disponible en: https://turismohumboldt.cl/wp-content/uploads/2024/02/Huellas-de-Humboldt.pdf" }, "geometry": { "type": "Point", "coordinates": [ -71.24546269951783, -29.455044309413012 ] } },
{ "type": "Feature", "properties": { "fid": 10, "Nombre Ruta": "Huellas de Humboldt", "Lugar": "Chungungo", "Descripcion": "Explora una experiencia única que combina historias, cultura y naturaleza en un emocionante viaje. Desde la cálida bienvenida en la Plaza de Los Choros, el circuito marítimo en busca de pingüinos, ballenas y una variedad de fauna, hasta el reconocimiento de flora nativa de la comuna y la contribución a un proyecto de reforestación del \"Lucumillo\", especie en peligro de extinción. Atractivos que conoceras: Pueblo Los Choros, Olivos centenarios, Santuario de la Naturaleza Humedal La Boca, Reserva Nacional Pingüinos de Humboldt, Asentamiento Minero El Tofo, Patrimonio perdido de Totoralillo (Norte), Estancia de Conservación Yerba Buena. Conecta con nuestras raíces: mar, pesca, minería, pasado prehispánico y tradición. ", "Tour Operador": "Turismo Humboldt, mas informacion en: https://turismohumboldt.cl/", "Origen Data": "Programas turisticos \"Ruta Huellas de Humboltd\", una iniciativa de Turismo Humboldt. Programa disponible en: https://turismohumboldt.cl/wp-content/uploads/2024/02/Huellas-de-Humboldt.pdf" }, "geometry": { "type": "Point", "coordinates": [ -71.312448457805615, -29.451772511450368 ] } },
{ "type": "Feature", "properties": { "fid": 11, "Nombre Ruta": "Huellas de Humboldt", "Lugar": "Totoralillo Norte", "Descripcion": "Explora una experiencia única que combina historias, cultura y naturaleza en un emocionante viaje. Desde la cálida bienvenida en la Plaza de Los Choros, el circuito marítimo en busca de pingüinos, ballenas y una variedad de fauna, hasta el reconocimiento de flora nativa de la comuna y la contribución a un proyecto de reforestación del \"Lucumillo\", especie en peligro de extinción. Atractivos que conoceras: Pueblo Los Choros, Olivos centenarios, Santuario de la Naturaleza Humedal La Boca, Reserva Nacional Pingüinos de Humboldt, Asentamiento Minero El Tofo, Patrimonio perdido de Totoralillo (Norte), Estancia de Conservación Yerba Buena. Conecta con nuestras raíces: mar, pesca, minería, pasado prehispánico y tradición. ", "Tour Operador": "Turismo Humboldt, mas informacion en: https://turismohumboldt.cl/", "Origen Data": "Programas turisticos \"Ruta Huellas de Humboltd\", una iniciativa de Turismo Humboldt. Programa disponible en: https://turismohumboldt.cl/wp-content/uploads/2024/02/Huellas-de-Humboldt.pdf" }, "geometry": { "type": "Point", "coordinates": [ -71.328868224051561, -29.492340780306048 ] } },
{ "type": "Feature", "properties": { "fid": 12, "Nombre Ruta": "Huellas de Humboldt", "Lugar": "Yerbas Buenas", "Descripcion": "Explora una experiencia única que combina historias, cultura y naturaleza en un emocionante viaje. Desde la cálida bienvenida en la Plaza de Los Choros, el circuito marítimo en busca de pingüinos, ballenas y una variedad de fauna, hasta el reconocimiento de flora nativa de la comuna y la contribución a un proyecto de reforestación del \"Lucumillo\", especie en peligro de extinción. Atractivos que conoceras: Pueblo Los Choros, Olivos centenarios, Santuario de la Naturaleza Humedal La Boca, Reserva Nacional Pingüinos de Humboldt, Asentamiento Minero El Tofo, Patrimonio perdido de Totoralillo (Norte), Estancia de Conservación Yerba Buena. Conecta con nuestras raíces: mar, pesca, minería, pasado prehispánico y tradición. ", "Tour Operador": "Turismo Humboldt, mas informacion en: https://turismohumboldt.cl/", "Origen Data": "Programas turisticos \"Ruta Huellas de Humboltd\", una iniciativa de Turismo Humboldt. Programa disponible en: https://turismohumboldt.cl/wp-content/uploads/2024/02/Huellas-de-Humboldt.pdf" }, "geometry": { "type": "Point", "coordinates": [ -71.299908253849679, -29.573905285397981 ] } },
{ "type": "Feature", "properties": { "fid": 13, "Nombre Ruta": "Humboldt Aventura", "Lugar": "Chungungo", "Descripcion": "Comienza observando con tus propios ojos la belleza oceánica de los mares de La Higuera buceando en Chungungo para luego aventurarte en una experiencia en dos ruedas en El Apolillado. Reconoce la fauna del Archipiélago de Humboldt en una emocionante experiencia en bote. Vive la emocionante aventura volando en Caleta Los Hornos y finaliza tu viaje  contribuyendo a la conservación del Lucumillo en un proyecto de reforestación en Estancia Yerba Buena.  Atractivos que conocerás: Buceo en Chungungo y Cicloturismo en El Apolillado, Avistamiento de pingüinos en el paseo marítimo a Isla Tilgo e Islote Caleta Los Hornos, Parapente en las dunas costeras de Yerba Buena y estancia de reforestación.", "Tour Operador": "Turismo Humboldt, mas informacion en: https://turismohumboldt.cl/", "Origen Data": "Programas turisticos \"Ruta Humboltd Aventura\", una iniciativa de Turismo Humboldt. Programa disponible en: https://turismohumboldt.cl/wp-content/uploads/2024/02/Humboldt-Aventura.pdf" }, "geometry": { "type": "Point", "coordinates": [ -71.307004975315152, -29.44776638395242 ] } },
{ "type": "Feature", "properties": { "fid": 14, "Nombre Ruta": "Humboldt Aventura", "Lugar": "Isla Tilgo", "Descripcion": "Comienza observando con tus propios ojos la belleza oceánica de los mares de La Higuera buceando en Chungungo para luego aventurarte en una experiencia en dos ruedas en El Apolillado. Reconoce la fauna del Archipiélago de Humboldt en una emocionante experiencia en bote. Vive la emocionante aventura volando en Caleta Los Hornos y finaliza tu viaje  contribuyendo a la conservación del Lucumillo en un proyecto de reforestación en Estancia Yerba Buena.  Atractivos que conocerás: Buceo en Chungungo y Cicloturismo en El Apolillado, Avistamiento de pingüinos en el paseo marítimo a Isla Tilgo e Islote Caleta Los Hornos, Parapente en las dunas costeras de Yerba Buena y estancia de reforestación.", "Tour Operador": "Turismo Humboldt, mas informacion en: https://turismohumboldt.cl/", "Origen Data": "Programas turisticos \"Ruta Humboltd Aventura\", una iniciativa de Turismo Humboldt. Programa disponible en: https://turismohumboldt.cl/wp-content/uploads/2024/02/Humboldt-Aventura.pdf" }, "geometry": { "type": "Point", "coordinates": [ -71.336421721492613, -29.544308516507797 ] } },
{ "type": "Feature", "properties": { "fid": 15, "Nombre Ruta": "Humboldt Aventura", "Lugar": "El Apolillado", "Descripcion": "Comienza observando con tus propios ojos la belleza oceánica de los mares de La Higuera buceando en Chungungo para luego aventurarte en una experiencia en dos ruedas en El Apolillado. Reconoce la fauna del Archipiélago de Humboldt en una emocionante experiencia en bote. Vive la emocionante aventura volando en Caleta Los Hornos y finaliza tu viaje  contribuyendo a la conservación del Lucumillo en un proyecto de reforestación en Estancia Yerba Buena.  Atractivos que conocerás: Buceo en Chungungo y Cicloturismo en El Apolillado, Avistamiento de pingüinos en el paseo marítimo a Isla Tilgo e Islote Caleta Los Hornos, Parapente en las dunas costeras de Yerba Buena y estancia de reforestación.", "Tour Operador": "Turismo Humboldt, mas informacion en: https://turismohumboldt.cl/", "Origen Data": "Programas turisticos \"Ruta Humboltd Aventura\", una iniciativa de Turismo Humboldt. Programa disponible en: https://turismohumboldt.cl/wp-content/uploads/2024/02/Humboldt-Aventura.pdf" }, "geometry": { "type": "Point", "coordinates": [ -71.489148392339331, -29.180555925295625 ] } },
{ "type": "Feature", "properties": { "fid": 16, "Nombre Ruta": "Humboldt Aventura", "Lugar": "Dunas", "Descripcion": "Comienza observando con tus propios ojos la belleza oceánica de los mares de La Higuera buceando en Chungungo para luego aventurarte en una experiencia en dos ruedas en El Apolillado. Reconoce la fauna del Archipiélago de Humboldt en una emocionante experiencia en bote. Vive la emocionante aventura volando en Caleta Los Hornos y finaliza tu viaje  contribuyendo a la conservación del Lucumillo en un proyecto de reforestación en Estancia Yerba Buena.  Atractivos que conocerás: Buceo en Chungungo y Cicloturismo en El Apolillado, Avistamiento de pingüinos en el paseo marítimo a Isla Tilgo e Islote Caleta Los Hornos, Parapente en las dunas costeras de Yerba Buena y estancia de reforestación.", "Tour Operador": "Turismo Humboldt, mas informacion en: https://turismohumboldt.cl/", "Origen Data": "Programas turisticos \"Ruta Humboltd Aventura\", una iniciativa de Turismo Humboldt. Programa disponible en: https://turismohumboldt.cl/wp-content/uploads/2024/02/Humboldt-Aventura.pdf" }, "geometry": { "type": "Point", "coordinates": [ -71.286219589962613, -29.609781089110655 ] } },
{ "type": "Feature", "properties": { "fid": 17, "Nombre Ruta": "Humboldt Aventura", "Lugar": "Yerbas Buenas", "Descripcion": "Comienza observando con tus propios ojos la belleza oceánica de los mares de La Higuera buceando en Chungungo para luego aventurarte en una experiencia en dos ruedas en El Apolillado. Reconoce la fauna del Archipiélago de Humboldt en una emocionante experiencia en bote. Vive la emocionante aventura volando en Caleta Los Hornos y finaliza tu viaje  contribuyendo a la conservación del Lucumillo en un proyecto de reforestación en Estancia Yerba Buena.  Atractivos que conocerás: Buceo en Chungungo y Cicloturismo en El Apolillado, Avistamiento de pingüinos en el paseo marítimo a Isla Tilgo e Islote Caleta Los Hornos, Parapente en las dunas costeras de Yerba Buena y estancia de reforestación.", "Tour Operador": "Turismo Humboldt, mas informacion en: https://turismohumboldt.cl/", "Origen Data": "Programas turisticos \"Ruta Humboltd Aventura\", una iniciativa de Turismo Humboldt. Programa disponible en: https://turismohumboldt.cl/wp-content/uploads/2024/02/Humboldt-Aventura.pdf" }, "geometry": { "type": "Point", "coordinates": [ -71.299995820602504, -29.573569441858076 ] } }
]
}
